{"type": "FeatureCollection", "features": [{"type": "Feature", "properties": {"node_id": 0, "node_type": "endpoint", "degree": 1, "link_types": "sidewalk"}, "geometry": {"type": "Point", "coordinates": [-77.0457878, 38.9176593]}}, {"type": "Feature", "properties": {"node_id": 1, "node_type": "junction", "degree": 3, "link_types": "sidewalk"}, "geometry": {"type": "Point", "coordinates": [-77.04568, 38.9178301]}}, {"type": "Feature", "properties": {"node_id": 2, "node_type": "endpoint", "degree": 1, "link_types": "sidewalk"}, "geometry": {"type": "Point", "coordinates": [-77.0464442, 38.9198484]}}, {"type": "Feature", "properties": {"node_id": 3, "node_type": "type_change", "degree": 2, "link_types": "midblock+sidewalk"}, "geometry": {"type": "Point", "coordinates": [-77.0463615, 38.9196594]}}, {"type": "Feature", "properties": {"node_id": 4, "node_type": "type_change", "degree": 2, "link_types": "midblock+sidewalk"}, "geometry": {"type": "Point", "coordinates": [-77.04634, 38.9195953]}}, {"type": "Feature", "properties": {"node_id": 5, "node_type": "junction", "degree": 3, "link_types": "sidewalk"}, "geometry": {"type": "Point", "coordinates": [-77.0462955, 38.9195198]}}, {"type": "Feature", "properties": {"node_id": 6, "node_type": "junction", "degree": 3, "link_types": "sidewalk"}, "geometry": {"type": "Point", "coordinates": [-77.0465336, 38.9196869]}}, {"type": "Feature", "properties": {"node_id": 7, "node_type": "junction", "degree": 3, "link_types": "sidewalk"}, "geometry": {"type": "Point", "coordinates": [-77.0465336, 38.9196876]}}, {"type": "Feature", "properties": {"node_id": 8, "node_type": "junction", "degree": 3, "link_types": "sidewalk"}, "geometry": {"type": "Point", "coordinates": [-77.0465327, 38.9196876]}}, {"type": "Feature", "properties": {"node_id": 9, "node_type": "junction", "degree": 3, "link_types": "sidewalk"}, "geometry": {"type": "Point", "coordinates": [-77.0462842, 38.9192244]}}, {"type": "Feature", "properties": {"node_id": 10, "node_type": "endpoint", "degree": 1, "link_types": "sidewalk"}, "geometry": {"type": "Point", "coordinates": [-77.0463615, 38.9188431]}}, {"type": "Feature", "properties": {"node_id": 11, "node_type": "junction", "degree": 3, "link_types": "sidewalk"}, "geometry": {"type": "Point", "coordinates": [-77.0466364, 38.9189641]}}, {"type": "Feature", "properties": {"node_id": 12, "node_type": "junction", "degree": 3, "link_types": "sidewalk"}, "geometry": {"type": "Point", "coordinates": [-77.0446272, 38.9188236]}}, {"type": "Feature", "properties": {"node_id": 13, "node_type": "endpoint", "degree": 1, "link_types": "sidewalk"}, "geometry": {"type": "Point", "coordinates": [-77.0446438, 38.9188286]}}, {"type": "Feature", "properties": {"node_id": 14, "node_type": "type_change", "degree": 3, "link_types": "pseudo+sidewalk"}, "geometry": {"type": "Point", "coordinates": [-77.0446262, 38.9188236]}}, {"type": "Feature", "properties": {"node_id": 15, "node_type": "type_change", "degree": 3, "link_types": "pseudo+sidewalk"}, "geometry": {"type": "Point", "coordinates": [-77.0446272, 38.9188229]}}, {"type": "Feature", "properties": {"node_id": 16, "node_type": "junction", "degree": 3, "link_types": "sidewalk"}, "geometry": {"type": "Point", "coordinates": [-77.0447341, 38.9187299]}}, {"type": "Feature", "properties": {"node_id": 17, "node_type": "junction", "degree": 3, "link_types": "sidewalk"}, "geometry": {"type": "Point", "coordinates": [-77.0447341, 38.9187306]}}, {"type": "Feature", "properties": {"node_id": 18, "node_type": "type_change", "degree": 3, "link_types": "pseudo+sidewalk"}, "geometry": {"type": "Point", "coordinates": [-77.0447332, 38.9187306]}}, {"type": "Feature", "properties": {"node_id": 19, "node_type": "type_change", "degree": 3, "link_types": "pseudo+sidewalk"}, "geometry": {"type": "Point", "coordinates": [-77.0447433, 38.9187104]}}, {"type": "Feature", "properties": {"node_id": 20, "node_type": "junction", "degree": 3, "link_types": "sidewalk"}, "geometry": {"type": "Point", "coordinates": [-77.0446962, 38.9185562]}}, {"type": "Feature", "properties": {"node_id": 21, "node_type": "junction", "degree": 3, "link_types": "sidewalk"}, "geometry": {"type": "Point", "coordinates": [-77.0446953, 38.9185569]}}, {"type": "Feature", "properties": {"node_id": 22, "node_type": "junction", "degree": 3, "link_types": "sidewalk"}, "geometry": {"type": "Point", "coordinates": [-77.0446952, 38.9185562]}}, {"type": "Feature", "properties": {"node_id": 23, "node_type": "junction", "degree": 3, "link_types": "sidewalk"}, "geometry": {"type": "Point", "coordinates": [-77.0450568, 38.9184026]}}, {"type": "Feature", "properties": {"node_id": 24, "node_type": "junction", "degree": 3, "link_types": "sidewalk"}, "geometry": {"type": "Point", "coordinates": [-77.0461876, 38.9181621]}}, {"type": "Feature", "properties": {"node_id": 25, "node_type": "junction", "degree": 3, "link_types": "sidewalk"}, "geometry": {"type": "Point", "coordinates": [-77.0461885, 38.9181629]}}, {"type": "Feature", "properties": {"node_id": 26, "node_type": "junction", "degree": 3, "link_types": "sidewalk"}, "geometry": {"type": "Point", "coordinates": [-77.0461885, 38.9181621]}}, {"type": "Feature", "properties": {"node_id": 27, "node_type": "type_change", "degree": 2, "link_types": "midblock+sidewalk"}, "geometry": {"type": "Point", "coordinates": [-77.0459726, 38.9185805]}}, {"type": "Feature", "properties": {"node_id": 28, "node_type": "type_change", "degree": 2, "link_types": "midblock+sidewalk"}, "geometry": {"type": "Point", "coordinates": [-77.0459933, 38.9186271]}}, {"type": "Feature", "properties": {"node_id": 29, "node_type": "junction", "degree": 3, "link_types": "sidewalk"}, "geometry": {"type": "Point", "coordinates": [-77.0462269, 38.9190824]}}, {"type": "Feature", "properties": {"node_id": 30, "node_type": "endpoint", "degree": 1, "link_types": "sidewalk"}, "geometry": {"type": "Point", "coordinates": [-77.0455888, 38.9180478]}}, {"type": "Feature", "properties": {"node_id": 31, "node_type": "type_change", "degree": 3, "link_types": "pseudo+sidewalk"}, "geometry": {"type": "Point", "coordinates": [-77.0455824, 38.9180485]}}, {"type": "Feature", "properties": {"node_id": 32, "node_type": "junction", "degree": 3, "link_types": "sidewalk"}, "geometry": {"type": "Point", "coordinates": [-77.0447916, 38.9192703]}}, {"type": "Feature", "properties": {"node_id": 33, "node_type": "type_change", "degree": 3, "link_types": "pseudo+sidewalk"}, "geometry": {"type": "Point", "coordinates": [-77.0447926, 38.9192703]}}, {"type": "Feature", "properties": {"node_id": 34, "node_type": "type_change", "degree": 3, "link_types": "pseudo+sidewalk"}, "geometry": {"type": "Point", "coordinates": [-77.0447824, 38.9192718]}}, {"type": "Feature", "properties": {"node_id": 35, "node_type": "type_change", "degree": 3, "link_types": "pseudo+sidewalk"}, "geometry": {"type": "Point", "coordinates": [-77.0447926, 38.9192696]}}, {"type": "Feature", "properties": {"node_id": 36, "node_type": "junction", "degree": 3, "link_types": "sidewalk"}, "geometry": {"type": "Point", "coordinates": [-77.0450584, 38.9194547]}}, {"type": "Feature", "properties": {"node_id": 37, "node_type": "type_change", "degree": 3, "link_types": "pseudo+sidewalk"}, "geometry": {"type": "Point", "coordinates": [-77.0450593, 38.9194554]}}, {"type": "Feature", "properties": {"node_id": 38, "node_type": "type_change", "degree": 3, "link_types": "pseudo+sidewalk"}, "geometry": {"type": "Point", "coordinates": [-77.0450593, 38.9194547]}}, {"type": "Feature", "properties": {"node_id": 39, "node_type": "junction", "degree": 3, "link_types": "sidewalk"}, "geometry": {"type": "Point", "coordinates": [-77.0450325, 38.9194468]}}, {"type": "Feature", "properties": {"node_id": 40, "node_type": "junction", "degree": 3, "link_types": "sidewalk"}, "geometry": {"type": "Point", "coordinates": [-77.0453437, 38.9183844]}}, {"type": "Feature", "properties": {"node_id": 41, "node_type": "junction", "degree": 3, "link_types": "sidewalk"}, "geometry": {"type": "Point", "coordinates": [-77.0453151, 38.9184032]}}, {"type": "Feature", "properties": {"node_id": 42, "node_type": "junction", "degree": 3, "link_types": "sidewalk"}, "geometry": {"type": "Point", "coordinates": [-77.0453446, 38.9183844]}}, {"type": "Feature", "properties": {"node_id": 43, "node_type": "type_change", "degree": 3, "link_types": "pseudo+sidewalk"}, "geometry": {"type": "Point", "coordinates": [-77.0453437, 38.9183837]}}, {"type": "Feature", "properties": {"node_id": 44, "node_type": "junction", "degree": 3, "link_types": "sidewalk"}, "geometry": {"type": "Point", "coordinates": [-77.0451027, 38.9195837]}}, {"type": "Feature", "properties": {"node_id": 45, "node_type": "type_change", "degree": 3, "link_types": "pseudo+sidewalk"}, "geometry": {"type": "Point", "coordinates": [-77.0451027, 38.9195844]}}, {"type": "Feature", "properties": {"node_id": 46, "node_type": "type_change", "degree": 3, "link_types": "pseudo+sidewalk"}, "geometry": {"type": "Point", "coordinates": [-77.0451018, 38.9195844]}}, {"type": "Feature", "properties": {"node_id": 47, "node_type": "type_change", "degree": 3, "link_types": "pseudo+sidewalk"}, "geometry": {"type": "Point", "coordinates": [-77.0451129, 38.9195614]}}, {"type": "Feature", "properties": {"node_id": 48, "node_type": "endpoint", "degree": 1, "link_types": "sidewalk"}, "geometry": {"type": "Point", "coordinates": [-77.0464718, 38.9197439]}}, {"type": "Feature", "properties": {"node_id": 49, "node_type": "junction", "degree": 3, "link_types": "sidewalk"}, "geometry": {"type": "Point", "coordinates": [-77.0449468, 38.919627]}}, {"type": "Feature", "properties": {"node_id": 50, "node_type": "type_change", "degree": 3, "link_types": "pseudo+sidewalk"}, "geometry": {"type": "Point", "coordinates": [-77.0449681, 38.9196299]}}, {"type": "Feature", "properties": {"node_id": 51, "node_type": "junction", "degree": 3, "link_types": "sidewalk"}, "geometry": {"type": "Point", "coordinates": [-77.0449459, 38.9196277]}}, {"type": "Feature", "properties": {"node_id": 52, "node_type": "junction", "degree": 3, "link_types": "sidewalk"}, "geometry": {"type": "Point", "coordinates": [-77.0449459, 38.919627]}}, {"type": "Feature", "properties": {"node_id": 53, "node_type": "junction", "degree": 3, "link_types": "pseudo"}, "geometry": {"type": "Point", "coordinates": [-77.0445963, 38.9195774]}}, {"type": "Feature", "properties": {"node_id": 54, "node_type": "type_change", "degree": 2, "link_types": "crosswalk+pseudo"}, "geometry": {"type": "Point", "coordinates": [-77.0445935, 38.9195897]}}, {"type": "Feature", "properties": {"node_id": 55, "node_type": "type_change", "degree": 2, "link_types": "crosswalk+pseudo"}, "geometry": {"type": "Point", "coordinates": [-77.0445124, 38.9196906]}}, {"type": "Feature", "properties": {"node_id": 56, "node_type": "type_change", "degree": 3, "link_types": "pseudo+sidewalk"}, "geometry": {"type": "Point", "coordinates": [-77.044517, 38.9197072]}}, {"type": "Feature", "properties": {"node_id": 57, "node_type": "type_change", "degree": 3, "link_types": "pseudo+sidewalk"}, "geometry": {"type": "Point", "coordinates": [-77.0445972, 38.9195767]}}, {"type": "Feature", "properties": {"node_id": 58, "node_type": "type_change", "degree": 3, "link_types": "pseudo+sidewalk"}, "geometry": {"type": "Point", "coordinates": [-77.0445963, 38.9195767]}}, {"type": "Feature", "properties": {"node_id": 59, "node_type": "endpoint", "degree": 1, "link_types": "sidewalk"}, "geometry": {"type": "Point", "coordinates": [-77.0457557, 38.9178762]}}, {"type": "Feature", "properties": {"node_id": 60, "node_type": "junction", "degree": 3, "link_types": "sidewalk"}, "geometry": {"type": "Point", "coordinates": [-77.04568, 38.9178308]}}, {"type": "Feature", "properties": {"node_id": 61, "node_type": "junction", "degree": 3, "link_types": "pseudo"}, "geometry": {"type": "Point", "coordinates": [-77.0456321, 38.9179108]}}, {"type": "Feature", "properties": {"node_id": 62, "node_type": "type_change", "degree": 3, "link_types": "pseudo+sidewalk"}, "geometry": {"type": "Point", "coordinates": [-77.045633, 38.9179108]}}, {"type": "Feature", "properties": {"node_id": 63, "node_type": "type_change", "degree": 2, "link_types": "crosswalk+pseudo"}, "geometry": {"type": "Point", "coordinates": [-77.0456183, 38.9179137]}}, {"type": "Feature", "properties": {"node_id": 64, "node_type": "type_change", "degree": 2, "link_types": "crosswalk+pseudo"}, "geometry": {"type": "Point", "coordinates": [-77.0455639, 38.9180334]}}, {"type": "Feature", "properties": {"node_id": 65, "node_type": "type_change", "degree": 3, "link_types": "pseudo+sidewalk"}, "geometry": {"type": "Point", "coordinates": [-77.045633, 38.9179101]}}, {"type": "Feature", "properties": {"node_id": 66, "node_type": "junction", "degree": 3, "link_types": "sidewalk"}, "geometry": {"type": "Point", "coordinates": [-77.0440779, 38.919716]}}, {"type": "Feature", "properties": {"node_id": 67, "node_type": "endpoint", "degree": 1, "link_types": "sidewalk"}, "geometry": {"type": "Point", "coordinates": [-77.0440493, 38.9197556]}}, {"type": "Feature", "properties": {"node_id": 68, "node_type": "junction", "degree": 3, "link_types": "sidewalk"}, "geometry": {"type": "Point", "coordinates": [-77.0442163, 38.9197224]}}, {"type": "Feature", "properties": {"node_id": 69, "node_type": "endpoint", "degree": 1, "link_types": "sidewalk"}, "geometry": {"type": "Point", "coordinates": [-77.0440567, 38.919685]}}, {"type": "Feature", "properties": {"node_id": 70, "node_type": "junction", "degree": 3, "link_types": "sidewalk"}, "geometry": {"type": "Point", "coordinates": [-77.0448369, 38.9194354]}}, {"type": "Feature", "properties": {"node_id": 71, "node_type": "junction", "degree": 3, "link_types": "sidewalk"}, "geometry": {"type": "Point", "coordinates": [-77.0448896, 38.919493]}}, {"type": "Feature", "properties": {"node_id": 72, "node_type": "junction", "degree": 3, "link_types": "sidewalk"}, "geometry": {"type": "Point", "coordinates": [-77.0448167, 38.919493]}}, {"type": "Feature", "properties": {"node_id": 73, "node_type": "junction", "degree": 3, "link_types": "sidewalk"}, "geometry": {"type": "Point", "coordinates": [-77.044776, 38.9192783]}}, {"type": "Feature", "properties": {"node_id": 74, "node_type": "junction", "degree": 3, "link_types": "sidewalk"}, "geometry": {"type": "Point", "coordinates": [-77.0447239, 38.9185865]}}, {"type": "Feature", "properties": {"node_id": 75, "node_type": "junction", "degree": 3, "link_types": "sidewalk"}, "geometry": {"type": "Point", "coordinates": [-77.0442299, 38.9178941]}}, {"type": "Feature", "properties": {"node_id": 76, "node_type": "type_change", "degree": 2, "link_types": "midblock+sidewalk"}, "geometry": {"type": "Point", "coordinates": [-77.0443643, 38.9182501]}}, {"type": "Feature", "properties": {"node_id": 77, "node_type": "type_change", "degree": 2, "link_types": "midblock+sidewalk"}, "geometry": {"type": "Point", "coordinates": [-77.0443876, 38.9183069]}}, {"type": "Feature", "properties": {"node_id": 78, "node_type": "type_change", "degree": 3, "link_types": "pseudo+sidewalk"}, "geometry": {"type": "Point", "coordinates": [-77.0445265, 38.9186608]}}, {"type": "Feature", "properties": {"node_id": 79, "node_type": "junction", "degree": 3, "link_types": "sidewalk"}, "geometry": {"type": "Point", "coordinates": [-77.0442299, 38.9178934]}}, {"type": "Feature", "properties": {"node_id": 80, "node_type": "junction", "degree": 3, "link_types": "sidewalk"}, "geometry": {"type": "Point", "coordinates": [-77.044229, 38.9178934]}}, {"type": "Feature", "properties": {"node_id": 81, "node_type": "junction", "degree": 3, "link_types": "pseudo"}, "geometry": {"type": "Point", "coordinates": [-77.0446679, 38.9190455]}}, {"type": "Feature", "properties": {"node_id": 82, "node_type": "type_change", "degree": 2, "link_types": "crosswalk+pseudo"}, "geometry": {"type": "Point", "coordinates": [-77.0446771, 38.9190499]}}, {"type": "Feature", "properties": {"node_id": 83, "node_type": "type_change", "degree": 2, "link_types": "crosswalk+pseudo"}, "geometry": {"type": "Point", "coordinates": [-77.0447575, 38.9192516]}}, {"type": "Feature", "properties": {"node_id": 84, "node_type": "type_change", "degree": 3, "link_types": "pseudo+sidewalk"}, "geometry": {"type": "Point", "coordinates": [-77.044667, 38.9190455]}}, {"type": "Feature", "properties": {"node_id": 85, "node_type": "type_change", "degree": 3, "link_types": "pseudo+sidewalk"}, "geometry": {"type": "Point", "coordinates": [-77.044667, 38.9190448]}}, {"type": "Feature", "properties": {"node_id": 86, "node_type": "junction", "degree": 3, "link_types": "sidewalk"}, "geometry": {"type": "Point", "coordinates": [-77.0443609, 38.917876]}}, {"type": "Feature", "properties": {"node_id": 87, "node_type": "junction", "degree": 3, "link_types": "sidewalk"}, "geometry": {"type": "Point", "coordinates": [-77.0443951, 38.9179531]}}, {"type": "Feature", "properties": {"node_id": 88, "node_type": "type_change", "degree": 3, "link_types": "pseudo+sidewalk"}, "geometry": {"type": "Point", "coordinates": [-77.04436, 38.917876]}}, {"type": "Feature", "properties": {"node_id": 89, "node_type": "type_change", "degree": 3, "link_types": "pseudo+sidewalk"}, "geometry": {"type": "Point", "coordinates": [-77.0443609, 38.9178753]}}, {"type": "Feature", "properties": {"node_id": 90, "node_type": "junction", "degree": 3, "link_types": "sidewalk"}, "geometry": {"type": "Point", "coordinates": [-77.0462946, 38.9195191]}}, {"type": "Feature", "properties": {"node_id": 91, "node_type": "junction", "degree": 3, "link_types": "sidewalk"}, "geometry": {"type": "Point", "coordinates": [-77.0462946, 38.9195198]}}, {"type": "Feature", "properties": {"node_id": 92, "node_type": "junction", "degree": 3, "link_types": "sidewalk"}, "geometry": {"type": "Point", "coordinates": [-77.0462715, 38.9194802]}}, {"type": "Feature", "properties": {"node_id": 93, "node_type": "junction", "degree": 3, "link_types": "crosswalk"}, "geometry": {"type": "Point", "coordinates": [-77.0449785, 38.9186065]}}, {"type": "Feature", "properties": {"node_id": 94, "node_type": "junction", "degree": 3, "link_types": "crosswalk"}, "geometry": {"type": "Point", "coordinates": [-77.0449813, 38.9186058]}}, {"type": "Feature", "properties": {"node_id": 95, "node_type": "type_change", "degree": 4, "link_types": "crosswalk+pseudo"}, "geometry": {"type": "Point", "coordinates": [-77.0449776, 38.9186065]}}, {"type": "Feature", "properties": {"node_id": 96, "node_type": "type_change", "degree": 4, "link_types": "crosswalk+pseudo"}, "geometry": {"type": "Point", "coordinates": [-77.0449776, 38.9186058]}}, {"type": "Feature", "properties": {"node_id": 97, "node_type": "endpoint", "degree": 1, "link_types": "sidewalk"}, "geometry": {"type": "Point", "coordinates": [-77.0444081, 38.9195602]}}, {"type": "Feature", "properties": {"node_id": 98, "node_type": "junction", "degree": 3, "link_types": "sidewalk"}, "geometry": {"type": "Point", "coordinates": [-77.0443582, 38.9195516]}}, {"type": "Feature", "properties": {"node_id": 99, "node_type": "endpoint", "degree": 1, "link_types": "sidewalk"}, "geometry": {"type": "Point", "coordinates": [-77.0468764, 38.9177677]}}, {"type": "Feature", "properties": {"node_id": 100, "node_type": "junction", "degree": 3, "link_types": "sidewalk"}, "geometry": {"type": "Point", "coordinates": [-77.0467722, 38.917803]}}, {"type": "Feature", "properties": {"node_id": 101, "node_type": "junction", "degree": 3, "link_types": "sidewalk"}, "geometry": {"type": "Point", "coordinates": [-77.0462842, 38.9192236]}}, {"type": "Feature", "properties": {"node_id": 102, "node_type": "junction", "degree": 3, "link_types": "sidewalk"}, "geometry": {"type": "Point", "coordinates": [-77.0462833, 38.9192244]}}, {"type": "Feature", "properties": {"node_id": 103, "node_type": "junction", "degree": 3, "link_types": "sidewalk"}, "geometry": {"type": "Point", "coordinates": [-77.0462842, 38.91922]}}, {"type": "Feature", "properties": {"node_id": 104, "node_type": "junction", "degree": 3, "link_types": "sidewalk"}, "geometry": {"type": "Point", "coordinates": [-77.0466364, 38.9189648]}}, {"type": "Feature", "properties": {"node_id": 105, "node_type": "type_change", "degree": 3, "link_types": "pseudo+sidewalk"}, "geometry": {"type": "Point", "coordinates": [-77.0462555, 38.9190874]}}, {"type": "Feature", "properties": {"node_id": 106, "node_type": "junction", "degree": 3, "link_types": "sidewalk"}, "geometry": {"type": "Point", "coordinates": [-77.0466374, 38.9189641]}}, {"type": "Feature", "properties": {"node_id": 107, "node_type": "junction", "degree": 3, "link_types": "sidewalk"}, "geometry": {"type": "Point", "coordinates": [-77.044605, 38.9188272]}}, {"type": "Feature", "properties": {"node_id": 108, "node_type": "junction", "degree": 3, "link_types": "sidewalk"}, "geometry": {"type": "Point", "coordinates": [-77.0446059, 38.9188279]}}, {"type": "Feature", "properties": {"node_id": 109, "node_type": "junction", "degree": 3, "link_types": "sidewalk"}, "geometry": {"type": "Point", "coordinates": [-77.0446059, 38.9188272]}}, {"type": "Feature", "properties": {"node_id": 110, "node_type": "junction", "degree": 3, "link_types": "sidewalk"}, "geometry": {"type": "Point", "coordinates": [-77.0445589, 38.9187998]}}, {"type": "Feature", "properties": {"node_id": 111, "node_type": "endpoint", "degree": 1, "link_types": "sidewalk"}, "geometry": {"type": "Point", "coordinates": [-77.0468772, 38.9189229]}}, {"type": "Feature", "properties": {"node_id": 112, "node_type": "endpoint", "degree": 1, "link_types": "sidewalk"}, "geometry": {"type": "Point", "coordinates": [-77.0455252, 38.9180319]}}, {"type": "Feature", "properties": {"node_id": 113, "node_type": "junction", "degree": 3, "link_types": "sidewalk"}, "geometry": {"type": "Point", "coordinates": [-77.0455363, 38.9180838]}}, {"type": "Feature", "properties": {"node_id": 114, "node_type": "endpoint", "degree": 1, "link_types": "sidewalk"}, "geometry": {"type": "Point", "coordinates": [-77.0449911, 38.9196392]}}, {"type": "Feature", "properties": {"node_id": 115, "node_type": "endpoint", "degree": 1, "link_types": "sidewalk"}, "geometry": {"type": "Point", "coordinates": [-77.0457629, 38.9190307]}}, {"type": "Feature", "properties": {"node_id": 116, "node_type": "endpoint", "degree": 1, "link_types": "sidewalk"}, "geometry": {"type": "Point", "coordinates": [-77.0457472, 38.9189788]}}, {"type": "Feature", "properties": {"node_id": 117, "node_type": "junction", "degree": 3, "link_types": "sidewalk"}, "geometry": {"type": "Point", "coordinates": [-77.0455363, 38.9180846]}}, {"type": "Feature", "properties": {"node_id": 118, "node_type": "junction", "degree": 3, "link_types": "sidewalk"}, "geometry": {"type": "Point", "coordinates": [-77.0454423, 38.918228]}}, {"type": "Feature", "properties": {"node_id": 119, "node_type": "junction", "degree": 3, "link_types": "sidewalk"}, "geometry": {"type": "Point", "coordinates": [-77.0455372, 38.9180838]}}, {"type": "Feature", "properties": {"node_id": 120, "node_type": "junction", "degree": 3, "link_types": "sidewalk"}, "geometry": {"type": "Point", "coordinates": [-77.0462133, 38.9193764]}}, {"type": "Feature", "properties": {"node_id": 121, "node_type": "endpoint", "degree": 1, "link_types": "sidewalk"}, "geometry": {"type": "Point", "coordinates": [-77.0461367, 38.9193967]}}, {"type": "Feature", "properties": {"node_id": 122, "node_type": "junction", "degree": 3, "link_types": "sidewalk"}, "geometry": {"type": "Point", "coordinates": [-77.0462142, 38.9193764]}}, {"type": "Feature", "properties": {"node_id": 123, "node_type": "junction", "degree": 3, "link_types": "sidewalk"}, "geometry": {"type": "Point", "coordinates": [-77.0462142, 38.9193757]}}, {"type": "Feature", "properties": {"node_id": 124, "node_type": "junction", "degree": 3, "link_types": "sidewalk"}, "geometry": {"type": "Point", "coordinates": [-77.0452082, 38.9185711]}}, {"type": "Feature", "properties": {"node_id": 125, "node_type": "junction", "degree": 3, "link_types": "sidewalk"}, "geometry": {"type": "Point", "coordinates": [-77.0452082, 38.9185719]}}, {"type": "Feature", "properties": {"node_id": 126, "node_type": "type_change", "degree": 3, "link_types": "pseudo+sidewalk"}, "geometry": {"type": "Point", "coordinates": [-77.0452072, 38.9185711]}}, {"type": "Feature", "properties": {"node_id": 127, "node_type": "type_change", "degree": 2, "link_types": "midblock+sidewalk"}, "geometry": {"type": "Point", "coordinates": [-77.0452499, 38.9184943]}}, {"type": "Feature", "properties": {"node_id": 128, "node_type": "type_change", "degree": 2, "link_types": "midblock+sidewalk"}, "geometry": {"type": "Point", "coordinates": [-77.0452742, 38.9184566]}}, {"type": "Feature", "properties": {"node_id": 129, "node_type": "junction", "degree": 3, "link_types": "sidewalk"}, "geometry": {"type": "Point", "coordinates": [-77.0445179, 38.9197079]}}, {"type": "Feature", "properties": {"node_id": 130, "node_type": "junction", "degree": 3, "link_types": "sidewalk"}, "geometry": {"type": "Point", "coordinates": [-77.0447421, 38.9196775]}}, {"type": "Feature", "properties": {"node_id": 131, "node_type": "junction", "degree": 3, "link_types": "sidewalk"}, "geometry": {"type": "Point", "coordinates": [-77.044517, 38.9197079]}}, {"type": "Feature", "properties": {"node_id": 132, "node_type": "type_change", "degree": 2, "link_types": "crosswalk+pseudo"}, "geometry": {"type": "Point", "coordinates": [-77.0446318, 38.9188099]}}, {"type": "Feature", "properties": {"node_id": 133, "node_type": "type_change", "degree": 2, "link_types": "crosswalk+pseudo"}, "geometry": {"type": "Point", "coordinates": [-77.0447129, 38.9187385]}}, {"type": "Feature", "properties": {"node_id": 134, "node_type": "junction", "degree": 3, "link_types": "pseudo"}, "geometry": {"type": "Point", "coordinates": [-77.0445806, 38.9195695]}}, {"type": "Feature", "properties": {"node_id": 135, "node_type": "type_change", "degree": 2, "link_types": "pseudo+sidewalk"}, "geometry": {"type": "Point", "coordinates": [-77.0445815, 38.9195702]}}, {"type": "Feature", "properties": {"node_id": 136, "node_type": "type_change", "degree": 2, "link_types": "crosswalk+pseudo"}, "geometry": {"type": "Point", "coordinates": [-77.0445612, 38.9195695]}}, {"type": "Feature", "properties": {"node_id": 137, "node_type": "type_change", "degree": 2, "link_types": "crosswalk+pseudo"}, "geometry": {"type": "Point", "coordinates": [-77.0443509, 38.9195934]}}, {"type": "Feature", "properties": {"node_id": 138, "node_type": "type_change", "degree": 3, "link_types": "pseudo+sidewalk"}, "geometry": {"type": "Point", "coordinates": [-77.044337, 38.9195797]}}, {"type": "Feature", "properties": {"node_id": 139, "node_type": "type_change", "degree": 2, "link_types": "pseudo+sidewalk"}, "geometry": {"type": "Point", "coordinates": [-77.0445815, 38.9195688]}}, {"type": "Feature", "properties": {"node_id": 140, "node_type": "junction", "degree": 3, "link_types": "sidewalk"}, "geometry": {"type": "Point", "coordinates": [-77.0446654, 38.9194297]}}, {"type": "Feature", "properties": {"node_id": 141, "node_type": "junction", "degree": 3, "link_types": "sidewalk"}, "geometry": {"type": "Point", "coordinates": [-77.0446808, 38.9189987]}}, {"type": "Feature", "properties": {"node_id": 142, "node_type": "junction", "degree": 3, "link_types": "sidewalk"}, "geometry": {"type": "Point", "coordinates": [-77.0448838, 38.919075]}}, {"type": "Feature", "properties": {"node_id": 143, "node_type": "type_change", "degree": 3, "link_types": "pseudo+sidewalk"}, "geometry": {"type": "Point", "coordinates": [-77.0448663, 38.9191276]}}, {"type": "Feature", "properties": {"node_id": 144, "node_type": "type_change", "degree": 3, "link_types": "pseudo+sidewalk"}, "geometry": {"type": "Point", "coordinates": [-77.0448838, 38.9190743]}}, {"type": "Feature", "properties": {"node_id": 145, "node_type": "type_change", "degree": 3, "link_types": "pseudo+sidewalk"}, "geometry": {"type": "Point", "coordinates": [-77.0448828, 38.9190743]}}, {"type": "Feature", "properties": {"node_id": 146, "node_type": "junction", "degree": 3, "link_types": "sidewalk"}, "geometry": {"type": "Point", "coordinates": [-77.0445543, 38.9187897]}}, {"type": "Feature", "properties": {"node_id": 147, "node_type": "junction", "degree": 3, "link_types": "sidewalk"}, "geometry": {"type": "Point", "coordinates": [-77.0445589, 38.9187991]}}, {"type": "Feature", "properties": {"node_id": 148, "node_type": "type_change", "degree": 2, "link_types": "pseudo+sidewalk"}, "geometry": {"type": "Point", "coordinates": [-77.0445552, 38.918789]}}, {"type": "Feature", "properties": {"node_id": 149, "node_type": "type_change", "degree": 2, "link_types": "crosswalk+pseudo"}, "geometry": {"type": "Point", "coordinates": [-77.0445856, 38.9187739]}}, {"type": "Feature", "properties": {"node_id": 150, "node_type": "type_change", "degree": 2, "link_types": "crosswalk+pseudo"}, "geometry": {"type": "Point", "coordinates": [-77.0445339, 38.9186903]}}, {"type": "Feature", "properties": {"node_id": 151, "node_type": "type_change", "degree": 3, "link_types": "pseudo+sidewalk"}, "geometry": {"type": "Point", "coordinates": [-77.0445182, 38.9186781]}}, {"type": "Feature", "properties": {"node_id": 152, "node_type": "endpoint", "degree": 1, "link_types": "sidewalk"}, "geometry": {"type": "Point", "coordinates": [-77.0445395, 38.9187588]}}, {"type": "Feature", "properties": {"node_id": 153, "node_type": "junction", "degree": 3, "link_types": "sidewalk"}, "geometry": {"type": "Point", "coordinates": [-77.0446798, 38.918998]}}, {"type": "Feature", "properties": {"node_id": 154, "node_type": "junction", "degree": 3, "link_types": "sidewalk"}, "geometry": {"type": "Point", "coordinates": [-77.0446798, 38.9189987]}}, {"type": "Feature", "properties": {"node_id": 155, "node_type": "junction", "degree": 3, "link_types": "sidewalk"}, "geometry": {"type": "Point", "coordinates": [-77.0446761, 38.9189749]}}, {"type": "Feature", "properties": {"node_id": 156, "node_type": "endpoint", "degree": 1, "link_types": "crosswalk"}, "geometry": {"type": "Point", "coordinates": [-77.0462012, 38.9192489]}}, {"type": "Feature", "properties": {"node_id": 157, "node_type": "type_change", "degree": 3, "link_types": "crosswalk+pseudo"}, "geometry": {"type": "Point", "coordinates": [-77.0462031, 38.9192496]}}, {"type": "Feature", "properties": {"node_id": 158, "node_type": "type_change", "degree": 2, "link_types": "pseudo+sidewalk"}, "geometry": {"type": "Point", "coordinates": [-77.0453141, 38.9184025]}}, {"type": "Feature", "properties": {"node_id": 159, "node_type": "type_change", "degree": 2, "link_types": "crosswalk+pseudo"}, "geometry": {"type": "Point", "coordinates": [-77.0453012, 38.9183895]}}, {"type": "Feature", "properties": {"node_id": 160, "node_type": "type_change", "degree": 2, "link_types": "crosswalk+pseudo"}, "geometry": {"type": "Point", "coordinates": [-77.0451241, 38.918355]}}, {"type": "Feature", "properties": {"node_id": 161, "node_type": "type_change", "degree": 3, "link_types": "pseudo+sidewalk"}, "geometry": {"type": "Point", "coordinates": [-77.0451084, 38.9183485]}}, {"type": "Feature", "properties": {"node_id": 162, "node_type": "junction", "degree": 3, "link_types": "sidewalk"}, "geometry": {"type": "Point", "coordinates": [-77.0442916, 38.9177211]}}, {"type": "Feature", "properties": {"node_id": 163, "node_type": "type_change", "degree": 3, "link_types": "pseudo+sidewalk"}, "geometry": {"type": "Point", "coordinates": [-77.0442907, 38.9177211]}}, {"type": "Feature", "properties": {"node_id": 164, "node_type": "junction", "degree": 3, "link_types": "sidewalk"}, "geometry": {"type": "Point", "coordinates": [-77.0442916, 38.9177204]}}, {"type": "Feature", "properties": {"node_id": 165, "node_type": "junction", "degree": 3, "link_types": "sidewalk"}, "geometry": {"type": "Point", "coordinates": [-77.044558, 38.9187998]}}, {"type": "Feature", "properties": {"node_id": 166, "node_type": "endpoint", "degree": 1, "link_types": "sidewalk"}, "geometry": {"type": "Point", "coordinates": [-77.0441333, 38.919868]}}, {"type": "Feature", "properties": {"node_id": 167, "node_type": "type_change", "degree": 3, "link_types": "pseudo+sidewalk"}, "geometry": {"type": "Point", "coordinates": [-77.0442237, 38.9197354]}}, {"type": "Feature", "properties": {"node_id": 168, "node_type": "junction", "degree": 3, "link_types": "sidewalk"}, "geometry": {"type": "Point", "coordinates": [-77.0460895, 38.9191343]}}, {"type": "Feature", "properties": {"node_id": 169, "node_type": "type_change", "degree": 3, "link_types": "pseudo+sidewalk"}, "geometry": {"type": "Point", "coordinates": [-77.0460904, 38.9191351]}}, {"type": "Feature", "properties": {"node_id": 170, "node_type": "junction", "degree": 3, "link_types": "sidewalk"}, "geometry": {"type": "Point", "coordinates": [-77.0460904, 38.9191343]}}, {"type": "Feature", "properties": {"node_id": 171, "node_type": "type_change", "degree": 2, "link_types": "midblock+sidewalk"}, "geometry": {"type": "Point", "coordinates": [-77.0454337, 38.9193469]}}, {"type": "Feature", "properties": {"node_id": 172, "node_type": "type_change", "degree": 2, "link_types": "midblock+sidewalk"}, "geometry": {"type": "Point", "coordinates": [-77.0454101, 38.9193497]}}, {"type": "Feature", "properties": {"node_id": 173, "node_type": "type_change", "degree": 3, "link_types": "pseudo+sidewalk"}, "geometry": {"type": "Point", "coordinates": [-77.0446771, 38.9189742]}}, {"type": "Feature", "properties": {"node_id": 174, "node_type": "type_change", "degree": 3, "link_types": "pseudo+sidewalk"}, "geometry": {"type": "Point", "coordinates": [-77.0446761, 38.9189742]}}, {"type": "Feature", "properties": {"node_id": 175, "node_type": "junction", "degree": 3, "link_types": "sidewalk"}, "geometry": {"type": "Point", "coordinates": [-77.0456468, 38.9178719]}}, {"type": "Feature", "properties": {"node_id": 176, "node_type": "junction", "degree": 3, "link_types": "sidewalk"}, "geometry": {"type": "Point", "coordinates": [-77.0456791, 38.9178308]}}, {"type": "Feature", "properties": {"node_id": 177, "node_type": "type_change", "degree": 2, "link_types": "pseudo+sidewalk"}, "geometry": {"type": "Point", "coordinates": [-77.0456459, 38.9178712]}}, {"type": "Feature", "properties": {"node_id": 178, "node_type": "type_change", "degree": 2, "link_types": "crosswalk+pseudo"}, "geometry": {"type": "Point", "coordinates": [-77.0456302, 38.9178647]}}, {"type": "Feature", "properties": {"node_id": 179, "node_type": "type_change", "degree": 2, "link_types": "crosswalk+pseudo"}, "geometry": {"type": "Point", "coordinates": [-77.0454789, 38.9177985]}}, {"type": "Feature", "properties": {"node_id": 180, "node_type": "type_change", "degree": 3, "link_types": "pseudo+sidewalk"}, "geometry": {"type": "Point", "coordinates": [-77.0454531, 38.9178194]}}, {"type": "Feature", "properties": {"node_id": 181, "node_type": "type_change", "degree": 3, "link_types": "pseudo+sidewalk"}, "geometry": {"type": "Point", "coordinates": [-77.0462269, 38.9190831]}}, {"type": "Feature", "properties": {"node_id": 182, "node_type": "type_change", "degree": 3, "link_types": "pseudo+sidewalk"}, "geometry": {"type": "Point", "coordinates": [-77.046226, 38.9190831]}}, {"type": "Feature", "properties": {"node_id": 183, "node_type": "endpoint", "degree": 1, "link_types": "sidewalk"}, "geometry": {"type": "Point", "coordinates": [-77.044376, 38.9198665]}}, {"type": "Feature", "properties": {"node_id": 184, "node_type": "junction", "degree": 3, "link_types": "sidewalk"}, "geometry": {"type": "Point", "coordinates": [-77.0444783, 38.9197216]}}, {"type": "Feature", "properties": {"node_id": 185, "node_type": "type_change", "degree": 2, "link_types": "pseudo+sidewalk"}, "geometry": {"type": "Point", "coordinates": [-77.0450316, 38.9194475]}}, {"type": "Feature", "properties": {"node_id": 186, "node_type": "type_change", "degree": 2, "link_types": "crosswalk+pseudo"}, "geometry": {"type": "Point", "coordinates": [-77.0450178, 38.919454]}}, {"type": "Feature", "properties": {"node_id": 187, "node_type": "type_change", "degree": 2, "link_types": "crosswalk+pseudo"}, "geometry": {"type": "Point", "coordinates": [-77.0449117, 38.9194872]}}, {"type": "Feature", "properties": {"node_id": 188, "node_type": "type_change", "degree": 3, "link_types": "pseudo+sidewalk"}, "geometry": {"type": "Point", "coordinates": [-77.0448905, 38.919493]}}, {"type": "Feature", "properties": {"node_id": 189, "node_type": "junction", "degree": 3, "link_types": "sidewalk"}, "geometry": {"type": "Point", "coordinates": [-77.0454423, 38.9182287]}}, {"type": "Feature", "properties": {"node_id": 190, "node_type": "endpoint", "degree": 1, "link_types": "sidewalk"}, "geometry": {"type": "Point", "coordinates": [-77.0454644, 38.9182402]}}, {"type": "Feature", "properties": {"node_id": 191, "node_type": "type_change", "degree": 3, "link_types": "pseudo+sidewalk"}, "geometry": {"type": "Point", "coordinates": [-77.0454413, 38.9182287]}}, {"type": "Feature", "properties": {"node_id": 192, "node_type": "junction", "degree": 3, "link_types": "pseudo"}, "geometry": {"type": "Point", "coordinates": [-77.0449748, 38.9186065]}}, {"type": "Feature", "properties": {"node_id": 193, "node_type": "type_change", "degree": 2, "link_types": "crosswalk+pseudo"}, "geometry": {"type": "Point", "coordinates": [-77.0449757, 38.9186073]}}, {"type": "Feature", "properties": {"node_id": 194, "node_type": "type_change", "degree": 3, "link_types": "crosswalk+pseudo"}, "geometry": {"type": "Point", "coordinates": [-77.0449739, 38.9186073]}}, {"type": "Feature", "properties": {"node_id": 195, "node_type": "junction", "degree": 3, "link_types": "pseudo"}, "geometry": {"type": "Point", "coordinates": [-77.0449766, 38.9186058]}}, {"type": "Feature", "properties": {"node_id": 196, "node_type": "type_change", "degree": 2, "link_types": "crosswalk+pseudo"}, "geometry": {"type": "Point", "coordinates": [-77.0447962, 38.9192574]}}, {"type": "Feature", "properties": {"node_id": 197, "node_type": "type_change", "degree": 2, "link_types": "crosswalk+pseudo"}, "geometry": {"type": "Point", "coordinates": [-77.0448607, 38.9191276]}}, {"type": "Feature", "properties": {"node_id": 198, "node_type": "endpoint", "degree": 1, "link_types": "sidewalk"}, "geometry": {"type": "Point", "coordinates": [-77.0448787, 38.9198685]}}, {"type": "Feature", "properties": {"node_id": 199, "node_type": "junction", "degree": 3, "link_types": "sidewalk"}, "geometry": {"type": "Point", "coordinates": [-77.044934, 38.9197366]}}, {"type": "Feature", "properties": {"node_id": 200, "node_type": "type_change", "degree": 2, "link_types": "pseudo+sidewalk"}, "geometry": {"type": "Point", "coordinates": [-77.0444773, 38.9197209]}}, {"type": "Feature", "properties": {"node_id": 201, "node_type": "type_change", "degree": 2, "link_types": "crosswalk+pseudo"}, "geometry": {"type": "Point", "coordinates": [-77.044469, 38.9197137]}}, {"type": "Feature", "properties": {"node_id": 202, "node_type": "type_change", "degree": 2, "link_types": "crosswalk+pseudo"}, "geometry": {"type": "Point", "coordinates": [-77.0442532, 38.9197318]}}, {"type": "Feature", "properties": {"node_id": 203, "node_type": "junction", "degree": 3, "link_types": "pseudo"}, "geometry": {"type": "Point", "coordinates": [-77.0442246, 38.9197347]}}, {"type": "Feature", "properties": {"node_id": 204, "node_type": "junction", "degree": 3, "link_types": "sidewalk"}, "geometry": {"type": "Point", "coordinates": [-77.0448499, 38.9195139]}}, {"type": "Feature", "properties": {"node_id": 205, "node_type": "junction", "degree": 3, "link_types": "sidewalk"}, "geometry": {"type": "Point", "coordinates": [-77.044784, 38.9188206]}}, {"type": "Feature", "properties": {"node_id": 206, "node_type": "type_change", "degree": 3, "link_types": "pseudo+sidewalk"}, "geometry": {"type": "Point", "coordinates": [-77.044784, 38.9188473]}}, {"type": "Feature", "properties": {"node_id": 207, "node_type": "junction", "degree": 3, "link_types": "sidewalk"}, "geometry": {"type": "Point", "coordinates": [-77.044784, 38.9188199]}}, {"type": "Feature", "properties": {"node_id": 208, "node_type": "junction", "degree": 3, "link_types": "sidewalk"}, "geometry": {"type": "Point", "coordinates": [-77.0447831, 38.9188199]}}, {"type": "Feature", "properties": {"node_id": 209, "node_type": "endpoint", "degree": 1, "link_types": "sidewalk"}, "geometry": {"type": "Point", "coordinates": [-77.0462114, 38.9192547]}}, {"type": "Feature", "properties": {"node_id": 210, "node_type": "type_change", "degree": 2, "link_types": "pseudo+sidewalk"}, "geometry": {"type": "Point", "coordinates": [-77.0462104, 38.9192539]}}, {"type": "Feature", "properties": {"node_id": 211, "node_type": "junction", "degree": 3, "link_types": "sidewalk"}, "geometry": {"type": "Point", "coordinates": [-77.0460932, 38.9191214]}}, {"type": "Feature", "properties": {"node_id": 212, "node_type": "junction", "degree": 3, "link_types": "sidewalk"}, "geometry": {"type": "Point", "coordinates": [-77.0460932, 38.9191221]}}, {"type": "Feature", "properties": {"node_id": 213, "node_type": "type_change", "degree": 3, "link_types": "pseudo+sidewalk"}, "geometry": {"type": "Point", "coordinates": [-77.0460941, 38.9191214]}}, {"type": "Feature", "properties": {"node_id": 214, "node_type": "type_change", "degree": 2, "link_types": "midblock+sidewalk"}, "geometry": {"type": "Point", "coordinates": [-77.0459079, 38.9187656]}}, {"type": "Feature", "properties": {"node_id": 215, "node_type": "type_change", "degree": 2, "link_types": "midblock+sidewalk"}, "geometry": {"type": "Point", "coordinates": [-77.0458827, 38.9187223]}}, {"type": "Feature", "properties": {"node_id": 216, "node_type": "type_change", "degree": 2, "link_types": "midblock+sidewalk"}, "geometry": {"type": "Point", "coordinates": [-77.0458614, 38.9186818]}}, {"type": "Feature", "properties": {"node_id": 217, "node_type": "type_change", "degree": 2, "link_types": "midblock+sidewalk"}, "geometry": {"type": "Point", "coordinates": [-77.0458445, 38.9186334]}}, {"type": "Feature", "properties": {"node_id": 218, "node_type": "type_change", "degree": 2, "link_types": "midblock+sidewalk"}, "geometry": {"type": "Point", "coordinates": [-77.0457137, 38.9183794]}}, {"type": "Feature", "properties": {"node_id": 219, "node_type": "type_change", "degree": 2, "link_types": "midblock+sidewalk"}, "geometry": {"type": "Point", "coordinates": [-77.0456988, 38.9183463]}}, {"type": "Feature", "properties": {"node_id": 220, "node_type": "junction", "degree": 3, "link_types": "sidewalk"}, "geometry": {"type": "Point", "coordinates": [-77.0456868, 38.9183101]}}, {"type": "Feature", "properties": {"node_id": 221, "node_type": "junction", "degree": 3, "link_types": "sidewalk"}, "geometry": {"type": "Point", "coordinates": [-77.044776, 38.9192776]}}, {"type": "Feature", "properties": {"node_id": 222, "node_type": "junction", "degree": 3, "link_types": "sidewalk"}, "geometry": {"type": "Point", "coordinates": [-77.044775, 38.9192783]}}, {"type": "Feature", "properties": {"node_id": 223, "node_type": "junction", "degree": 3, "link_types": "sidewalk"}, "geometry": {"type": "Point", "coordinates": [-77.0451075, 38.9183478]}}, {"type": "Feature", "properties": {"node_id": 224, "node_type": "junction", "degree": 3, "link_types": "sidewalk"}, "geometry": {"type": "Point", "coordinates": [-77.0451075, 38.9183485]}}, {"type": "Feature", "properties": {"node_id": 225, "node_type": "junction", "degree": 3, "link_types": "sidewalk"}, "geometry": {"type": "Point", "coordinates": [-77.0454226, 38.9177956]}}, {"type": "Feature", "properties": {"node_id": 226, "node_type": "junction", "degree": 3, "link_types": "pseudo"}, "geometry": {"type": "Point", "coordinates": [-77.04563, 38.9189291]}}, {"type": "Feature", "properties": {"node_id": 227, "node_type": "type_change", "degree": 2, "link_types": "crosswalk+pseudo"}, "geometry": {"type": "Point", "coordinates": [-77.0456291, 38.9189299]}}, {"type": "Feature", "properties": {"node_id": 228, "node_type": "endpoint", "degree": 1, "link_types": "crosswalk"}, "geometry": {"type": "Point", "coordinates": [-77.0456281, 38.9189306]}}, {"type": "Feature", "properties": {"node_id": 229, "node_type": "type_change", "degree": 3, "link_types": "crosswalk+pseudo"}, "geometry": {"type": "Point", "coordinates": [-77.0456309, 38.9189291]}}, {"type": "Feature", "properties": {"node_id": 230, "node_type": "type_change", "degree": 3, "link_types": "crosswalk+pseudo"}, "geometry": {"type": "Point", "coordinates": [-77.04563, 38.9189284]}}, {"type": "Feature", "properties": {"node_id": 231, "node_type": "type_change", "degree": 2, "link_types": "crosswalk+pseudo"}, "geometry": {"type": "Point", "coordinates": [-77.0462122, 38.9190882]}}, {"type": "Feature", "properties": {"node_id": 232, "node_type": "type_change", "degree": 2, "link_types": "crosswalk+pseudo"}, "geometry": {"type": "Point", "coordinates": [-77.0461107, 38.9191192]}}, {"type": "Feature", "properties": {"node_id": 233, "node_type": "type_change", "degree": 3, "link_types": "pseudo+sidewalk"}, "geometry": {"type": "Point", "coordinates": [-77.0442237, 38.9197347]}}, {"type": "Feature", "properties": {"node_id": 234, "node_type": "junction", "degree": 3, "link_types": "sidewalk"}, "geometry": {"type": "Point", "coordinates": [-77.0463063, 38.9191919]}}, {"type": "Feature", "properties": {"node_id": 235, "node_type": "endpoint", "degree": 1, "link_types": "sidewalk"}, "geometry": {"type": "Point", "coordinates": [-77.0468404, 38.9190274]}}, {"type": "Feature", "properties": {"node_id": 236, "node_type": "type_change", "degree": 2, "link_types": "pseudo+sidewalk"}, "geometry": {"type": "Point", "coordinates": [-77.0463054, 38.9191912]}}, {"type": "Feature", "properties": {"node_id": 237, "node_type": "type_change", "degree": 2, "link_types": "crosswalk+pseudo"}, "geometry": {"type": "Point", "coordinates": [-77.0462943, 38.9191761]}}, {"type": "Feature", "properties": {"node_id": 238, "node_type": "type_change", "degree": 2, "link_types": "crosswalk+pseudo"}, "geometry": {"type": "Point", "coordinates": [-77.0462555, 38.9191004]}}, {"type": "Feature", "properties": {"node_id": 239, "node_type": "junction", "degree": 3, "link_types": "sidewalk"}, "geometry": {"type": "Point", "coordinates": [-77.0461366, 38.9192496]}}, {"type": "Feature", "properties": {"node_id": 240, "node_type": "junction", "degree": 3, "link_types": "sidewalk"}, "geometry": {"type": "Point", "coordinates": [-77.0461376, 38.9192496]}}, {"type": "Feature", "properties": {"node_id": 241, "node_type": "type_change", "degree": 3, "link_types": "pseudo+sidewalk"}, "geometry": {"type": "Point", "coordinates": [-77.0461366, 38.9192489]}}, {"type": "Feature", "properties": {"node_id": 242, "node_type": "junction", "degree": 3, "link_types": "sidewalk"}, "geometry": {"type": "Point", "coordinates": [-77.0442762, 38.9196056]}}, {"type": "Feature", "properties": {"node_id": 243, "node_type": "type_change", "degree": 3, "link_types": "pseudo+sidewalk"}, "geometry": {"type": "Point", "coordinates": [-77.0442762, 38.9196064]}}, {"type": "Feature", "properties": {"node_id": 244, "node_type": "type_change", "degree": 3, "link_types": "pseudo+sidewalk"}, "geometry": {"type": "Point", "coordinates": [-77.0442752, 38.9196056]}}, {"type": "Feature", "properties": {"node_id": 245, "node_type": "type_change", "degree": 3, "link_types": "pseudo+sidewalk"}, "geometry": {"type": "Point", "coordinates": [-77.0448896, 38.9194937]}}, {"type": "Feature", "properties": {"node_id": 246, "node_type": "type_change", "degree": 2, "link_types": "pseudo+sidewalk"}, "geometry": {"type": "Point", "coordinates": [-77.0456877, 38.9183093]}}, {"type": "Feature", "properties": {"node_id": 247, "node_type": "type_change", "degree": 2, "link_types": "crosswalk+pseudo"}, "geometry": {"type": "Point", "coordinates": [-77.0457209, 38.9182949]}}, {"type": "Feature", "properties": {"node_id": 248, "node_type": "type_change", "degree": 2, "link_types": "crosswalk+pseudo"}, "geometry": {"type": "Point", "coordinates": [-77.0456728, 38.9181249]}}, {"type": "Feature", "properties": {"node_id": 249, "node_type": "endpoint", "degree": 1, "link_types": "pseudo"}, "geometry": {"type": "Point", "coordinates": [-77.0456608, 38.9181148]}}, {"type": "Feature", "properties": {"node_id": 250, "node_type": "junction", "degree": 3, "link_types": "sidewalk"}, "geometry": {"type": "Point", "coordinates": [-77.0442225, 38.917889]}}, {"type": "Feature", "properties": {"node_id": 251, "node_type": "junction", "degree": 3, "link_types": "sidewalk"}, "geometry": {"type": "Point", "coordinates": [-77.0462584, 38.9191999]}}, {"type": "Feature", "properties": {"node_id": 252, "node_type": "type_change", "degree": 2, "link_types": "pseudo+sidewalk"}, "geometry": {"type": "Point", "coordinates": [-77.0462575, 38.9192006]}}, {"type": "Feature", "properties": {"node_id": 253, "node_type": "type_change", "degree": 2, "link_types": "crosswalk+pseudo"}, "geometry": {"type": "Point", "coordinates": [-77.0462464, 38.9192092]}}, {"type": "Feature", "properties": {"node_id": 254, "node_type": "type_change", "degree": 2, "link_types": "crosswalk+pseudo"}, "geometry": {"type": "Point", "coordinates": [-77.0461578, 38.9192331]}}, {"type": "Feature", "properties": {"node_id": 255, "node_type": "type_change", "degree": 3, "link_types": "pseudo+sidewalk"}, "geometry": {"type": "Point", "coordinates": [-77.0461477, 38.9192489]}}, {"type": "Feature", "properties": {"node_id": 256, "node_type": "endpoint", "degree": 1, "link_types": "sidewalk"}, "geometry": {"type": "Point", "coordinates": [-77.0462464, 38.9191919]}}, {"type": "Feature", "properties": {"node_id": 257, "node_type": "endpoint", "degree": 1, "link_types": "sidewalk"}, "geometry": {"type": "Point", "coordinates": [-77.0442742, 38.9179013]}}, {"type": "Feature", "properties": {"node_id": 258, "node_type": "junction", "degree": 3, "link_types": "sidewalk"}, "geometry": {"type": "Point", "coordinates": [-77.0467224, 38.9177627]}}, {"type": "Feature", "properties": {"node_id": 259, "node_type": "junction", "degree": 3, "link_types": "sidewalk"}, "geometry": {"type": "Point", "coordinates": [-77.0467713, 38.9178023]}}, {"type": "Feature", "properties": {"node_id": 260, "node_type": "junction", "degree": 3, "link_types": "sidewalk"}, "geometry": {"type": "Point", "coordinates": [-77.0467178, 38.9178246]}}, {"type": "Feature", "properties": {"node_id": 261, "node_type": "endpoint", "degree": 1, "link_types": "sidewalk"}, "geometry": {"type": "Point", "coordinates": [-77.0466937, 38.917705]}}, {"type": "Feature", "properties": {"node_id": 262, "node_type": "junction", "degree": 3, "link_types": "sidewalk"}, "geometry": {"type": "Point", "coordinates": [-77.0467713, 38.917803]}}, {"type": "Feature", "properties": {"node_id": 263, "node_type": "type_change", "degree": 2, "link_types": "midblock+sidewalk"}, "geometry": {"type": "Point", "coordinates": [-77.0445436, 38.9192322]}}, {"type": "Feature", "properties": {"node_id": 264, "node_type": "type_change", "degree": 2, "link_types": "midblock+sidewalk"}, "geometry": {"type": "Point", "coordinates": [-77.0445938, 38.9191594]}}, {"type": "Feature", "properties": {"node_id": 265, "node_type": "endpoint", "degree": 1, "link_types": "sidewalk"}, "geometry": {"type": "Point", "coordinates": [-77.0459384, 38.9180318]}}, {"type": "Feature", "properties": {"node_id": 266, "node_type": "junction", "degree": 3, "link_types": "sidewalk"}, "geometry": {"type": "Point", "coordinates": [-77.0460325, 38.9180318]}}, {"type": "Feature", "properties": {"node_id": 267, "node_type": "junction", "degree": 3, "link_types": "pseudo"}, "geometry": {"type": "Point", "coordinates": [-77.0441385, 38.9177384]}}, {"type": "Feature", "properties": {"node_id": 268, "node_type": "type_change", "degree": 2, "link_types": "pseudo+sidewalk"}, "geometry": {"type": "Point", "coordinates": [-77.0441376, 38.9177392]}}, {"type": "Feature", "properties": {"node_id": 269, "node_type": "type_change", "degree": 3, "link_types": "pseudo+sidewalk"}, "geometry": {"type": "Point", "coordinates": [-77.044132, 38.9177644]}}, {"type": "Feature", "properties": {"node_id": 270, "node_type": "type_change", "degree": 2, "link_types": "crosswalk+pseudo"}, "geometry": {"type": "Point", "coordinates": [-77.0441625, 38.9177384]}}, {"type": "Feature", "properties": {"node_id": 271, "node_type": "type_change", "degree": 2, "link_types": "crosswalk+pseudo"}, "geometry": {"type": "Point", "coordinates": [-77.0442676, 38.9177218]}}, {"type": "Feature", "properties": {"node_id": 272, "node_type": "type_change", "degree": 2, "link_types": "pseudo+sidewalk"}, "geometry": {"type": "Point", "coordinates": [-77.0441376, 38.9177377]}}, {"type": "Feature", "properties": {"node_id": 273, "node_type": "endpoint", "degree": 1, "link_types": "sidewalk"}, "geometry": {"type": "Point", "coordinates": [-77.044084, 38.9176599]}}, {"type": "Feature", "properties": {"node_id": 274, "node_type": "junction", "degree": 3, "link_types": "sidewalk"}, "geometry": {"type": "Point", "coordinates": [-77.044743, 38.9196775]}}, {"type": "Feature", "properties": {"node_id": 275, "node_type": "junction", "degree": 3, "link_types": "sidewalk"}, "geometry": {"type": "Point", "coordinates": [-77.0447421, 38.9196783]}}, {"type": "Feature", "properties": {"node_id": 276, "node_type": "type_change", "degree": 2, "link_types": "pseudo+sidewalk"}, "geometry": {"type": "Point", "coordinates": [-77.0442172, 38.9197217]}}, {"type": "Feature", "properties": {"node_id": 277, "node_type": "type_change", "degree": 2, "link_types": "crosswalk+pseudo"}, "geometry": {"type": "Point", "coordinates": [-77.0442347, 38.919708]}}, {"type": "Feature", "properties": {"node_id": 278, "node_type": "type_change", "degree": 2, "link_types": "crosswalk+pseudo"}, "geometry": {"type": "Point", "coordinates": [-77.0442762, 38.9196179]}}, {"type": "Feature", "properties": {"node_id": 279, "node_type": "endpoint", "degree": 1, "link_types": "sidewalk"}, "geometry": {"type": "Point", "coordinates": [-77.04503, 38.9198684]}}, {"type": "Feature", "properties": {"node_id": 280, "node_type": "endpoint", "degree": 1, "link_types": "sidewalk"}, "geometry": {"type": "Point", "coordinates": [-77.046228, 38.9192532]}}, {"type": "Feature", "properties": {"node_id": 281, "node_type": "type_change", "degree": 2, "link_types": "crosswalk+pseudo"}, "geometry": {"type": "Point", "coordinates": [-77.0450843, 38.9195873]}}, {"type": "Feature", "properties": {"node_id": 282, "node_type": "type_change", "degree": 2, "link_types": "crosswalk+pseudo"}, "geometry": {"type": "Point", "coordinates": [-77.0449727, 38.9196234]}}, {"type": "Feature", "properties": {"node_id": 283, "node_type": "type_change", "degree": 2, "link_types": "pseudo+sidewalk"}, "geometry": {"type": "Point", "coordinates": [-77.0450577, 38.9184033]}}, {"type": "Feature", "properties": {"node_id": 284, "node_type": "type_change", "degree": 2, "link_types": "crosswalk+pseudo"}, "geometry": {"type": "Point", "coordinates": [-77.0450642, 38.9184134]}}, {"type": "Feature", "properties": {"node_id": 285, "node_type": "type_change", "degree": 2, "link_types": "crosswalk+pseudo"}, "geometry": {"type": "Point", "coordinates": [-77.0449416, 38.9185929]}}, {"type": "Feature", "properties": {"node_id": 286, "node_type": "type_change", "degree": 2, "link_types": "pseudo+sidewalk"}, "geometry": {"type": "Point", "coordinates": [-77.0449268, 38.9186188]}}, {"type": "Feature", "properties": {"node_id": 287, "node_type": "junction", "degree": 3, "link_types": "sidewalk"}, "geometry": {"type": "Point", "coordinates": [-77.0448688, 38.9186714]}}, {"type": "Feature", "properties": {"node_id": 288, "node_type": "type_change", "degree": 2, "link_types": "midblock+sidewalk"}, "geometry": {"type": "Point", "coordinates": [-77.0459676, 38.918067]}}, {"type": "Feature", "properties": {"node_id": 289, "node_type": "type_change", "degree": 2, "link_types": "midblock+sidewalk"}, "geometry": {"type": "Point", "coordinates": [-77.0459928, 38.9180633]}}, {"type": "Feature", "properties": {"node_id": 290, "node_type": "endpoint", "degree": 1, "link_types": "sidewalk"}, "geometry": {"type": "Point", "coordinates": [-77.0440638, 38.917879]}}, {"type": "Feature", "properties": {"node_id": 291, "node_type": "junction", "degree": 3, "link_types": "sidewalk"}, "geometry": {"type": "Point", "coordinates": [-77.0441718, 38.917879]}}, {"type": "Feature", "properties": {"node_id": 292, "node_type": "junction", "degree": 3, "link_types": "pseudo"}, "geometry": {"type": "Point", "coordinates": [-77.0442446, 38.917866]}}, {"type": "Feature", "properties": {"node_id": 293, "node_type": "type_change", "degree": 2, "link_types": "crosswalk+pseudo"}, "geometry": {"type": "Point", "coordinates": [-77.0442548, 38.9178674]}}, {"type": "Feature", "properties": {"node_id": 294, "node_type": "type_change", "degree": 2, "link_types": "crosswalk+pseudo"}, "geometry": {"type": "Point", "coordinates": [-77.0443424, 38.9178803]}}, {"type": "Feature", "properties": {"node_id": 295, "node_type": "type_change", "degree": 3, "link_types": "pseudo+sidewalk"}, "geometry": {"type": "Point", "coordinates": [-77.0442437, 38.917866]}}, {"type": "Feature", "properties": {"node_id": 296, "node_type": "type_change", "degree": 3, "link_types": "pseudo+sidewalk"}, "geometry": {"type": "Point", "coordinates": [-77.0442437, 38.9178652]}}, {"type": "Feature", "properties": {"node_id": 297, "node_type": "endpoint", "degree": 1, "link_types": "sidewalk"}, "geometry": {"type": "Point", "coordinates": [-77.0449905, 38.9186022]}}, {"type": "Feature", "properties": {"node_id": 298, "node_type": "type_change", "degree": 2, "link_types": "pseudo+sidewalk"}, "geometry": {"type": "Point", "coordinates": [-77.0449896, 38.9186022]}}, {"type": "Feature", "properties": {"node_id": 299, "node_type": "type_change", "degree": 3, "link_types": "crosswalk+pseudo"}, "geometry": {"type": "Point", "coordinates": [-77.0449803, 38.9186051]}}, {"type": "Feature", "properties": {"node_id": 300, "node_type": "endpoint", "degree": 1, "link_types": "sidewalk"}, "geometry": {"type": "Point", "coordinates": [-77.0443211, 38.9176627]}}, {"type": "Feature", "properties": {"node_id": 301, "node_type": "endpoint", "degree": 1, "link_types": "sidewalk"}, "geometry": {"type": "Point", "coordinates": [-77.0442456, 38.9178616]}}, {"type": "Feature", "properties": {"node_id": 302, "node_type": "type_change", "degree": 2, "link_types": "pseudo+sidewalk"}, "geometry": {"type": "Point", "coordinates": [-77.0445256, 38.9186615]}}, {"type": "Feature", "properties": {"node_id": 303, "node_type": "type_change", "degree": 2, "link_types": "crosswalk+pseudo"}, "geometry": {"type": "Point", "coordinates": [-77.044556, 38.9186607]}}, {"type": "Feature", "properties": {"node_id": 304, "node_type": "type_change", "degree": 2, "link_types": "crosswalk+pseudo"}, "geometry": {"type": "Point", "coordinates": [-77.0446528, 38.9185966]}}, {"type": "Feature", "properties": {"node_id": 305, "node_type": "endpoint", "degree": 1, "link_types": "pseudo"}, "geometry": {"type": "Point", "coordinates": [-77.0446325, 38.9185822]}}, {"type": "Feature", "properties": {"node_id": 306, "node_type": "type_change", "degree": 2, "link_types": "crosswalk+pseudo"}, "geometry": {"type": "Point", "coordinates": [-77.0446927, 38.918972]}}, {"type": "Feature", "properties": {"node_id": 307, "node_type": "type_change", "degree": 2, "link_types": "crosswalk+pseudo"}, "geometry": {"type": "Point", "coordinates": [-77.0447729, 38.9188639]}}, {"type": "Feature", "properties": {"node_id": 308, "node_type": "type_change", "degree": 2, "link_types": "pseudo+sidewalk"}, "geometry": {"type": "Point", "coordinates": [-77.0447831, 38.918856]}}, {"type": "Feature", "properties": {"node_id": 309, "node_type": "type_change", "degree": 2, "link_types": "pseudo+sidewalk"}, "geometry": {"type": "Point", "coordinates": [-77.0441727, 38.9178782]}}, {"type": "Feature", "properties": {"node_id": 310, "node_type": "type_change", "degree": 2, "link_types": "crosswalk+pseudo"}, "geometry": {"type": "Point", "coordinates": [-77.0441884, 38.9178653]}}, {"type": "Feature", "properties": {"node_id": 311, "node_type": "type_change", "degree": 2, "link_types": "crosswalk+pseudo"}, "geometry": {"type": "Point", "coordinates": [-77.0441468, 38.9177752]}}, {"type": "Feature", "properties": {"node_id": 312, "node_type": "endpoint", "degree": 1, "link_types": "sidewalk"}, "geometry": {"type": "Point", "coordinates": [-77.0454651, 38.9178266]}}, {"type": "Feature", "properties": {"node_id": 313, "node_type": "endpoint", "degree": 1, "link_types": "sidewalk"}, "geometry": {"type": "Point", "coordinates": [-77.045209, 38.9198518]}}, {"type": "Feature", "properties": {"node_id": 314, "node_type": "type_change", "degree": 2, "link_types": "crosswalk+pseudo"}, "geometry": {"type": "Point", "coordinates": [-77.0448718, 38.9190707]}}, {"type": "Feature", "properties": {"node_id": 315, "node_type": "type_change", "degree": 2, "link_types": "crosswalk+pseudo"}, "geometry": {"type": "Point", "coordinates": [-77.0448024, 38.9188473]}}, {"type": "Feature", "properties": {"node_id": 316, "node_type": "endpoint", "degree": 1, "link_types": "sidewalk"}, "geometry": {"type": "Point", "coordinates": [-77.0447368, 38.9185973]}}, {"type": "Feature", "properties": {"node_id": 317, "node_type": "type_change", "degree": 2, "link_types": "pseudo+sidewalk"}, "geometry": {"type": "Point", "coordinates": [-77.0447229, 38.9185872]}}, {"type": "Feature", "properties": {"node_id": 318, "node_type": "type_change", "degree": 2, "link_types": "crosswalk+pseudo"}, "geometry": {"type": "Point", "coordinates": [-77.0446971, 38.9186074]}}, {"type": "Feature", "properties": {"node_id": 319, "node_type": "type_change", "degree": 2, "link_types": "crosswalk+pseudo"}, "geometry": {"type": "Point", "coordinates": [-77.0447313, 38.9187039]}}, {"type": "Feature", "properties": {"node_id": 320, "node_type": "type_change", "degree": 2, "link_types": "crosswalk+pseudo"}, "geometry": {"type": "Point", "coordinates": [-77.0450602, 38.9194677]}}, {"type": "Feature", "properties": {"node_id": 321, "node_type": "type_change", "degree": 2, "link_types": "crosswalk+pseudo"}, "geometry": {"type": "Point", "coordinates": [-77.0451064, 38.9195527]}}, {"type": "Feature", "properties": {"node_id": 322, "node_type": "endpoint", "degree": 1, "link_types": "sidewalk"}, "geometry": {"type": "Point", "coordinates": [-77.0462374, 38.9182212]}}, {"type": "Feature", "properties": {"node_id": 323, "node_type": "junction", "degree": 3, "link_types": "sidewalk"}, "geometry": {"type": "Point", "coordinates": [-77.0451704, 38.9186122]}}, {"type": "Feature", "properties": {"node_id": 324, "node_type": "type_change", "degree": 3, "link_types": "crosswalk+pseudo"}, "geometry": {"type": "Point", "coordinates": [-77.044972, 38.9186073]}}, {"type": "Feature", "properties": {"node_id": 325, "node_type": "type_change", "degree": 2, "link_types": "crosswalk+pseudo"}, "geometry": {"type": "Point", "coordinates": [-77.044973, 38.9186065]}}, {"type": "Feature", "properties": {"node_id": 326, "node_type": "endpoint", "degree": 1, "link_types": "sidewalk"}, "geometry": {"type": "Point", "coordinates": [-77.0451289, 38.9186014]}}, {"type": "Feature", "properties": {"node_id": 327, "node_type": "junction", "degree": 3, "link_types": "sidewalk"}, "geometry": {"type": "Point", "coordinates": [-77.0461477, 38.9192496]}}, {"type": "Feature", "properties": {"node_id": 328, "node_type": "junction", "degree": 3, "link_types": "sidewalk"}, "geometry": {"type": "Point", "coordinates": [-77.0461468, 38.9192496]}}, {"type": "Feature", "properties": {"node_id": 329, "node_type": "endpoint", "degree": 1, "link_types": "sidewalk"}, "geometry": {"type": "Point", "coordinates": [-77.0453373, 38.9184803]}}, {"type": "Feature", "properties": {"node_id": 330, "node_type": "endpoint", "degree": 1, "link_types": "sidewalk"}, "geometry": {"type": "Point", "coordinates": [-77.0456057, 38.9184103]}}, {"type": "Feature", "properties": {"node_id": 331, "node_type": "type_change", "degree": 2, "link_types": "crosswalk+pseudo"}, "geometry": {"type": "Point", "coordinates": [-77.0451833, 38.9185675]}}, {"type": "Feature", "properties": {"node_id": 332, "node_type": "endpoint", "degree": 1, "link_types": "sidewalk"}, "geometry": {"type": "Point", "coordinates": [-77.0445655, 38.9190167]}}, {"type": "Feature", "properties": {"node_id": 333, "node_type": "endpoint", "degree": 1, "link_types": "sidewalk"}, "geometry": {"type": "Point", "coordinates": [-77.0462215, 38.9192525]}}, {"type": "Feature", "properties": {"node_id": 334, "node_type": "type_change", "degree": 2, "link_types": "pseudo+sidewalk"}, "geometry": {"type": "Point", "coordinates": [-77.0462215, 38.9192518]}}, {"type": "Feature", "properties": {"node_id": 335, "node_type": "type_change", "degree": 2, "link_types": "crosswalk+pseudo"}, "geometry": {"type": "Point", "coordinates": [-77.0462233, 38.9192467]}}, {"type": "Feature", "properties": {"node_id": 336, "node_type": "endpoint", "degree": 1, "link_types": "sidewalk"}, "geometry": {"type": "Point", "coordinates": [-77.0448165, 38.9192739]}}, {"type": "Feature", "properties": {"node_id": 337, "node_type": "type_change", "degree": 2, "link_types": "pseudo+sidewalk"}, "geometry": {"type": "Point", "coordinates": [-77.0462546, 38.9190867]}}, {"type": "Feature", "properties": {"node_id": 338, "node_type": "type_change", "degree": 2, "link_types": "crosswalk+pseudo"}, "geometry": {"type": "Point", "coordinates": [-77.0449665, 38.9186087]}}, {"type": "Feature", "properties": {"node_id": 339, "node_type": "type_change", "degree": 2, "link_types": "crosswalk+pseudo"}, "geometry": {"type": "Point", "coordinates": [-77.0449656, 38.9186087]}}, {"type": "Feature", "properties": {"node_id": 340, "node_type": "type_change", "degree": 2, "link_types": "crosswalk+pseudo"}, "geometry": {"type": "Point", "coordinates": [-77.0449637, 38.9186094]}}, {"type": "Feature", "properties": {"node_id": 341, "node_type": "type_change", "degree": 2, "link_types": "crosswalk+pseudo"}, "geometry": {"type": "Point", "coordinates": [-77.0449619, 38.9186094]}}, {"type": "Feature", "properties": {"node_id": 342, "node_type": "type_change", "degree": 2, "link_types": "crosswalk+pseudo"}, "geometry": {"type": "Point", "coordinates": [-77.044961, 38.9186101]}}, {"type": "Feature", "properties": {"node_id": 343, "node_type": "endpoint", "degree": 1, "link_types": "crosswalk"}, "geometry": {"type": "Point", "coordinates": [-77.04496, 38.9186101]}}, {"type": "Feature", "properties": {"node_id": 344, "node_type": "type_change", "degree": 2, "link_types": "midblock+sidewalk"}, "geometry": {"type": "Point", "coordinates": [-77.0464199, 38.9180471]}}, {"type": "Feature", "properties": {"node_id": 345, "node_type": "type_change", "degree": 2, "link_types": "midblock+sidewalk"}, "geometry": {"type": "Point", "coordinates": [-77.0464909, 38.9180251]}}, {"type": "Feature", "properties": {"node_id": 346, "node_type": "type_change", "degree": 2, "link_types": "midblock+sidewalk"}, "geometry": {"type": "Point", "coordinates": [-77.0465679, 38.9180011]}}, {"type": "Feature", "properties": {"node_id": 347, "node_type": "type_change", "degree": 2, "link_types": "midblock+sidewalk"}, "geometry": {"type": "Point", "coordinates": [-77.0466338, 38.9179807]}}, {"type": "Feature", "properties": {"node_id": 348, "node_type": "endpoint", "degree": 1, "link_types": "sidewalk"}, "geometry": {"type": "Point", "coordinates": [-77.0468747, 38.9179262]}}, {"type": "Feature", "properties": {"node_id": 349, "node_type": "endpoint", "degree": 1, "link_types": "sidewalk"}, "geometry": {"type": "Point", "coordinates": [-77.0456521, 38.9189061]}}, {"type": "Feature", "properties": {"node_id": 350, "node_type": "type_change", "degree": 2, "link_types": "pseudo+sidewalk"}, "geometry": {"type": "Point", "coordinates": [-77.0456512, 38.9189068]}}, {"type": "Feature", "properties": {"node_id": 351, "node_type": "endpoint", "degree": 1, "link_types": "sidewalk"}, "geometry": {"type": "Point", "coordinates": [-77.0466278, 38.9198584]}}, {"type": "Feature", "properties": {"node_id": 352, "node_type": "endpoint", "degree": 1, "link_types": "sidewalk"}, "geometry": {"type": "Point", "coordinates": [-77.0440555, 38.9177601]}}, {"type": "Feature", "properties": {"node_id": 353, "node_type": "type_change", "degree": 2, "link_types": "crosswalk+pseudo"}, "geometry": {"type": "Point", "coordinates": [-77.0453353, 38.9183707]}}, {"type": "Feature", "properties": {"node_id": 354, "node_type": "type_change", "degree": 2, "link_types": "crosswalk+pseudo"}, "geometry": {"type": "Point", "coordinates": [-77.0454284, 38.9182338]}}, {"type": "Feature", "properties": {"node_id": 355, "node_type": "endpoint", "degree": 1, "link_types": "sidewalk"}, "geometry": {"type": "Point", "coordinates": [-77.0440714, 38.9196014]}}, {"type": "Feature", "properties": {"node_id": 356, "node_type": "endpoint", "degree": 1, "link_types": "sidewalk"}, "geometry": {"type": "Point", "coordinates": [-77.0446536, 38.9197943]}}, {"type": "Feature", "properties": {"node_id": 357, "node_type": "type_change", "degree": 2, "link_types": "crosswalk+pseudo"}, "geometry": {"type": "Point", "coordinates": [-77.0461357, 38.9192302]}}, {"type": "Feature", "properties": {"node_id": 358, "node_type": "type_change", "degree": 2, "link_types": "crosswalk+pseudo"}, "geometry": {"type": "Point", "coordinates": [-77.046096, 38.9191502]}}, {"type": "Feature", "properties": {"node_id": 359, "node_type": "type_change", "degree": 2, "link_types": "midblock+sidewalk"}, "geometry": {"type": "Point", "coordinates": [-77.0463896, 38.9179399]}}, {"type": "Feature", "properties": {"node_id": 360, "node_type": "type_change", "degree": 2, "link_types": "midblock+sidewalk"}, "geometry": {"type": "Point", "coordinates": [-77.046357, 38.9179496]}}, {"type": "Feature", "properties": {"node_id": 361, "node_type": "type_change", "degree": 2, "link_types": "midblock+sidewalk"}, "geometry": {"type": "Point", "coordinates": [-77.04629, 38.9179694]}}, {"type": "Feature", "properties": {"node_id": 362, "node_type": "type_change", "degree": 2, "link_types": "midblock+sidewalk"}, "geometry": {"type": "Point", "coordinates": [-77.046237, 38.9179833]}}, {"type": "Feature", "properties": {"node_id": 363, "node_type": "endpoint", "degree": 1, "link_types": "sidewalk"}, "geometry": {"type": "Point", "coordinates": [-77.0444569, 38.9179783]}}, {"type": "Feature", "properties": {"node_id": 364, "node_type": "type_change", "degree": 2, "link_types": "midblock+sidewalk"}, "geometry": {"type": "Point", "coordinates": [-77.0455206, 38.9176979]}}, {"type": "Feature", "properties": {"node_id": 365, "node_type": "type_change", "degree": 2, "link_types": "midblock+sidewalk"}, "geometry": {"type": "Point", "coordinates": [-77.0455037, 38.9176666]}}, {"type": "Feature", "properties": {"node_id": 366, "node_type": "endpoint", "degree": 1, "link_types": "sidewalk"}, "geometry": {"type": "Point", "coordinates": [-77.0454853, 38.917663]}}, {"type": "Feature", "properties": {"node_id": 367, "node_type": "type_change", "degree": 2, "link_types": "midblock+sidewalk"}, "geometry": {"type": "Point", "coordinates": [-77.0446345, 38.9188767]}}, {"type": "Feature", "properties": {"node_id": 368, "node_type": "type_change", "degree": 2, "link_types": "midblock+sidewalk"}, "geometry": {"type": "Point", "coordinates": [-77.0446469, 38.9189045]}}, {"type": "Feature", "properties": {"node_id": 369, "node_type": "type_change", "degree": 2, "link_types": "crosswalk+pseudo"}, "geometry": {"type": "Point", "coordinates": [-77.0457111, 38.918896]}}, {"type": "Feature", "properties": {"node_id": 370, "node_type": "endpoint", "degree": 1, "link_types": "pseudo"}, "geometry": {"type": "Point", "coordinates": [-77.045689, 38.9188715]}}]}