{"type": "FeatureCollection", "features": [{"type": "Feature", "properties": {"node_id": 0, "node_type": "endpoint", "degree": 1, "link_types": "sidewalk"}, "geometry": {"type": "Point", "coordinates": [396029.17, 138866.62]}}, {"type": "Feature", "properties": {"node_id": 1, "node_type": "junction", "degree": 3, "link_types": "sidewalk"}, "geometry": {"type": "Point", "coordinates": [396038.53, 138885.58]}}, {"type": "Feature", "properties": {"node_id": 2, "node_type": "endpoint", "degree": 1, "link_types": "sidewalk"}, "geometry": {"type": "Point", "coordinates": [395972.37, 139109.66]}}, {"type": "Feature", "properties": {"node_id": 3, "node_type": "type_change", "degree": 2, "link_types": "midblock+sidewalk"}, "geometry": {"type": "Point", "coordinates": [395979.536, 139088.68]}}, {"type": "Feature", "properties": {"node_id": 4, "node_type": "type_change", "degree": 2, "link_types": "midblock+sidewalk"}, "geometry": {"type": "Point", "coordinates": [395981.392, 139081.559]}}, {"type": "Feature", "properties": {"node_id": 5, "node_type": "junction", "degree": 3, "link_types": "sidewalk"}, "geometry": {"type": "Point", "coordinates": [395985.25, 139073.18]}}, {"type": "Feature", "properties": {"node_id": 6, "node_type": "junction", "degree": 3, "link_types": "sidewalk"}, "geometry": {"type": "Point", "coordinates": [395964.61, 139091.74]}}, {"type": "Feature", "properties": {"node_id": 7, "node_type": "junction", "degree": 3, "link_types": "sidewalk"}, "geometry": {"type": "Point", "coordinates": [395964.61, 139091.82]}}, {"type": "Feature", "properties": {"node_id": 8, "node_type": "junction", "degree": 3, "link_types": "sidewalk"}, "geometry": {"type": "Point", "coordinates": [395964.69, 139091.82]}}, {"type": "Feature", "properties": {"node_id": 9, "node_type": "junction", "degree": 3, "link_types": "sidewalk"}, "geometry": {"type": "Point", "coordinates": [395986.21, 139040.38]}}, {"type": "Feature", "properties": {"node_id": 10, "node_type": "endpoint", "degree": 1, "link_types": "sidewalk"}, "geometry": {"type": "Point", "coordinates": [395979.49, 138998.06]}}, {"type": "Feature", "properties": {"node_id": 11, "node_type": "junction", "degree": 3, "link_types": "sidewalk"}, "geometry": {"type": "Point", "coordinates": [395955.65, 139011.5]}}, {"type": "Feature", "properties": {"node_id": 12, "node_type": "junction", "degree": 3, "link_types": "sidewalk"}, "geometry": {"type": "Point", "coordinates": [396129.89, 138995.82]}}, {"type": "Feature", "properties": {"node_id": 13, "node_type": "endpoint", "degree": 1, "link_types": "sidewalk"}, "geometry": {"type": "Point", "coordinates": [396128.45, 138996.38]}}, {"type": "Feature", "properties": {"node_id": 14, "node_type": "type_change", "degree": 3, "link_types": "pseudo+sidewalk"}, "geometry": {"type": "Point", "coordinates": [396129.97, 138995.82]}}, {"type": "Feature", "properties": {"node_id": 15, "node_type": "type_change", "degree": 3, "link_types": "pseudo+sidewalk"}, "geometry": {"type": "Point", "coordinates": [396129.89, 138995.74]}}, {"type": "Feature", "properties": {"node_id": 16, "node_type": "junction", "degree": 3, "link_types": "sidewalk"}, "geometry": {"type": "Point", "coordinates": [396120.61, 138985.42]}}, {"type": "Feature", "properties": {"node_id": 17, "node_type": "junction", "degree": 3, "link_types": "sidewalk"}, "geometry": {"type": "Point", "coordinates": [396120.61, 138985.5]}}, {"type": "Feature", "properties": {"node_id": 18, "node_type": "type_change", "degree": 3, "link_types": "pseudo+sidewalk"}, "geometry": {"type": "Point", "coordinates": [396120.69, 138985.5]}}, {"type": "Feature", "properties": {"node_id": 19, "node_type": "type_change", "degree": 3, "link_types": "pseudo+sidewalk"}, "geometry": {"type": "Point", "coordinates": [396119.81, 138983.26]}}, {"type": "Feature", "properties": {"node_id": 20, "node_type": "junction", "degree": 3, "link_types": "sidewalk"}, "geometry": {"type": "Point", "coordinates": [396123.89, 138966.14]}}, {"type": "Feature", "properties": {"node_id": 21, "node_type": "junction", "degree": 3, "link_types": "sidewalk"}, "geometry": {"type": "Point", "coordinates": [396123.97, 138966.22]}}, {"type": "Feature", "properties": {"node_id": 22, "node_type": "junction", "degree": 3, "link_types": "sidewalk"}, "geometry": {"type": "Point", "coordinates": [396123.97, 138966.14]}}, {"type": "Feature", "properties": {"node_id": 23, "node_type": "junction", "degree": 3, "link_types": "sidewalk"}, "geometry": {"type": "Point", "coordinates": [396092.61, 138949.1]}}, {"type": "Feature", "properties": {"node_id": 24, "node_type": "junction", "degree": 3, "link_types": "sidewalk"}, "geometry": {"type": "Point", "coordinates": [395994.53, 138922.46]}}, {"type": "Feature", "properties": {"node_id": 25, "node_type": "junction", "degree": 3, "link_types": "sidewalk"}, "geometry": {"type": "Point", "coordinates": [395994.45, 138922.54]}}, {"type": "Feature", "properties": {"node_id": 26, "node_type": "junction", "degree": 3, "link_types": "sidewalk"}, "geometry": {"type": "Point", "coordinates": [395994.45, 138922.46]}}, {"type": "Feature", "properties": {"node_id": 27, "node_type": "type_change", "degree": 2, "link_types": "midblock+sidewalk"}, "geometry": {"type": "Point", "coordinates": [396013.198, 138968.89]}}, {"type": "Feature", "properties": {"node_id": 28, "node_type": "type_change", "degree": 2, "link_types": "midblock+sidewalk"}, "geometry": {"type": "Point", "coordinates": [396011.405, 138974.07]}}, {"type": "Feature", "properties": {"node_id": 29, "node_type": "junction", "degree": 3, "link_types": "sidewalk"}, "geometry": {"type": "Point", "coordinates": [395991.17, 139024.62]}}, {"type": "Feature", "properties": {"node_id": 30, "node_type": "endpoint", "degree": 1, "link_types": "sidewalk"}, "geometry": {"type": "Point", "coordinates": [396046.45, 138909.74]}}, {"type": "Feature", "properties": {"node_id": 31, "node_type": "type_change", "degree": 3, "link_types": "pseudo+sidewalk"}, "geometry": {"type": "Point", "coordinates": [396047.01, 138909.82]}}, {"type": "Feature", "properties": {"node_id": 32, "node_type": "junction", "degree": 3, "link_types": "sidewalk"}, "geometry": {"type": "Point", "coordinates": [396115.65, 139045.42]}}, {"type": "Feature", "properties": {"node_id": 33, "node_type": "type_change", "degree": 3, "link_types": "pseudo+sidewalk"}, "geometry": {"type": "Point", "coordinates": [396115.57, 139045.42]}}, {"type": "Feature", "properties": {"node_id": 34, "node_type": "type_change", "degree": 3, "link_types": "pseudo+sidewalk"}, "geometry": {"type": "Point", "coordinates": [396116.45, 139045.58]}}, {"type": "Feature", "properties": {"node_id": 35, "node_type": "type_change", "degree": 3, "link_types": "pseudo+sidewalk"}, "geometry": {"type": "Point", "coordinates": [396115.57, 139045.34]}}, {"type": "Feature", "properties": {"node_id": 36, "node_type": "junction", "degree": 3, "link_types": "sidewalk"}, "geometry": {"type": "Point", "coordinates": [396092.53, 139065.9]}}, {"type": "Feature", "properties": {"node_id": 37, "node_type": "type_change", "degree": 3, "link_types": "pseudo+sidewalk"}, "geometry": {"type": "Point", "coordinates": [396092.45, 139065.98]}}, {"type": "Feature", "properties": {"node_id": 38, "node_type": "type_change", "degree": 3, "link_types": "pseudo+sidewalk"}, "geometry": {"type": "Point", "coordinates": [396092.45, 139065.9]}}, {"type": "Feature", "properties": {"node_id": 39, "node_type": "junction", "degree": 3, "link_types": "sidewalk"}, "geometry": {"type": "Point", "coordinates": [396094.77, 139065.02]}}, {"type": "Feature", "properties": {"node_id": 40, "node_type": "junction", "degree": 3, "link_types": "sidewalk"}, "geometry": {"type": "Point", "coordinates": [396067.73, 138947.1]}}, {"type": "Feature", "properties": {"node_id": 41, "node_type": "junction", "degree": 3, "link_types": "sidewalk"}, "geometry": {"type": "Point", "coordinates": [396070.21, 138949.18]}}, {"type": "Feature", "properties": {"node_id": 42, "node_type": "junction", "degree": 3, "link_types": "sidewalk"}, "geometry": {"type": "Point", "coordinates": [396067.65, 138947.1]}}, {"type": "Feature", "properties": {"node_id": 43, "node_type": "type_change", "degree": 3, "link_types": "pseudo+sidewalk"}, "geometry": {"type": "Point", "coordinates": [396067.73, 138947.02]}}, {"type": "Feature", "properties": {"node_id": 44, "node_type": "junction", "degree": 3, "link_types": "sidewalk"}, "geometry": {"type": "Point", "coordinates": [396088.69, 139080.22]}}, {"type": "Feature", "properties": {"node_id": 45, "node_type": "type_change", "degree": 3, "link_types": "pseudo+sidewalk"}, "geometry": {"type": "Point", "coordinates": [396088.69, 139080.3]}}, {"type": "Feature", "properties": {"node_id": 46, "node_type": "type_change", "degree": 3, "link_types": "pseudo+sidewalk"}, "geometry": {"type": "Point", "coordinates": [396088.77, 139080.3]}}, {"type": "Feature", "properties": {"node_id": 47, "node_type": "type_change", "degree": 3, "link_types": "pseudo+sidewalk"}, "geometry": {"type": "Point", "coordinates": [396087.81, 139077.74]}}, {"type": "Feature", "properties": {"node_id": 48, "node_type": "endpoint", "degree": 1, "link_types": "sidewalk"}, "geometry": {"type": "Point", "coordinates": [395969.97, 139098.06]}}, {"type": "Feature", "properties": {"node_id": 49, "node_type": "junction", "degree": 3, "link_types": "sidewalk"}, "geometry": {"type": "Point", "coordinates": [396102.21, 139085.02]}}, {"type": "Feature", "properties": {"node_id": 50, "node_type": "type_change", "degree": 3, "link_types": "pseudo+sidewalk"}, "geometry": {"type": "Point", "coordinates": [396100.37, 139085.34]}}, {"type": "Feature", "properties": {"node_id": 51, "node_type": "junction", "degree": 3, "link_types": "sidewalk"}, "geometry": {"type": "Point", "coordinates": [396102.29, 139085.1]}}, {"type": "Feature", "properties": {"node_id": 52, "node_type": "junction", "degree": 3, "link_types": "sidewalk"}, "geometry": {"type": "Point", "coordinates": [396102.29, 139085.02]}}, {"type": "Feature", "properties": {"node_id": 53, "node_type": "junction", "degree": 3, "link_types": "pseudo"}, "geometry": {"type": "Point", "coordinates": [396132.61, 139079.5]}}, {"type": "Feature", "properties": {"node_id": 54, "node_type": "type_change", "degree": 2, "link_types": "crosswalk+pseudo"}, "geometry": {"type": "Point", "coordinates": [396132.85, 139080.86]}}, {"type": "Feature", "properties": {"node_id": 55, "node_type": "type_change", "degree": 2, "link_types": "crosswalk+pseudo"}, "geometry": {"type": "Point", "coordinates": [396139.89, 139092.06]}}, {"type": "Feature", "properties": {"node_id": 56, "node_type": "type_change", "degree": 3, "link_types": "pseudo+sidewalk"}, "geometry": {"type": "Point", "coordinates": [396139.49, 139093.9]}}, {"type": "Feature", "properties": {"node_id": 57, "node_type": "type_change", "degree": 3, "link_types": "pseudo+sidewalk"}, "geometry": {"type": "Point", "coordinates": [396132.53, 139079.42]}}, {"type": "Feature", "properties": {"node_id": 58, "node_type": "type_change", "degree": 3, "link_types": "pseudo+sidewalk"}, "geometry": {"type": "Point", "coordinates": [396132.61, 139079.42]}}, {"type": "Feature", "properties": {"node_id": 59, "node_type": "endpoint", "degree": 1, "link_types": "sidewalk"}, "geometry": {"type": "Point", "coordinates": [396031.97, 138890.7]}}, {"type": "Feature", "properties": {"node_id": 60, "node_type": "junction", "degree": 3, "link_types": "sidewalk"}, "geometry": {"type": "Point", "coordinates": [396038.53, 138885.66]}}, {"type": "Feature", "properties": {"node_id": 61, "node_type": "junction", "degree": 3, "link_types": "pseudo"}, "geometry": {"type": "Point", "coordinates": [396042.69, 138894.54]}}, {"type": "Feature", "properties": {"node_id": 62, "node_type": "type_change", "degree": 3, "link_types": "pseudo+sidewalk"}, "geometry": {"type": "Point", "coordinates": [396042.61, 138894.54]}}, {"type": "Feature", "properties": {"node_id": 63, "node_type": "type_change", "degree": 2, "link_types": "crosswalk+pseudo"}, "geometry": {"type": "Point", "coordinates": [396043.89, 138894.86]}}, {"type": "Feature", "properties": {"node_id": 64, "node_type": "type_change", "degree": 2, "link_types": "crosswalk+pseudo"}, "geometry": {"type": "Point", "coordinates": [396048.61, 138908.14]}}, {"type": "Feature", "properties": {"node_id": 65, "node_type": "type_change", "degree": 3, "link_types": "pseudo+sidewalk"}, "geometry": {"type": "Point", "coordinates": [396042.61, 138894.46]}}, {"type": "Feature", "properties": {"node_id": 66, "node_type": "junction", "degree": 3, "link_types": "sidewalk"}, "geometry": {"type": "Point", "coordinates": [396177.57, 139094.86]}}, {"type": "Feature", "properties": {"node_id": 67, "node_type": "endpoint", "degree": 1, "link_types": "sidewalk"}, "geometry": {"type": "Point", "coordinates": [396180.05, 139099.26]}}, {"type": "Feature", "properties": {"node_id": 68, "node_type": "junction", "degree": 3, "link_types": "sidewalk"}, "geometry": {"type": "Point", "coordinates": [396165.57, 139095.58]}}, {"type": "Feature", "properties": {"node_id": 69, "node_type": "endpoint", "degree": 1, "link_types": "sidewalk"}, "geometry": {"type": "Point", "coordinates": [396179.41, 139091.42]}}, {"type": "Feature", "properties": {"node_id": 70, "node_type": "junction", "degree": 3, "link_types": "sidewalk"}, "geometry": {"type": "Point", "coordinates": [396111.73, 139063.74]}}, {"type": "Feature", "properties": {"node_id": 71, "node_type": "junction", "degree": 3, "link_types": "sidewalk"}, "geometry": {"type": "Point", "coordinates": [396107.17, 139070.14]}}, {"type": "Feature", "properties": {"node_id": 72, "node_type": "junction", "degree": 3, "link_types": "sidewalk"}, "geometry": {"type": "Point", "coordinates": [396113.49, 139070.14]}}, {"type": "Feature", "properties": {"node_id": 73, "node_type": "junction", "degree": 3, "link_types": "sidewalk"}, "geometry": {"type": "Point", "coordinates": [396117.01, 139046.3]}}, {"type": "Feature", "properties": {"node_id": 74, "node_type": "junction", "degree": 3, "link_types": "sidewalk"}, "geometry": {"type": "Point", "coordinates": [396121.49, 138969.5]}}, {"type": "Feature", "properties": {"node_id": 75, "node_type": "junction", "degree": 3, "link_types": "sidewalk"}, "geometry": {"type": "Point", "coordinates": [396164.29, 138892.62]}}, {"type": "Feature", "properties": {"node_id": 76, "node_type": "type_change", "degree": 2, "link_types": "midblock+sidewalk"}, "geometry": {"type": "Point", "coordinates": [396152.658, 138932.147]}}, {"type": "Feature", "properties": {"node_id": 77, "node_type": "type_change", "degree": 2, "link_types": "midblock+sidewalk"}, "geometry": {"type": "Point", "coordinates": [396150.635, 138938.45]}}, {"type": "Feature", "properties": {"node_id": 78, "node_type": "type_change", "degree": 3, "link_types": "pseudo+sidewalk"}, "geometry": {"type": "Point", "coordinates": [396138.61, 138977.74]}}, {"type": "Feature", "properties": {"node_id": 79, "node_type": "junction", "degree": 3, "link_types": "sidewalk"}, "geometry": {"type": "Point", "coordinates": [396164.29, 138892.54]}}, {"type": "Feature", "properties": {"node_id": 80, "node_type": "junction", "degree": 3, "link_types": "sidewalk"}, "geometry": {"type": "Point", "coordinates": [396164.37, 138892.54]}}, {"type": "Feature", "properties": {"node_id": 81, "node_type": "junction", "degree": 3, "link_types": "pseudo"}, "geometry": {"type": "Point", "coordinates": [396126.37, 139020.46]}}, {"type": "Feature", "properties": {"node_id": 82, "node_type": "type_change", "degree": 2, "link_types": "crosswalk+pseudo"}, "geometry": {"type": "Point", "coordinates": [396125.57, 139020.94]}}, {"type": "Feature", "properties": {"node_id": 83, "node_type": "type_change", "degree": 2, "link_types": "crosswalk+pseudo"}, "geometry": {"type": "Point", "coordinates": [396118.61, 139043.34]}}, {"type": "Feature", "properties": {"node_id": 84, "node_type": "type_change", "degree": 3, "link_types": "pseudo+sidewalk"}, "geometry": {"type": "Point", "coordinates": [396126.45, 139020.46]}}, {"type": "Feature", "properties": {"node_id": 85, "node_type": "type_change", "degree": 3, "link_types": "pseudo+sidewalk"}, "geometry": {"type": "Point", "coordinates": [396126.45, 139020.38]}}, {"type": "Feature", "properties": {"node_id": 86, "node_type": "junction", "degree": 3, "link_types": "sidewalk"}, "geometry": {"type": "Point", "coordinates": [396152.93, 138890.62]}}, {"type": "Feature", "properties": {"node_id": 87, "node_type": "junction", "degree": 3, "link_types": "sidewalk"}, "geometry": {"type": "Point", "coordinates": [396149.97, 138899.18]}}, {"type": "Feature", "properties": {"node_id": 88, "node_type": "type_change", "degree": 3, "link_types": "pseudo+sidewalk"}, "geometry": {"type": "Point", "coordinates": [396153.01, 138890.62]}}, {"type": "Feature", "properties": {"node_id": 89, "node_type": "type_change", "degree": 3, "link_types": "pseudo+sidewalk"}, "geometry": {"type": "Point", "coordinates": [396152.93, 138890.54]}}, {"type": "Feature", "properties": {"node_id": 90, "node_type": "junction", "degree": 3, "link_types": "sidewalk"}, "geometry": {"type": "Point", "coordinates": [395985.33, 139073.1]}}, {"type": "Feature", "properties": {"node_id": 91, "node_type": "junction", "degree": 3, "link_types": "sidewalk"}, "geometry": {"type": "Point", "coordinates": [395985.33, 139073.18]}}, {"type": "Feature", "properties": {"node_id": 92, "node_type": "junction", "degree": 3, "link_types": "sidewalk"}, "geometry": {"type": "Point", "coordinates": [395987.33, 139068.78]}}, {"type": "Feature", "properties": {"node_id": 93, "node_type": "junction", "degree": 3, "link_types": "crosswalk"}, "geometry": {"type": "Point", "coordinates": [396099.41, 138971.74]}}, {"type": "Feature", "properties": {"node_id": 94, "node_type": "junction", "degree": 3, "link_types": "crosswalk"}, "geometry": {"type": "Point", "coordinates": [396099.17, 138971.66]}}, {"type": "Feature", "properties": {"node_id": 95, "node_type": "type_change", "degree": 4, "link_types": "crosswalk+pseudo"}, "geometry": {"type": "Point", "coordinates": [396099.49, 138971.74]}}, {"type": "Feature", "properties": {"node_id": 96, "node_type": "type_change", "degree": 4, "link_types": "crosswalk+pseudo"}, "geometry": {"type": "Point", "coordinates": [396099.49, 138971.66]}}, {"type": "Feature", "properties": {"node_id": 97, "node_type": "endpoint", "degree": 1, "link_types": "sidewalk"}, "geometry": {"type": "Point", "coordinates": [396148.93, 139077.58]}}, {"type": "Feature", "properties": {"node_id": 98, "node_type": "junction", "degree": 3, "link_types": "sidewalk"}, "geometry": {"type": "Point", "coordinates": [396153.25, 139076.62]}}, {"type": "Feature", "properties": {"node_id": 99, "node_type": "endpoint", "degree": 1, "link_types": "sidewalk"}, "geometry": {"type": "Point", "coordinates": [395934.77, 138878.7]}}, {"type": "Feature", "properties": {"node_id": 100, "node_type": "junction", "degree": 3, "link_types": "sidewalk"}, "geometry": {"type": "Point", "coordinates": [395943.81, 138882.62]}}, {"type": "Feature", "properties": {"node_id": 101, "node_type": "junction", "degree": 3, "link_types": "sidewalk"}, "geometry": {"type": "Point", "coordinates": [395986.21, 139040.3]}}, {"type": "Feature", "properties": {"node_id": 102, "node_type": "junction", "degree": 3, "link_types": "sidewalk"}, "geometry": {"type": "Point", "coordinates": [395986.29, 139040.38]}}, {"type": "Feature", "properties": {"node_id": 103, "node_type": "junction", "degree": 3, "link_types": "sidewalk"}, "geometry": {"type": "Point", "coordinates": [395986.21, 139039.9]}}, {"type": "Feature", "properties": {"node_id": 104, "node_type": "junction", "degree": 3, "link_types": "sidewalk"}, "geometry": {"type": "Point", "coordinates": [395955.65, 139011.58]}}, {"type": "Feature", "properties": {"node_id": 105, "node_type": "type_change", "degree": 3, "link_types": "pseudo+sidewalk"}, "geometry": {"type": "Point", "coordinates": [395988.69, 139025.18]}}, {"type": "Feature", "properties": {"node_id": 106, "node_type": "junction", "degree": 3, "link_types": "sidewalk"}, "geometry": {"type": "Point", "coordinates": [395955.57, 139011.5]}}, {"type": "Feature", "properties": {"node_id": 107, "node_type": "junction", "degree": 3, "link_types": "sidewalk"}, "geometry": {"type": "Point", "coordinates": [396131.81, 138996.22]}}, {"type": "Feature", "properties": {"node_id": 108, "node_type": "junction", "degree": 3, "link_types": "sidewalk"}, "geometry": {"type": "Point", "coordinates": [396131.73, 138996.3]}}, {"type": "Feature", "properties": {"node_id": 109, "node_type": "junction", "degree": 3, "link_types": "sidewalk"}, "geometry": {"type": "Point", "coordinates": [396131.73, 138996.22]}}, {"type": "Feature", "properties": {"node_id": 110, "node_type": "junction", "degree": 3, "link_types": "sidewalk"}, "geometry": {"type": "Point", "coordinates": [396135.81, 138993.18]}}, {"type": "Feature", "properties": {"node_id": 111, "node_type": "endpoint", "degree": 1, "link_types": "sidewalk"}, "geometry": {"type": "Point", "coordinates": [395934.77, 139006.94]}}, {"type": "Feature", "properties": {"node_id": 112, "node_type": "endpoint", "degree": 1, "link_types": "sidewalk"}, "geometry": {"type": "Point", "coordinates": [396051.97, 138907.98]}}, {"type": "Feature", "properties": {"node_id": 113, "node_type": "junction", "degree": 3, "link_types": "sidewalk"}, "geometry": {"type": "Point", "coordinates": [396051.01, 138913.74]}}, {"type": "Feature", "properties": {"node_id": 114, "node_type": "endpoint", "degree": 1, "link_types": "sidewalk"}, "geometry": {"type": "Point", "coordinates": [396098.37, 139086.38]}}, {"type": "Feature", "properties": {"node_id": 115, "node_type": "endpoint", "degree": 1, "link_types": "sidewalk"}, "geometry": {"type": "Point", "coordinates": [396031.41, 139018.86]}}, {"type": "Feature", "properties": {"node_id": 116, "node_type": "endpoint", "degree": 1, "link_types": "sidewalk"}, "geometry": {"type": "Point", "coordinates": [396032.77, 139013.1]}}, {"type": "Feature", "properties": {"node_id": 117, "node_type": "junction", "degree": 3, "link_types": "sidewalk"}, "geometry": {"type": "Point", "coordinates": [396051.01, 138913.82]}}, {"type": "Feature", "properties": {"node_id": 118, "node_type": "junction", "degree": 3, "link_types": "sidewalk"}, "geometry": {"type": "Point", "coordinates": [396059.17, 138929.74]}}, {"type": "Feature", "properties": {"node_id": 119, "node_type": "junction", "degree": 3, "link_types": "sidewalk"}, "geometry": {"type": "Point", "coordinates": [396050.93, 138913.74]}}, {"type": "Feature", "properties": {"node_id": 120, "node_type": "junction", "degree": 3, "link_types": "sidewalk"}, "geometry": {"type": "Point", "coordinates": [395992.37, 139057.26]}}, {"type": "Feature", "properties": {"node_id": 121, "node_type": "endpoint", "degree": 1, "link_types": "sidewalk"}, "geometry": {"type": "Point", "coordinates": [395999.01, 139059.5]}}, {"type": "Feature", "properties": {"node_id": 122, "node_type": "junction", "degree": 3, "link_types": "sidewalk"}, "geometry": {"type": "Point", "coordinates": [395992.29, 139057.26]}}, {"type": "Feature", "properties": {"node_id": 123, "node_type": "junction", "degree": 3, "link_types": "sidewalk"}, "geometry": {"type": "Point", "coordinates": [395992.29, 139057.18]}}, {"type": "Feature", "properties": {"node_id": 124, "node_type": "junction", "degree": 3, "link_types": "sidewalk"}, "geometry": {"type": "Point", "coordinates": [396079.49, 138967.82]}}, {"type": "Feature", "properties": {"node_id": 125, "node_type": "junction", "degree": 3, "link_types": "sidewalk"}, "geometry": {"type": "Point", "coordinates": [396079.49, 138967.9]}}, {"type": "Feature", "properties": {"node_id": 126, "node_type": "type_change", "degree": 3, "link_types": "pseudo+sidewalk"}, "geometry": {"type": "Point", "coordinates": [396079.57, 138967.82]}}, {"type": "Feature", "properties": {"node_id": 127, "node_type": "type_change", "degree": 2, "link_types": "midblock+sidewalk"}, "geometry": {"type": "Point", "coordinates": [396075.863, 138959.298]}}, {"type": "Feature", "properties": {"node_id": 128, "node_type": "type_change", "degree": 2, "link_types": "midblock+sidewalk"}, "geometry": {"type": "Point", "coordinates": [396073.753, 138955.111]}}, {"type": "Feature", "properties": {"node_id": 129, "node_type": "junction", "degree": 3, "link_types": "sidewalk"}, "geometry": {"type": "Point", "coordinates": [396139.41, 139093.98]}}, {"type": "Feature", "properties": {"node_id": 130, "node_type": "junction", "degree": 3, "link_types": "sidewalk"}, "geometry": {"type": "Point", "coordinates": [396119.97, 139090.62]}}, {"type": "Feature", "properties": {"node_id": 131, "node_type": "junction", "degree": 3, "link_types": "sidewalk"}, "geometry": {"type": "Point", "coordinates": [396139.49, 139093.98]}}, {"type": "Feature", "properties": {"node_id": 132, "node_type": "type_change", "degree": 2, "link_types": "crosswalk+pseudo"}, "geometry": {"type": "Point", "coordinates": [396129.49, 138994.3]}}, {"type": "Feature", "properties": {"node_id": 133, "node_type": "type_change", "degree": 2, "link_types": "crosswalk+pseudo"}, "geometry": {"type": "Point", "coordinates": [396122.45, 138986.38]}}, {"type": "Feature", "properties": {"node_id": 134, "node_type": "junction", "degree": 3, "link_types": "pseudo"}, "geometry": {"type": "Point", "coordinates": [396133.97, 139078.62]}}, {"type": "Feature", "properties": {"node_id": 135, "node_type": "type_change", "degree": 2, "link_types": "pseudo+sidewalk"}, "geometry": {"type": "Point", "coordinates": [396133.89, 139078.7]}}, {"type": "Feature", "properties": {"node_id": 136, "node_type": "type_change", "degree": 2, "link_types": "crosswalk+pseudo"}, "geometry": {"type": "Point", "coordinates": [396135.65, 139078.62]}}, {"type": "Feature", "properties": {"node_id": 137, "node_type": "type_change", "degree": 2, "link_types": "crosswalk+pseudo"}, "geometry": {"type": "Point", "coordinates": [396153.89, 139081.26]}}, {"type": "Feature", "properties": {"node_id": 138, "node_type": "type_change", "degree": 3, "link_types": "pseudo+sidewalk"}, "geometry": {"type": "Point", "coordinates": [396155.09, 139079.74]}}, {"type": "Feature", "properties": {"node_id": 139, "node_type": "type_change", "degree": 2, "link_types": "pseudo+sidewalk"}, "geometry": {"type": "Point", "coordinates": [396133.89, 139078.54]}}, {"type": "Feature", "properties": {"node_id": 140, "node_type": "junction", "degree": 3, "link_types": "sidewalk"}, "geometry": {"type": "Point", "coordinates": [396126.61, 139063.1]}}, {"type": "Feature", "properties": {"node_id": 141, "node_type": "junction", "degree": 3, "link_types": "sidewalk"}, "geometry": {"type": "Point", "coordinates": [396125.25, 139015.26]}}, {"type": "Feature", "properties": {"node_id": 142, "node_type": "junction", "degree": 3, "link_types": "sidewalk"}, "geometry": {"type": "Point", "coordinates": [396107.65, 139023.74]}}, {"type": "Feature", "properties": {"node_id": 143, "node_type": "type_change", "degree": 3, "link_types": "pseudo+sidewalk"}, "geometry": {"type": "Point", "coordinates": [396109.17, 139029.58]}}, {"type": "Feature", "properties": {"node_id": 144, "node_type": "type_change", "degree": 3, "link_types": "pseudo+sidewalk"}, "geometry": {"type": "Point", "coordinates": [396107.65, 139023.66]}}, {"type": "Feature", "properties": {"node_id": 145, "node_type": "type_change", "degree": 3, "link_types": "pseudo+sidewalk"}, "geometry": {"type": "Point", "coordinates": [396107.73, 139023.66]}}, {"type": "Feature", "properties": {"node_id": 146, "node_type": "junction", "degree": 3, "link_types": "sidewalk"}, "geometry": {"type": "Point", "coordinates": [396136.21, 138992.06]}}, {"type": "Feature", "properties": {"node_id": 147, "node_type": "junction", "degree": 3, "link_types": "sidewalk"}, "geometry": {"type": "Point", "coordinates": [396135.81, 138993.1]}}, {"type": "Feature", "properties": {"node_id": 148, "node_type": "type_change", "degree": 2, "link_types": "pseudo+sidewalk"}, "geometry": {"type": "Point", "coordinates": [396136.13, 138991.98]}}, {"type": "Feature", "properties": {"node_id": 149, "node_type": "type_change", "degree": 2, "link_types": "crosswalk+pseudo"}, "geometry": {"type": "Point", "coordinates": [396133.49, 138990.3]}}, {"type": "Feature", "properties": {"node_id": 150, "node_type": "type_change", "degree": 2, "link_types": "crosswalk+pseudo"}, "geometry": {"type": "Point", "coordinates": [396137.97, 138981.02]}}, {"type": "Feature", "properties": {"node_id": 151, "node_type": "type_change", "degree": 3, "link_types": "pseudo+sidewalk"}, "geometry": {"type": "Point", "coordinates": [396139.33, 138979.66]}}, {"type": "Feature", "properties": {"node_id": 152, "node_type": "endpoint", "degree": 1, "link_types": "sidewalk"}, "geometry": {"type": "Point", "coordinates": [396137.49, 138988.62]}}, {"type": "Feature", "properties": {"node_id": 153, "node_type": "junction", "degree": 3, "link_types": "sidewalk"}, "geometry": {"type": "Point", "coordinates": [396125.33, 139015.18]}}, {"type": "Feature", "properties": {"node_id": 154, "node_type": "junction", "degree": 3, "link_types": "sidewalk"}, "geometry": {"type": "Point", "coordinates": [396125.33, 139015.26]}}, {"type": "Feature", "properties": {"node_id": 155, "node_type": "junction", "degree": 3, "link_types": "sidewalk"}, "geometry": {"type": "Point", "coordinates": [396125.65, 139012.62]}}, {"type": "Feature", "properties": {"node_id": 156, "node_type": "endpoint", "degree": 1, "link_types": "crosswalk"}, "geometry": {"type": "Point", "coordinates": [395993.41, 139043.1]}}, {"type": "Feature", "properties": {"node_id": 157, "node_type": "type_change", "degree": 3, "link_types": "crosswalk+pseudo"}, "geometry": {"type": "Point", "coordinates": [395993.25, 139043.18]}}, {"type": "Feature", "properties": {"node_id": 158, "node_type": "type_change", "degree": 2, "link_types": "pseudo+sidewalk"}, "geometry": {"type": "Point", "coordinates": [396070.29, 138949.1]}}, {"type": "Feature", "properties": {"node_id": 159, "node_type": "type_change", "degree": 2, "link_types": "crosswalk+pseudo"}, "geometry": {"type": "Point", "coordinates": [396071.41, 138947.66]}}, {"type": "Feature", "properties": {"node_id": 160, "node_type": "type_change", "degree": 2, "link_types": "crosswalk+pseudo"}, "geometry": {"type": "Point", "coordinates": [396086.77, 138943.82]}}, {"type": "Feature", "properties": {"node_id": 161, "node_type": "type_change", "degree": 3, "link_types": "pseudo+sidewalk"}, "geometry": {"type": "Point", "coordinates": [396088.13, 138943.1]}}, {"type": "Feature", "properties": {"node_id": 162, "node_type": "junction", "degree": 3, "link_types": "sidewalk"}, "geometry": {"type": "Point", "coordinates": [396158.93, 138873.42]}}, {"type": "Feature", "properties": {"node_id": 163, "node_type": "type_change", "degree": 3, "link_types": "pseudo+sidewalk"}, "geometry": {"type": "Point", "coordinates": [396159.01, 138873.42]}}, {"type": "Feature", "properties": {"node_id": 164, "node_type": "junction", "degree": 3, "link_types": "sidewalk"}, "geometry": {"type": "Point", "coordinates": [396158.93, 138873.34]}}, {"type": "Feature", "properties": {"node_id": 165, "node_type": "junction", "degree": 3, "link_types": "sidewalk"}, "geometry": {"type": "Point", "coordinates": [396135.89, 138993.18]}}, {"type": "Feature", "properties": {"node_id": 166, "node_type": "endpoint", "degree": 1, "link_types": "sidewalk"}, "geometry": {"type": "Point", "coordinates": [396172.77, 139111.74]}}, {"type": "Feature", "properties": {"node_id": 167, "node_type": "type_change", "degree": 3, "link_types": "pseudo+sidewalk"}, "geometry": {"type": "Point", "coordinates": [396164.93, 139097.02]}}, {"type": "Feature", "properties": {"node_id": 168, "node_type": "junction", "degree": 3, "link_types": "sidewalk"}, "geometry": {"type": "Point", "coordinates": [396003.09, 139030.38]}}, {"type": "Feature", "properties": {"node_id": 169, "node_type": "type_change", "degree": 3, "link_types": "pseudo+sidewalk"}, "geometry": {"type": "Point", "coordinates": [396003.01, 139030.46]}}, {"type": "Feature", "properties": {"node_id": 170, "node_type": "junction", "degree": 3, "link_types": "sidewalk"}, "geometry": {"type": "Point", "coordinates": [396003.01, 139030.38]}}, {"type": "Feature", "properties": {"node_id": 171, "node_type": "type_change", "degree": 2, "link_types": "midblock+sidewalk"}, "geometry": {"type": "Point", "coordinates": [396059.976, 139053.945]}}, {"type": "Feature", "properties": {"node_id": 172, "node_type": "type_change", "degree": 2, "link_types": "midblock+sidewalk"}, "geometry": {"type": "Point", "coordinates": [396062.022, 139054.258]}}, {"type": "Feature", "properties": {"node_id": 173, "node_type": "type_change", "degree": 3, "link_types": "pseudo+sidewalk"}, "geometry": {"type": "Point", "coordinates": [396125.57, 139012.54]}}, {"type": "Feature", "properties": {"node_id": 174, "node_type": "type_change", "degree": 3, "link_types": "pseudo+sidewalk"}, "geometry": {"type": "Point", "coordinates": [396125.65, 139012.54]}}, {"type": "Feature", "properties": {"node_id": 175, "node_type": "junction", "degree": 3, "link_types": "sidewalk"}, "geometry": {"type": "Point", "coordinates": [396041.41, 138890.22]}}, {"type": "Feature", "properties": {"node_id": 176, "node_type": "junction", "degree": 3, "link_types": "sidewalk"}, "geometry": {"type": "Point", "coordinates": [396038.61, 138885.66]}}, {"type": "Feature", "properties": {"node_id": 177, "node_type": "type_change", "degree": 2, "link_types": "pseudo+sidewalk"}, "geometry": {"type": "Point", "coordinates": [396041.49, 138890.14]}}, {"type": "Feature", "properties": {"node_id": 178, "node_type": "type_change", "degree": 2, "link_types": "crosswalk+pseudo"}, "geometry": {"type": "Point", "coordinates": [396042.85, 138889.42]}}, {"type": "Feature", "properties": {"node_id": 179, "node_type": "type_change", "degree": 2, "link_types": "crosswalk+pseudo"}, "geometry": {"type": "Point", "coordinates": [396055.97, 138882.06]}}, {"type": "Feature", "properties": {"node_id": 180, "node_type": "type_change", "degree": 3, "link_types": "pseudo+sidewalk"}, "geometry": {"type": "Point", "coordinates": [396058.21, 138884.38]}}, {"type": "Feature", "properties": {"node_id": 181, "node_type": "type_change", "degree": 3, "link_types": "pseudo+sidewalk"}, "geometry": {"type": "Point", "coordinates": [395991.17, 139024.7]}}, {"type": "Feature", "properties": {"node_id": 182, "node_type": "type_change", "degree": 3, "link_types": "pseudo+sidewalk"}, "geometry": {"type": "Point", "coordinates": [395991.25, 139024.7]}}, {"type": "Feature", "properties": {"node_id": 183, "node_type": "endpoint", "degree": 1, "link_types": "sidewalk"}, "geometry": {"type": "Point", "coordinates": [396151.73, 139111.58]}}, {"type": "Feature", "properties": {"node_id": 184, "node_type": "junction", "degree": 3, "link_types": "sidewalk"}, "geometry": {"type": "Point", "coordinates": [396142.85, 139095.5]}}, {"type": "Feature", "properties": {"node_id": 185, "node_type": "type_change", "degree": 2, "link_types": "pseudo+sidewalk"}, "geometry": {"type": "Point", "coordinates": [396094.85, 139065.1]}}, {"type": "Feature", "properties": {"node_id": 186, "node_type": "type_change", "degree": 2, "link_types": "crosswalk+pseudo"}, "geometry": {"type": "Point", "coordinates": [396096.05, 139065.82]}}, {"type": "Feature", "properties": {"node_id": 187, "node_type": "type_change", "degree": 2, "link_types": "crosswalk+pseudo"}, "geometry": {"type": "Point", "coordinates": [396105.25, 139069.5]}}, {"type": "Feature", "properties": {"node_id": 188, "node_type": "type_change", "degree": 3, "link_types": "pseudo+sidewalk"}, "geometry": {"type": "Point", "coordinates": [396107.09, 139070.14]}}, {"type": "Feature", "properties": {"node_id": 189, "node_type": "junction", "degree": 3, "link_types": "sidewalk"}, "geometry": {"type": "Point", "coordinates": [396059.17, 138929.82]}}, {"type": "Feature", "properties": {"node_id": 190, "node_type": "endpoint", "degree": 1, "link_types": "sidewalk"}, "geometry": {"type": "Point", "coordinates": [396057.25, 138931.1]}}, {"type": "Feature", "properties": {"node_id": 191, "node_type": "type_change", "degree": 3, "link_types": "pseudo+sidewalk"}, "geometry": {"type": "Point", "coordinates": [396059.25, 138929.82]}}, {"type": "Feature", "properties": {"node_id": 192, "node_type": "junction", "degree": 3, "link_types": "pseudo"}, "geometry": {"type": "Point", "coordinates": [396099.73, 138971.74]}}, {"type": "Feature", "properties": {"node_id": 193, "node_type": "type_change", "degree": 2, "link_types": "crosswalk+pseudo"}, "geometry": {"type": "Point", "coordinates": [396099.65, 138971.82]}}, {"type": "Feature", "properties": {"node_id": 194, "node_type": "type_change", "degree": 3, "link_types": "crosswalk+pseudo"}, "geometry": {"type": "Point", "coordinates": [396099.81, 138971.82]}}, {"type": "Feature", "properties": {"node_id": 195, "node_type": "junction", "degree": 3, "link_types": "pseudo"}, "geometry": {"type": "Point", "coordinates": [396099.57, 138971.66]}}, {"type": "Feature", "properties": {"node_id": 196, "node_type": "type_change", "degree": 2, "link_types": "crosswalk+pseudo"}, "geometry": {"type": "Point", "coordinates": [396115.25, 139043.98]}}, {"type": "Feature", "properties": {"node_id": 197, "node_type": "type_change", "degree": 2, "link_types": "crosswalk+pseudo"}, "geometry": {"type": "Point", "coordinates": [396109.65, 139029.58]}}, {"type": "Feature", "properties": {"node_id": 198, "node_type": "endpoint", "degree": 1, "link_types": "sidewalk"}, "geometry": {"type": "Point", "coordinates": [396108.13, 139111.82]}}, {"type": "Feature", "properties": {"node_id": 199, "node_type": "junction", "degree": 3, "link_types": "sidewalk"}, "geometry": {"type": "Point", "coordinates": [396103.33, 139097.18]}}, {"type": "Feature", "properties": {"node_id": 200, "node_type": "type_change", "degree": 2, "link_types": "pseudo+sidewalk"}, "geometry": {"type": "Point", "coordinates": [396142.93, 139095.42]}}, {"type": "Feature", "properties": {"node_id": 201, "node_type": "type_change", "degree": 2, "link_types": "crosswalk+pseudo"}, "geometry": {"type": "Point", "coordinates": [396143.65, 139094.62]}}, {"type": "Feature", "properties": {"node_id": 202, "node_type": "type_change", "degree": 2, "link_types": "crosswalk+pseudo"}, "geometry": {"type": "Point", "coordinates": [396162.37, 139096.62]}}, {"type": "Feature", "properties": {"node_id": 203, "node_type": "junction", "degree": 3, "link_types": "pseudo"}, "geometry": {"type": "Point", "coordinates": [396164.85, 139096.94]}}, {"type": "Feature", "properties": {"node_id": 204, "node_type": "junction", "degree": 3, "link_types": "sidewalk"}, "geometry": {"type": "Point", "coordinates": [396110.61, 139072.46]}}, {"type": "Feature", "properties": {"node_id": 205, "node_type": "junction", "degree": 3, "link_types": "sidewalk"}, "geometry": {"type": "Point", "coordinates": [396116.29, 138995.5]}}, {"type": "Feature", "properties": {"node_id": 206, "node_type": "type_change", "degree": 3, "link_types": "pseudo+sidewalk"}, "geometry": {"type": "Point", "coordinates": [396116.29, 138998.46]}}, {"type": "Feature", "properties": {"node_id": 207, "node_type": "junction", "degree": 3, "link_types": "sidewalk"}, "geometry": {"type": "Point", "coordinates": [396116.29, 138995.42]}}, {"type": "Feature", "properties": {"node_id": 208, "node_type": "junction", "degree": 3, "link_types": "sidewalk"}, "geometry": {"type": "Point", "coordinates": [396116.37, 138995.42]}}, {"type": "Feature", "properties": {"node_id": 209, "node_type": "endpoint", "degree": 1, "link_types": "sidewalk"}, "geometry": {"type": "Point", "coordinates": [395992.53, 139043.74]}}, {"type": "Feature", "properties": {"node_id": 210, "node_type": "type_change", "degree": 2, "link_types": "pseudo+sidewalk"}, "geometry": {"type": "Point", "coordinates": [395992.61, 139043.66]}}, {"type": "Feature", "properties": {"node_id": 211, "node_type": "junction", "degree": 3, "link_types": "sidewalk"}, "geometry": {"type": "Point", "coordinates": [396002.77, 139028.94]}}, {"type": "Feature", "properties": {"node_id": 212, "node_type": "junction", "degree": 3, "link_types": "sidewalk"}, "geometry": {"type": "Point", "coordinates": [396002.77, 139029.02]}}, {"type": "Feature", "properties": {"node_id": 213, "node_type": "type_change", "degree": 3, "link_types": "pseudo+sidewalk"}, "geometry": {"type": "Point", "coordinates": [396002.69, 139028.94]}}, {"type": "Feature", "properties": {"node_id": 214, "node_type": "type_change", "degree": 2, "link_types": "midblock+sidewalk"}, "geometry": {"type": "Point", "coordinates": [396018.816, 138989.442]}}, {"type": "Feature", "properties": {"node_id": 215, "node_type": "type_change", "degree": 2, "link_types": "midblock+sidewalk"}, "geometry": {"type": "Point", "coordinates": [396021.005, 138984.626]}}, {"type": "Feature", "properties": {"node_id": 216, "node_type": "type_change", "degree": 2, "link_types": "midblock+sidewalk"}, "geometry": {"type": "Point", "coordinates": [396022.844, 138980.134]}}, {"type": "Feature", "properties": {"node_id": 217, "node_type": "type_change", "degree": 2, "link_types": "midblock+sidewalk"}, "geometry": {"type": "Point", "coordinates": [396024.312, 138974.761]}}, {"type": "Feature", "properties": {"node_id": 218, "node_type": "type_change", "degree": 2, "link_types": "midblock+sidewalk"}, "geometry": {"type": "Point", "coordinates": [396035.643, 138946.563]}}, {"type": "Feature", "properties": {"node_id": 219, "node_type": "type_change", "degree": 2, "link_types": "midblock+sidewalk"}, "geometry": {"type": "Point", "coordinates": [396036.932, 138942.882]}}, {"type": "Feature", "properties": {"node_id": 220, "node_type": "junction", "degree": 3, "link_types": "sidewalk"}, "geometry": {"type": "Point", "coordinates": [396037.97, 138938.86]}}, {"type": "Feature", "properties": {"node_id": 221, "node_type": "junction", "degree": 3, "link_types": "sidewalk"}, "geometry": {"type": "Point", "coordinates": [396117.01, 139046.22]}}, {"type": "Feature", "properties": {"node_id": 222, "node_type": "junction", "degree": 3, "link_types": "sidewalk"}, "geometry": {"type": "Point", "coordinates": [396117.09, 139046.3]}}, {"type": "Feature", "properties": {"node_id": 223, "node_type": "junction", "degree": 3, "link_types": "sidewalk"}, "geometry": {"type": "Point", "coordinates": [396088.21, 138943.02]}}, {"type": "Feature", "properties": {"node_id": 224, "node_type": "junction", "degree": 3, "link_types": "sidewalk"}, "geometry": {"type": "Point", "coordinates": [396088.21, 138943.1]}}, {"type": "Feature", "properties": {"node_id": 225, "node_type": "junction", "degree": 3, "link_types": "sidewalk"}, "geometry": {"type": "Point", "coordinates": [396060.85, 138881.74]}}, {"type": "Feature", "properties": {"node_id": 226, "node_type": "junction", "degree": 3, "link_types": "pseudo"}, "geometry": {"type": "Point", "coordinates": [396042.93, 139007.58]}}, {"type": "Feature", "properties": {"node_id": 227, "node_type": "type_change", "degree": 2, "link_types": "crosswalk+pseudo"}, "geometry": {"type": "Point", "coordinates": [396043.01, 139007.66]}}, {"type": "Feature", "properties": {"node_id": 228, "node_type": "endpoint", "degree": 1, "link_types": "crosswalk"}, "geometry": {"type": "Point", "coordinates": [396043.09, 139007.74]}}, {"type": "Feature", "properties": {"node_id": 229, "node_type": "type_change", "degree": 3, "link_types": "crosswalk+pseudo"}, "geometry": {"type": "Point", "coordinates": [396042.85, 139007.58]}}, {"type": "Feature", "properties": {"node_id": 230, "node_type": "type_change", "degree": 3, "link_types": "crosswalk+pseudo"}, "geometry": {"type": "Point", "coordinates": [396042.93, 139007.5]}}, {"type": "Feature", "properties": {"node_id": 231, "node_type": "type_change", "degree": 2, "link_types": "crosswalk+pseudo"}, "geometry": {"type": "Point", "coordinates": [395992.45, 139025.26]}}, {"type": "Feature", "properties": {"node_id": 232, "node_type": "type_change", "degree": 2, "link_types": "crosswalk+pseudo"}, "geometry": {"type": "Point", "coordinates": [396001.25, 139028.7]}}, {"type": "Feature", "properties": {"node_id": 233, "node_type": "type_change", "degree": 3, "link_types": "pseudo+sidewalk"}, "geometry": {"type": "Point", "coordinates": [396164.93, 139096.94]}}, {"type": "Feature", "properties": {"node_id": 234, "node_type": "junction", "degree": 3, "link_types": "sidewalk"}, "geometry": {"type": "Point", "coordinates": [395984.29, 139036.78]}}, {"type": "Feature", "properties": {"node_id": 235, "node_type": "endpoint", "degree": 1, "link_types": "sidewalk"}, "geometry": {"type": "Point", "coordinates": [395937.97, 139018.54]}}, {"type": "Feature", "properties": {"node_id": 236, "node_type": "type_change", "degree": 2, "link_types": "pseudo+sidewalk"}, "geometry": {"type": "Point", "coordinates": [395984.37, 139036.7]}}, {"type": "Feature", "properties": {"node_id": 237, "node_type": "type_change", "degree": 2, "link_types": "crosswalk+pseudo"}, "geometry": {"type": "Point", "coordinates": [395985.33, 139035.02]}}, {"type": "Feature", "properties": {"node_id": 238, "node_type": "type_change", "degree": 2, "link_types": "crosswalk+pseudo"}, "geometry": {"type": "Point", "coordinates": [395988.69, 139026.62]}}, {"type": "Feature", "properties": {"node_id": 239, "node_type": "junction", "degree": 3, "link_types": "sidewalk"}, "geometry": {"type": "Point", "coordinates": [395999.01, 139043.18]}}, {"type": "Feature", "properties": {"node_id": 240, "node_type": "junction", "degree": 3, "link_types": "sidewalk"}, "geometry": {"type": "Point", "coordinates": [395998.93, 139043.18]}}, {"type": "Feature", "properties": {"node_id": 241, "node_type": "type_change", "degree": 3, "link_types": "pseudo+sidewalk"}, "geometry": {"type": "Point", "coordinates": [395999.01, 139043.1]}}, {"type": "Feature", "properties": {"node_id": 242, "node_type": "junction", "degree": 3, "link_types": "sidewalk"}, "geometry": {"type": "Point", "coordinates": [396160.37, 139082.62]}}, {"type": "Feature", "properties": {"node_id": 243, "node_type": "type_change", "degree": 3, "link_types": "pseudo+sidewalk"}, "geometry": {"type": "Point", "coordinates": [396160.37, 139082.7]}}, {"type": "Feature", "properties": {"node_id": 244, "node_type": "type_change", "degree": 3, "link_types": "pseudo+sidewalk"}, "geometry": {"type": "Point", "coordinates": [396160.45, 139082.62]}}, {"type": "Feature", "properties": {"node_id": 245, "node_type": "type_change", "degree": 3, "link_types": "pseudo+sidewalk"}, "geometry": {"type": "Point", "coordinates": [396107.17, 139070.22]}}, {"type": "Feature", "properties": {"node_id": 246, "node_type": "type_change", "degree": 2, "link_types": "pseudo+sidewalk"}, "geometry": {"type": "Point", "coordinates": [396037.89, 138938.78]}}, {"type": "Feature", "properties": {"node_id": 247, "node_type": "type_change", "degree": 2, "link_types": "crosswalk+pseudo"}, "geometry": {"type": "Point", "coordinates": [396035.01, 138937.18]}}, {"type": "Feature", "properties": {"node_id": 248, "node_type": "type_change", "degree": 2, "link_types": "crosswalk+pseudo"}, "geometry": {"type": "Point", "coordinates": [396039.17, 138918.3]}}, {"type": "Feature", "properties": {"node_id": 249, "node_type": "endpoint", "degree": 1, "link_types": "pseudo"}, "geometry": {"type": "Point", "coordinates": [396040.21, 138917.18]}}, {"type": "Feature", "properties": {"node_id": 250, "node_type": "junction", "degree": 3, "link_types": "sidewalk"}, "geometry": {"type": "Point", "coordinates": [396164.93, 138892.06]}}, {"type": "Feature", "properties": {"node_id": 251, "node_type": "junction", "degree": 3, "link_types": "sidewalk"}, "geometry": {"type": "Point", "coordinates": [395988.45, 139037.66]}}, {"type": "Feature", "properties": {"node_id": 252, "node_type": "type_change", "degree": 2, "link_types": "pseudo+sidewalk"}, "geometry": {"type": "Point", "coordinates": [395988.53, 139037.74]}}, {"type": "Feature", "properties": {"node_id": 253, "node_type": "type_change", "degree": 2, "link_types": "crosswalk+pseudo"}, "geometry": {"type": "Point", "coordinates": [395989.49, 139038.7]}}, {"type": "Feature", "properties": {"node_id": 254, "node_type": "type_change", "degree": 2, "link_types": "crosswalk+pseudo"}, "geometry": {"type": "Point", "coordinates": [395997.17, 139041.34]}}, {"type": "Feature", "properties": {"node_id": 255, "node_type": "type_change", "degree": 3, "link_types": "pseudo+sidewalk"}, "geometry": {"type": "Point", "coordinates": [395998.05, 139043.1]}}, {"type": "Feature", "properties": {"node_id": 256, "node_type": "endpoint", "degree": 1, "link_types": "sidewalk"}, "geometry": {"type": "Point", "coordinates": [395989.49, 139036.78]}}, {"type": "Feature", "properties": {"node_id": 257, "node_type": "endpoint", "degree": 1, "link_types": "sidewalk"}, "geometry": {"type": "Point", "coordinates": [396160.45, 138893.42]}}, {"type": "Feature", "properties": {"node_id": 258, "node_type": "junction", "degree": 3, "link_types": "sidewalk"}, "geometry": {"type": "Point", "coordinates": [395948.13, 138878.14]}}, {"type": "Feature", "properties": {"node_id": 259, "node_type": "junction", "degree": 3, "link_types": "sidewalk"}, "geometry": {"type": "Point", "coordinates": [395943.89, 138882.54]}}, {"type": "Feature", "properties": {"node_id": 260, "node_type": "junction", "degree": 3, "link_types": "sidewalk"}, "geometry": {"type": "Point", "coordinates": [395948.53, 138885.02]}}, {"type": "Feature", "properties": {"node_id": 261, "node_type": "endpoint", "degree": 1, "link_types": "sidewalk"}, "geometry": {"type": "Point", "coordinates": [395950.61, 138871.74]}}, {"type": "Feature", "properties": {"node_id": 262, "node_type": "junction", "degree": 3, "link_types": "sidewalk"}, "geometry": {"type": "Point", "coordinates": [395943.89, 138882.62]}}, {"type": "Feature", "properties": {"node_id": 263, "node_type": "type_change", "degree": 2, "link_types": "midblock+sidewalk"}, "geometry": {"type": "Point", "coordinates": [396137.156, 139041.175]}}, {"type": "Feature", "properties": {"node_id": 264, "node_type": "type_change", "degree": 2, "link_types": "midblock+sidewalk"}, "geometry": {"type": "Point", "coordinates": [396132.802, 139033.102]}}, {"type": "Feature", "properties": {"node_id": 265, "node_type": "endpoint", "degree": 1, "link_types": "sidewalk"}, "geometry": {"type": "Point", "coordinates": [396016.13, 138907.98]}}, {"type": "Feature", "properties": {"node_id": 266, "node_type": "junction", "degree": 3, "link_types": "sidewalk"}, "geometry": {"type": "Point", "coordinates": [396007.97, 138907.98]}}, {"type": "Feature", "properties": {"node_id": 267, "node_type": "junction", "degree": 3, "link_types": "pseudo"}, "geometry": {"type": "Point", "coordinates": [396172.21, 138875.34]}}, {"type": "Feature", "properties": {"node_id": 268, "node_type": "type_change", "degree": 2, "link_types": "pseudo+sidewalk"}, "geometry": {"type": "Point", "coordinates": [396172.29, 138875.42]}}, {"type": "Feature", "properties": {"node_id": 269, "node_type": "type_change", "degree": 3, "link_types": "pseudo+sidewalk"}, "geometry": {"type": "Point", "coordinates": [396172.77, 138878.22]}}, {"type": "Feature", "properties": {"node_id": 270, "node_type": "type_change", "degree": 2, "link_types": "crosswalk+pseudo"}, "geometry": {"type": "Point", "coordinates": [396170.13, 138875.34]}}, {"type": "Feature", "properties": {"node_id": 271, "node_type": "type_change", "degree": 2, "link_types": "crosswalk+pseudo"}, "geometry": {"type": "Point", "coordinates": [396161.01, 138873.5]}}, {"type": "Feature", "properties": {"node_id": 272, "node_type": "type_change", "degree": 2, "link_types": "pseudo+sidewalk"}, "geometry": {"type": "Point", "coordinates": [396172.29, 138875.26]}}, {"type": "Feature", "properties": {"node_id": 273, "node_type": "endpoint", "degree": 1, "link_types": "sidewalk"}, "geometry": {"type": "Point", "coordinates": [396176.93, 138866.62]}}, {"type": "Feature", "properties": {"node_id": 274, "node_type": "junction", "degree": 3, "link_types": "sidewalk"}, "geometry": {"type": "Point", "coordinates": [396119.89, 139090.62]}}, {"type": "Feature", "properties": {"node_id": 275, "node_type": "junction", "degree": 3, "link_types": "sidewalk"}, "geometry": {"type": "Point", "coordinates": [396119.97, 139090.7]}}, {"type": "Feature", "properties": {"node_id": 276, "node_type": "type_change", "degree": 2, "link_types": "pseudo+sidewalk"}, "geometry": {"type": "Point", "coordinates": [396165.49, 139095.5]}}, {"type": "Feature", "properties": {"node_id": 277, "node_type": "type_change", "degree": 2, "link_types": "crosswalk+pseudo"}, "geometry": {"type": "Point", "coordinates": [396163.97, 139093.98]}}, {"type": "Feature", "properties": {"node_id": 278, "node_type": "type_change", "degree": 2, "link_types": "crosswalk+pseudo"}, "geometry": {"type": "Point", "coordinates": [396160.37, 139083.98]}}, {"type": "Feature", "properties": {"node_id": 279, "node_type": "endpoint", "degree": 1, "link_types": "sidewalk"}, "geometry": {"type": "Point", "coordinates": [396095.01, 139111.82]}}, {"type": "Feature", "properties": {"node_id": 280, "node_type": "endpoint", "degree": 1, "link_types": "sidewalk"}, "geometry": {"type": "Point", "coordinates": [395991.09, 139043.58]}}, {"type": "Feature", "properties": {"node_id": 281, "node_type": "type_change", "degree": 2, "link_types": "crosswalk+pseudo"}, "geometry": {"type": "Point", "coordinates": [396090.29, 139080.62]}}, {"type": "Feature", "properties": {"node_id": 282, "node_type": "type_change", "degree": 2, "link_types": "crosswalk+pseudo"}, "geometry": {"type": "Point", "coordinates": [396099.97, 139084.62]}}, {"type": "Feature", "properties": {"node_id": 283, "node_type": "type_change", "degree": 2, "link_types": "pseudo+sidewalk"}, "geometry": {"type": "Point", "coordinates": [396092.53, 138949.18]}}, {"type": "Feature", "properties": {"node_id": 284, "node_type": "type_change", "degree": 2, "link_types": "crosswalk+pseudo"}, "geometry": {"type": "Point", "coordinates": [396091.97, 138950.3]}}, {"type": "Feature", "properties": {"node_id": 285, "node_type": "type_change", "degree": 2, "link_types": "crosswalk+pseudo"}, "geometry": {"type": "Point", "coordinates": [396102.61, 138970.22]}}, {"type": "Feature", "properties": {"node_id": 286, "node_type": "type_change", "degree": 2, "link_types": "pseudo+sidewalk"}, "geometry": {"type": "Point", "coordinates": [396103.89, 138973.1]}}, {"type": "Feature", "properties": {"node_id": 287, "node_type": "junction", "degree": 3, "link_types": "sidewalk"}, "geometry": {"type": "Point", "coordinates": [396108.93, 138978.94]}}, {"type": "Feature", "properties": {"node_id": 288, "node_type": "type_change", "degree": 2, "link_types": "midblock+sidewalk"}, "geometry": {"type": "Point", "coordinates": [396013.605, 138911.89]}}, {"type": "Feature", "properties": {"node_id": 289, "node_type": "type_change", "degree": 2, "link_types": "midblock+sidewalk"}, "geometry": {"type": "Point", "coordinates": [396011.416, 138911.484]}}, {"type": "Feature", "properties": {"node_id": 290, "node_type": "endpoint", "degree": 1, "link_types": "sidewalk"}, "geometry": {"type": "Point", "coordinates": [396178.69, 138890.94]}}, {"type": "Feature", "properties": {"node_id": 291, "node_type": "junction", "degree": 3, "link_types": "sidewalk"}, "geometry": {"type": "Point", "coordinates": [396169.33, 138890.94]}}, {"type": "Feature", "properties": {"node_id": 292, "node_type": "junction", "degree": 3, "link_types": "pseudo"}, "geometry": {"type": "Point", "coordinates": [396163.01, 138889.5]}}, {"type": "Feature", "properties": {"node_id": 293, "node_type": "type_change", "degree": 2, "link_types": "crosswalk+pseudo"}, "geometry": {"type": "Point", "coordinates": [396162.13, 138889.66]}}, {"type": "Feature", "properties": {"node_id": 294, "node_type": "type_change", "degree": 2, "link_types": "crosswalk+pseudo"}, "geometry": {"type": "Point", "coordinates": [396154.53, 138891.1]}}, {"type": "Feature", "properties": {"node_id": 295, "node_type": "type_change", "degree": 3, "link_types": "pseudo+sidewalk"}, "geometry": {"type": "Point", "coordinates": [396163.09, 138889.5]}}, {"type": "Feature", "properties": {"node_id": 296, "node_type": "type_change", "degree": 3, "link_types": "pseudo+sidewalk"}, "geometry": {"type": "Point", "coordinates": [396163.09, 138889.42]}}, {"type": "Feature", "properties": {"node_id": 297, "node_type": "endpoint", "degree": 1, "link_types": "sidewalk"}, "geometry": {"type": "Point", "coordinates": [396098.37, 138971.26]}}, {"type": "Feature", "properties": {"node_id": 298, "node_type": "type_change", "degree": 2, "link_types": "pseudo+sidewalk"}, "geometry": {"type": "Point", "coordinates": [396098.45, 138971.26]}}, {"type": "Feature", "properties": {"node_id": 299, "node_type": "type_change", "degree": 3, "link_types": "crosswalk+pseudo"}, "geometry": {"type": "Point", "coordinates": [396099.25, 138971.58]}}, {"type": "Feature", "properties": {"node_id": 300, "node_type": "endpoint", "degree": 1, "link_types": "sidewalk"}, "geometry": {"type": "Point", "coordinates": [396156.37, 138866.94]}}, {"type": "Feature", "properties": {"node_id": 301, "node_type": "endpoint", "degree": 1, "link_types": "sidewalk"}, "geometry": {"type": "Point", "coordinates": [396162.93, 138889.02]}}, {"type": "Feature", "properties": {"node_id": 302, "node_type": "type_change", "degree": 2, "link_types": "pseudo+sidewalk"}, "geometry": {"type": "Point", "coordinates": [396138.69, 138977.82]}}, {"type": "Feature", "properties": {"node_id": 303, "node_type": "type_change", "degree": 2, "link_types": "crosswalk+pseudo"}, "geometry": {"type": "Point", "coordinates": [396136.05, 138977.74]}}, {"type": "Feature", "properties": {"node_id": 304, "node_type": "type_change", "degree": 2, "link_types": "crosswalk+pseudo"}, "geometry": {"type": "Point", "coordinates": [396127.65, 138970.62]}}, {"type": "Feature", "properties": {"node_id": 305, "node_type": "endpoint", "degree": 1, "link_types": "pseudo"}, "geometry": {"type": "Point", "coordinates": [396129.41, 138969.02]}}, {"type": "Feature", "properties": {"node_id": 306, "node_type": "type_change", "degree": 2, "link_types": "crosswalk+pseudo"}, "geometry": {"type": "Point", "coordinates": [396124.21, 139012.3]}}, {"type": "Feature", "properties": {"node_id": 307, "node_type": "type_change", "degree": 2, "link_types": "crosswalk+pseudo"}, "geometry": {"type": "Point", "coordinates": [396117.25, 139000.3]}}, {"type": "Feature", "properties": {"node_id": 308, "node_type": "type_change", "degree": 2, "link_types": "pseudo+sidewalk"}, "geometry": {"type": "Point", "coordinates": [396116.37, 138999.42]}}, {"type": "Feature", "properties": {"node_id": 309, "node_type": "type_change", "degree": 2, "link_types": "pseudo+sidewalk"}, "geometry": {"type": "Point", "coordinates": [396169.25, 138890.86]}}, {"type": "Feature", "properties": {"node_id": 310, "node_type": "type_change", "degree": 2, "link_types": "crosswalk+pseudo"}, "geometry": {"type": "Point", "coordinates": [396167.89, 138889.42]}}, {"type": "Feature", "properties": {"node_id": 311, "node_type": "type_change", "degree": 2, "link_types": "crosswalk+pseudo"}, "geometry": {"type": "Point", "coordinates": [396171.49, 138879.42]}}, {"type": "Feature", "properties": {"node_id": 312, "node_type": "endpoint", "degree": 1, "link_types": "sidewalk"}, "geometry": {"type": "Point", "coordinates": [396057.17, 138885.18]}}, {"type": "Feature", "properties": {"node_id": 313, "node_type": "endpoint", "degree": 1, "link_types": "sidewalk"}, "geometry": {"type": "Point", "coordinates": [396079.49, 139109.98]}}, {"type": "Feature", "properties": {"node_id": 314, "node_type": "type_change", "degree": 2, "link_types": "crosswalk+pseudo"}, "geometry": {"type": "Point", "coordinates": [396108.69, 139023.26]}}, {"type": "Feature", "properties": {"node_id": 315, "node_type": "type_change", "degree": 2, "link_types": "crosswalk+pseudo"}, "geometry": {"type": "Point", "coordinates": [396114.69, 138998.46]}}, {"type": "Feature", "properties": {"node_id": 316, "node_type": "endpoint", "degree": 1, "link_types": "sidewalk"}, "geometry": {"type": "Point", "coordinates": [396120.37, 138970.7]}}, {"type": "Feature", "properties": {"node_id": 317, "node_type": "type_change", "degree": 2, "link_types": "pseudo+sidewalk"}, "geometry": {"type": "Point", "coordinates": [396121.57, 138969.58]}}, {"type": "Feature", "properties": {"node_id": 318, "node_type": "type_change", "degree": 2, "link_types": "crosswalk+pseudo"}, "geometry": {"type": "Point", "coordinates": [396123.81, 138971.82]}}, {"type": "Feature", "properties": {"node_id": 319, "node_type": "type_change", "degree": 2, "link_types": "crosswalk+pseudo"}, "geometry": {"type": "Point", "coordinates": [396120.85, 138982.54]}}, {"type": "Feature", "properties": {"node_id": 320, "node_type": "type_change", "degree": 2, "link_types": "crosswalk+pseudo"}, "geometry": {"type": "Point", "coordinates": [396092.37, 139067.34]}}, {"type": "Feature", "properties": {"node_id": 321, "node_type": "type_change", "degree": 2, "link_types": "crosswalk+pseudo"}, "geometry": {"type": "Point", "coordinates": [396088.37, 139076.78]}}, {"type": "Feature", "properties": {"node_id": 322, "node_type": "endpoint", "degree": 1, "link_types": "sidewalk"}, "geometry": {"type": "Point", "coordinates": [395990.21, 138929.02]}}, {"type": "Feature", "properties": {"node_id": 323, "node_type": "junction", "degree": 3, "link_types": "sidewalk"}, "geometry": {"type": "Point", "coordinates": [396082.77, 138972.38]}}, {"type": "Feature", "properties": {"node_id": 324, "node_type": "type_change", "degree": 3, "link_types": "crosswalk+pseudo"}, "geometry": {"type": "Point", "coordinates": [396099.97, 138971.82]}}, {"type": "Feature", "properties": {"node_id": 325, "node_type": "type_change", "degree": 2, "link_types": "crosswalk+pseudo"}, "geometry": {"type": "Point", "coordinates": [396099.89, 138971.74]}}, {"type": "Feature", "properties": {"node_id": 326, "node_type": "endpoint", "degree": 1, "link_types": "sidewalk"}, "geometry": {"type": "Point", "coordinates": [396086.37, 138971.18]}}, {"type": "Feature", "properties": {"node_id": 327, "node_type": "junction", "degree": 3, "link_types": "sidewalk"}, "geometry": {"type": "Point", "coordinates": [395998.05, 139043.18]}}, {"type": "Feature", "properties": {"node_id": 328, "node_type": "junction", "degree": 3, "link_types": "sidewalk"}, "geometry": {"type": "Point", "coordinates": [395998.13, 139043.18]}}, {"type": "Feature", "properties": {"node_id": 329, "node_type": "endpoint", "degree": 1, "link_types": "sidewalk"}, "geometry": {"type": "Point", "coordinates": [396068.29, 138957.74]}}, {"type": "Feature", "properties": {"node_id": 330, "node_type": "endpoint", "degree": 1, "link_types": "sidewalk"}, "geometry": {"type": "Point", "coordinates": [396045.01, 138949.98]}}, {"type": "Feature", "properties": {"node_id": 331, "node_type": "type_change", "degree": 2, "link_types": "crosswalk+pseudo"}, "geometry": {"type": "Point", "coordinates": [396081.65, 138967.42]}}, {"type": "Feature", "properties": {"node_id": 332, "node_type": "endpoint", "degree": 1, "link_types": "sidewalk"}, "geometry": {"type": "Point", "coordinates": [396135.25, 139017.26]}}, {"type": "Feature", "properties": {"node_id": 333, "node_type": "endpoint", "degree": 1, "link_types": "sidewalk"}, "geometry": {"type": "Point", "coordinates": [395991.65, 139043.5]}}, {"type": "Feature", "properties": {"node_id": 334, "node_type": "type_change", "degree": 2, "link_types": "pseudo+sidewalk"}, "geometry": {"type": "Point", "coordinates": [395991.65, 139043.42]}}, {"type": "Feature", "properties": {"node_id": 335, "node_type": "type_change", "degree": 2, "link_types": "crosswalk+pseudo"}, "geometry": {"type": "Point", "coordinates": [395991.49, 139042.86]}}, {"type": "Feature", "properties": {"node_id": 336, "node_type": "endpoint", "degree": 1, "link_types": "sidewalk"}, "geometry": {"type": "Point", "coordinates": [396113.49, 139045.82]}}, {"type": "Feature", "properties": {"node_id": 337, "node_type": "type_change", "degree": 2, "link_types": "pseudo+sidewalk"}, "geometry": {"type": "Point", "coordinates": [395988.77, 139025.1]}}, {"type": "Feature", "properties": {"node_id": 338, "node_type": "type_change", "degree": 2, "link_types": "crosswalk+pseudo"}, "geometry": {"type": "Point", "coordinates": [396100.45, 138971.98]}}, {"type": "Feature", "properties": {"node_id": 339, "node_type": "type_change", "degree": 2, "link_types": "crosswalk+pseudo"}, "geometry": {"type": "Point", "coordinates": [396100.53, 138971.98]}}, {"type": "Feature", "properties": {"node_id": 340, "node_type": "type_change", "degree": 2, "link_types": "crosswalk+pseudo"}, "geometry": {"type": "Point", "coordinates": [396100.69, 138972.06]}}, {"type": "Feature", "properties": {"node_id": 341, "node_type": "type_change", "degree": 2, "link_types": "crosswalk+pseudo"}, "geometry": {"type": "Point", "coordinates": [396100.85, 138972.06]}}, {"type": "Feature", "properties": {"node_id": 342, "node_type": "type_change", "degree": 2, "link_types": "crosswalk+pseudo"}, "geometry": {"type": "Point", "coordinates": [396100.93, 138972.14]}}, {"type": "Feature", "properties": {"node_id": 343, "node_type": "endpoint", "degree": 1, "link_types": "crosswalk"}, "geometry": {"type": "Point", "coordinates": [396101.01, 138972.14]}}, {"type": "Feature", "properties": {"node_id": 344, "node_type": "type_change", "degree": 2, "link_types": "midblock+sidewalk"}, "geometry": {"type": "Point", "coordinates": [395974.376, 138909.701]}}, {"type": "Feature", "properties": {"node_id": 345, "node_type": "type_change", "degree": 2, "link_types": "midblock+sidewalk"}, "geometry": {"type": "Point", "coordinates": [395968.218, 138907.257]}}, {"type": "Feature", "properties": {"node_id": 346, "node_type": "type_change", "degree": 2, "link_types": "midblock+sidewalk"}, "geometry": {"type": "Point", "coordinates": [395961.54, 138904.606]}}, {"type": "Feature", "properties": {"node_id": 347, "node_type": "type_change", "degree": 2, "link_types": "midblock+sidewalk"}, "geometry": {"type": "Point", "coordinates": [395955.828, 138902.339]}}, {"type": "Feature", "properties": {"node_id": 348, "node_type": "endpoint", "degree": 1, "link_types": "sidewalk"}, "geometry": {"type": "Point", "coordinates": [395934.93, 138896.3]}}, {"type": "Feature", "properties": {"node_id": 349, "node_type": "endpoint", "degree": 1, "link_types": "sidewalk"}, "geometry": {"type": "Point", "coordinates": [396041.01, 139005.02]}}, {"type": "Feature", "properties": {"node_id": 350, "node_type": "type_change", "degree": 2, "link_types": "pseudo+sidewalk"}, "geometry": {"type": "Point", "coordinates": [396041.09, 139005.1]}}, {"type": "Feature", "properties": {"node_id": 351, "node_type": "endpoint", "degree": 1, "link_types": "sidewalk"}, "geometry": {"type": "Point", "coordinates": [395956.45, 139110.78]}}, {"type": "Feature", "properties": {"node_id": 352, "node_type": "endpoint", "degree": 1, "link_types": "sidewalk"}, "geometry": {"type": "Point", "coordinates": [396179.41, 138877.74]}}, {"type": "Feature", "properties": {"node_id": 353, "node_type": "type_change", "degree": 2, "link_types": "crosswalk+pseudo"}, "geometry": {"type": "Point", "coordinates": [396068.45, 138945.58]}}, {"type": "Feature", "properties": {"node_id": 354, "node_type": "type_change", "degree": 2, "link_types": "crosswalk+pseudo"}, "geometry": {"type": "Point", "coordinates": [396060.37, 138930.38]}}, {"type": "Feature", "properties": {"node_id": 355, "node_type": "endpoint", "degree": 1, "link_types": "sidewalk"}, "geometry": {"type": "Point", "coordinates": [396178.13, 139082.14]}}, {"type": "Feature", "properties": {"node_id": 356, "node_type": "endpoint", "degree": 1, "link_types": "sidewalk"}, "geometry": {"type": "Point", "coordinates": [396127.65, 139103.58]}}, {"type": "Feature", "properties": {"node_id": 357, "node_type": "type_change", "degree": 2, "link_types": "crosswalk+pseudo"}, "geometry": {"type": "Point", "coordinates": [395999.09, 139041.02]}}, {"type": "Feature", "properties": {"node_id": 358, "node_type": "type_change", "degree": 2, "link_types": "crosswalk+pseudo"}, "geometry": {"type": "Point", "coordinates": [396002.53, 139032.14]}}, {"type": "Feature", "properties": {"node_id": 359, "node_type": "type_change", "degree": 2, "link_types": "midblock+sidewalk"}, "geometry": {"type": "Point", "coordinates": [395976.995, 138897.798]}}, {"type": "Feature", "properties": {"node_id": 360, "node_type": "type_change", "degree": 2, "link_types": "midblock+sidewalk"}, "geometry": {"type": "Point", "coordinates": [395979.828, 138898.87]}}, {"type": "Feature", "properties": {"node_id": 361, "node_type": "type_change", "degree": 2, "link_types": "midblock+sidewalk"}, "geometry": {"type": "Point", "coordinates": [395985.642, 138901.07]}}, {"type": "Feature", "properties": {"node_id": 362, "node_type": "type_change", "degree": 2, "link_types": "midblock+sidewalk"}, "geometry": {"type": "Point", "coordinates": [395990.232, 138902.61]}}, {"type": "Feature", "properties": {"node_id": 363, "node_type": "endpoint", "degree": 1, "link_types": "sidewalk"}, "geometry": {"type": "Point", "coordinates": [396144.61, 138901.98]}}, {"type": "Feature", "properties": {"node_id": 364, "node_type": "type_change", "degree": 2, "link_types": "midblock+sidewalk"}, "geometry": {"type": "Point", "coordinates": [396052.348, 138870.903]}}, {"type": "Feature", "properties": {"node_id": 365, "node_type": "type_change", "degree": 2, "link_types": "midblock+sidewalk"}, "geometry": {"type": "Point", "coordinates": [396053.812, 138867.418]}}, {"type": "Feature", "properties": {"node_id": 366, "node_type": "endpoint", "degree": 1, "link_types": "sidewalk"}, "geometry": {"type": "Point", "coordinates": [396055.41, 138867.02]}}, {"type": "Feature", "properties": {"node_id": 367, "node_type": "type_change", "degree": 2, "link_types": "midblock+sidewalk"}, "geometry": {"type": "Point", "coordinates": [396129.258, 139001.714]}}, {"type": "Feature", "properties": {"node_id": 368, "node_type": "type_change", "degree": 2, "link_types": "midblock+sidewalk"}, "geometry": {"type": "Point", "coordinates": [396128.183, 139004.8]}}, {"type": "Feature", "properties": {"node_id": 369, "node_type": "type_change", "degree": 2, "link_types": "crosswalk+pseudo"}, "geometry": {"type": "Point", "coordinates": [396035.89, 139003.9]}}, {"type": "Feature", "properties": {"node_id": 370, "node_type": "endpoint", "degree": 1, "link_types": "pseudo"}, "geometry": {"type": "Point", "coordinates": [396037.81, 139001.18]}}], "crs": {"type": "name", "properties": {"name": "EPSG:26985"}}}