{"type": "FeatureCollection", "crs": {"type": "name", "properties": {"name": "urn:ogc:def:crs:EPSG::32619"}}, "features": [{"type": "Feature", "properties": {"id": 0, "source": "intersection", "node_kind": "midpoint", "node_snap_m": 0.0, "line": 243, "gap_m": 14.4, "length_m": 7.2}, "geometry": {"type": "LineString", "coordinates": [[312754.65625, 4696633.0], [312757.203125, 4696626.25]]}}, {"type": "Feature", "properties": {"id": 1, "source": "intersection", "node_kind": "midpoint", "node_snap_m": 0.0, "line": 245, "gap_m": 14.4, "length_m": 7.2}, "geometry": {"type": "LineString", "coordinates": [[312759.75, 4696619.5], [312757.203125, 4696626.25]]}}, {"type": "Feature", "properties": {"id": 2, "source": "intersection", "node_kind": "midpoint", "node_snap_m": 0.0, "line": 171, "gap_m": 15.8, "length_m": 7.9}, "geometry": {"type": "LineString", "coordinates": [[317025.59375, 4701761.5], [317018.390625, 4701764.75]]}}, {"type": "Feature", "properties": {"id": 3, "source": "intersection", "node_kind": "midpoint", "node_snap_m": 0.0, "line": 175, "gap_m": 15.8, "length_m": 7.9}, "geometry": {"type": "LineString", "coordinates": [[317011.1875, 4701768.0], [317018.390625, 4701764.75]]}}, {"type": "Feature", "properties": {"id": 4, "source": "intersection", "node_kind": "midpoint", "node_snap_m": 0.0, "line": 37, "gap_m": 20.2, "length_m": 10.1}, "geometry": {"type": "LineString", "coordinates": [[314796.4375, 4705243.0], [314789.390625, 4705250.25]]}}, {"type": "Feature", "properties": {"id": 5, "source": "intersection", "node_kind": "midpoint", "node_snap_m": 0.0, "line": 61, "gap_m": 20.2, "length_m": 10.1}, "geometry": {"type": "LineString", "coordinates": [[314782.34375, 4705257.5], [314789.390625, 4705250.25]]}}, {"type": "Feature", "properties": {"id": 6, "source": "intersection", "node_kind": "midpoint", "node_snap_m": 0.0, "line": 98, "gap_m": 23.1, "length_m": 11.6}, "geometry": {"type": "LineString", "coordinates": [[316161.3125, 4702888.5], [316168.875, 4702879.75]]}}, {"type": "Feature", "properties": {"id": 7, "source": "intersection", "node_kind": "midpoint", "node_snap_m": 0.0, "line": 101, "gap_m": 23.1, "length_m": 11.6}, "geometry": {"type": "LineString", "coordinates": [[316176.4375, 4702871.0], [316168.875, 4702879.75]]}}, {"type": "Feature", "properties": {"id": 8, "source": "intersection", "node_kind": "midpoint", "node_snap_m": 0.0, "line": 201, "gap_m": 24.2, "length_m": 12.1}, "geometry": {"type": "LineString", "coordinates": [[317915.09375, 4703240.0], [317927.09375, 4703238.5]]}}, {"type": "Feature", "properties": {"id": 9, "source": "intersection", "node_kind": "midpoint", "node_snap_m": 0.0, "line": 203, "gap_m": 24.2, "length_m": 12.1}, "geometry": {"type": "LineString", "coordinates": [[317939.09375, 4703237.0], [317927.09375, 4703238.5]]}}, {"type": "Feature", "properties": {"id": 10, "source": "intersection", "node_kind": "midpoint", "node_snap_m": 0.0, "line": 100, "gap_m": 24.5, "length_m": 12.2}, "geometry": {"type": "LineString", "coordinates": [[316163.84375, 4702869.5], [316172.390625, 4702878.25]]}}, {"type": "Feature", "properties": {"id": 11, "source": "intersection", "node_kind": "midpoint", "node_snap_m": 0.0, "line": 132, "gap_m": 24.5, "length_m": 12.2}, "geometry": {"type": "LineString", "coordinates": [[316180.9375, 4702887.0], [316172.390625, 4702878.25]]}}, {"type": "Feature", "properties": {"id": 12, "source": "intersection", "node_kind": "midpoint", "node_snap_m": 0.0, "line": 291, "gap_m": 25.5, "length_m": 12.8}, "geometry": {"type": "LineString", "coordinates": [[320571.0, 4698487.5], [320577.453125, 4698476.5]]}}, {"type": "Feature", "properties": {"id": 13, "source": "intersection", "node_kind": "midpoint", "node_snap_m": 0.0, "line": 294, "gap_m": 25.5, "length_m": 12.8}, "geometry": {"type": "LineString", "coordinates": [[320583.90625, 4698465.5], [320577.453125, 4698476.5]]}}, {"type": "Feature", "properties": {"id": 14, "source": "intersection", "node_kind": "midpoint", "node_snap_m": 0.0, "line": 296, "gap_m": 26.1, "length_m": 13.0}, "geometry": {"type": "LineString", "coordinates": [[320585.6875, 4698466.5], [320579.09375, 4698477.75]]}}, {"type": "Feature", "properties": {"id": 15, "source": "intersection", "node_kind": "midpoint", "node_snap_m": 0.0, "line": 297, "gap_m": 26.1, "length_m": 13.0}, "geometry": {"type": "LineString", "coordinates": [[320572.5, 4698489.0], [320579.09375, 4698477.75]]}}, {"type": "Feature", "properties": {"id": 16, "source": "intersection", "node_kind": "midpoint", "node_snap_m": 0.0, "line": 29, "gap_m": 27.6, "length_m": 13.8}, "geometry": {"type": "LineString", "coordinates": [[314448.90625, 4701934.0], [314455.28125, 4701946.25]]}}, {"type": "Feature", "properties": {"id": 17, "source": "intersection", "node_kind": "midpoint", "node_snap_m": 0.0, "line": 40, "gap_m": 27.6, "length_m": 13.8}, "geometry": {"type": "LineString", "coordinates": [[314461.65625, 4701958.5], [314455.28125, 4701946.25]]}}, {"type": "Feature", "properties": {"id": 18, "source": "intersection", "node_kind": "midpoint", "node_snap_m": 0.0, "line": 172, "gap_m": 28.5, "length_m": 14.2}, "geometry": {"type": "LineString", "coordinates": [[316953.90625, 4701790.0], [316967.03125, 4701784.5]]}}, {"type": "Feature", "properties": {"id": 19, "source": "intersection", "node_kind": "midpoint", "node_snap_m": 0.0, "line": 175, "gap_m": 28.5, "length_m": 14.2}, "geometry": {"type": "LineString", "coordinates": [[316980.15625, 4701779.0], [316967.03125, 4701784.5]]}}, {"type": "Feature", "properties": {"id": 20, "source": "intersection", "node_kind": "midpoint", "node_snap_m": 0.0, "line": 21, "gap_m": 29.9, "length_m": 15.0}, "geometry": {"type": "LineString", "coordinates": [[314456.40625, 4701963.0], [314451.15625, 4701949.0]]}}, {"type": "Feature", "properties": {"id": 21, "source": "intersection", "node_kind": "midpoint", "node_snap_m": 0.0, "line": 42, "gap_m": 29.9, "length_m": 15.0}, "geometry": {"type": "LineString", "coordinates": [[314445.90625, 4701935.0], [314451.15625, 4701949.0]]}}, {"type": "Feature", "properties": {"id": 22, "source": "intersection", "node_kind": "midpoint", "node_snap_m": 0.0, "line": 99, "gap_m": 36.1, "length_m": 18.1}, "geometry": {"type": "LineString", "coordinates": [[316168.34375, 4702895.5], [316178.390625, 4702880.5]]}}, {"type": "Feature", "properties": {"id": 23, "source": "intersection", "node_kind": "midpoint", "node_snap_m": 0.0, "line": 135, "gap_m": 36.1, "length_m": 18.1}, "geometry": {"type": "LineString", "coordinates": [[316188.4375, 4702865.5], [316178.390625, 4702880.5]]}}, {"type": "Feature", "properties": {"id": 24, "source": "intersection", "node_kind": "midpoint", "node_snap_m": 0.0, "line": 281, "gap_m": 36.9, "length_m": 18.5}, "geometry": {"type": "LineString", "coordinates": [[320401.5, 4698900.5], [320405.625, 4698882.5]]}}, {"type": "Feature", "properties": {"id": 25, "source": "intersection", "node_kind": "midpoint", "node_snap_m": 0.0, "line": 289, "gap_m": 36.9, "length_m": 18.5}, "geometry": {"type": "LineString", "coordinates": [[320409.75, 4698864.5], [320405.625, 4698882.5]]}}, {"type": "Feature", "properties": {"id": 26, "source": "intersection", "node_kind": "midpoint", "node_snap_m": 0.0, "line": 160, "gap_m": 41.3, "length_m": 20.7}, "geometry": {"type": "LineString", "coordinates": [[316377.15625, 4698646.5], [316397.484375, 4698642.75]]}}, {"type": "Feature", "properties": {"id": 27, "source": "intersection", "node_kind": "midpoint", "node_snap_m": 0.0, "line": 161, "gap_m": 41.3, "length_m": 20.7}, "geometry": {"type": "LineString", "coordinates": [[316417.8125, 4698639.0], [316397.484375, 4698642.75]]}}, {"type": "Feature", "properties": {"id": 28, "source": "intersection", "node_kind": "midpoint", "node_snap_m": 0.0, "line": 109, "gap_m": 48.1, "length_m": 24.0}, "geometry": {"type": "LineString", "coordinates": [[316036.0625, 4702088.5], [316037.1875, 4702064.5]]}}, {"type": "Feature", "properties": {"id": 29, "source": "intersection", "node_kind": "midpoint", "node_snap_m": 0.0, "line": 111, "gap_m": 48.1, "length_m": 24.0}, "geometry": {"type": "LineString", "coordinates": [[316038.3125, 4702040.5], [316037.1875, 4702064.5]]}}, {"type": "Feature", "properties": {"id": 30, "source": "intersection", "node_kind": "midpoint", "node_snap_m": 0.0, "line": 284, "gap_m": 52.8, "length_m": 26.4}, "geometry": {"type": "LineString", "coordinates": [[320415.0, 4698850.5], [320409.15625, 4698876.25]]}}, {"type": "Feature", "properties": {"id": 31, "source": "intersection", "node_kind": "midpoint", "node_snap_m": 0.0, "line": 286, "gap_m": 52.8, "length_m": 26.4}, "geometry": {"type": "LineString", "coordinates": [[320403.3125, 4698902.0], [320409.15625, 4698876.25]]}}]}