{"type": "FeatureCollection", "crs": {"type": "name", "properties": {"name": "urn:ogc:def:crs:EPSG::32619"}}, "features": [{"type": "Feature", "properties": {"id": 0, "gap_m": 20.2, "facing": 0.5, "along": 0.3, "lat_m": 0.1, "line_a": 44, "line_b": 71, "type_a": "Sharrow", "type_b": "Sharrow", "crossing": 1}, "geometry": {"type": "LineString", "coordinates": [[314796.4375, 4705243.0], [314782.34375, 4705257.5]]}}, {"type": "Feature", "properties": {"id": 1, "gap_m": 24.2, "facing": 2.9, "along": 1.1, "lat_m": 0.46, "line_a": 254, "line_b": 260, "type_a": "Sharrow", "type_b": "Sharrow", "crossing": 1}, "geometry": {"type": "LineString", "coordinates": [[317915.09375, 4703240.0], [317939.09375, 4703237.0]]}}, {"type": "Feature", "properties": {"id": 2, "gap_m": 24.5, "facing": 6.1, "along": 1.3, "lat_m": 0.54, "line_a": 119, "line_b": 165, "type_a": "Sharrow", "type_b": "Sharrow", "crossing": 1}, "geometry": {"type": "LineString", "coordinates": [[316163.84375, 4702869.5], [316180.9375, 4702887.0]]}}]}