{"type": "FeatureCollection", "crs": {"type": "name", "properties": {"name": "urn:ogc:def:crs:EPSG::32619"}}, "features": [{"type": "Feature", "properties": {"id": 0, "gap_m": 2.7, "facing": 0.2, "along": 0.6, "lat_m": 0.03, "line_a": 99, "line_b": 108, "type_a": "Sharrow", "type_b": "Sharrow", "crossing": 0}, "geometry": {"type": "LineString", "coordinates": [[315449.25, 4698883.5], [315451.5, 4698882.0]]}}, {"type": "Feature", "properties": {"id": 1, "gap_m": 3.2, "facing": 1.4, "along": 3.3, "lat_m": 0.18, "line_a": 263, "line_b": 264, "type_a": "Sharrow", "type_b": "Sharrow", "crossing": 0}, "geometry": {"type": "LineString", "coordinates": [[318370.8125, 4701804.5], [318373.9375, 4701805.0]]}}, {"type": "Feature", "properties": {"id": 2, "gap_m": 3.3, "facing": 1.5, "along": 2.0, "lat_m": 0.12, "line_a": 144, "line_b": 146, "type_a": "BikeOnly", "type_b": "BikeOnly", "crossing": 0}, "geometry": {"type": "LineString", "coordinates": [[316161.59375, 4699141.5], [316158.4375, 4699140.5]]}}, {"type": "Feature", "properties": {"id": 3, "gap_m": 3.6, "facing": 1.2, "along": 3.8, "lat_m": 0.23, "line_a": 177, "line_b": 179, "type_a": "BikeOnly", "type_b": "BikeOnly", "crossing": 0}, "geometry": {"type": "LineString", "coordinates": [[316269.90625, 4702393.5], [316267.34375, 4702391.0]]}}, {"type": "Feature", "properties": {"id": 4, "gap_m": 3.9, "facing": 0.5, "along": 2.8, "lat_m": 0.19, "line_a": 276, "line_b": 283, "type_a": "BikeOnly", "type_b": "BikeOnly", "crossing": 0}, "geometry": {"type": "LineString", "coordinates": [[318111.4375, 4700496.5], [318114.4375, 4700494.0]]}}, {"type": "Feature", "properties": {"id": 5, "gap_m": 4.3, "facing": 1.8, "along": 2.1, "lat_m": 0.16, "line_a": 340, "line_b": 341, "type_a": "Sharrow", "type_b": "Sharrow", "crossing": 0}, "geometry": {"type": "LineString", "coordinates": [[320144.6875, 4701485.0], [320140.65625, 4701486.5]]}}, {"type": "Feature", "properties": {"id": 6, "gap_m": 4.3, "facing": 0.4, "along": 4.0, "lat_m": 0.31, "line_a": 57, "line_b": 104, "type_a": "BikeOnly", "type_b": "BikeOnly", "crossing": 0}, "geometry": {"type": "LineString", "coordinates": [[315011.84375, 4699367.5], [315015.90625, 4699366.0]]}}, {"type": "Feature", "properties": {"id": 7, "gap_m": 4.4, "facing": 1.7, "along": 0.9, "lat_m": 0.07, "line_a": 272, "line_b": 273, "type_a": "BikeOnly", "type_b": "BikeOnly", "crossing": 0}, "geometry": {"type": "LineString", "coordinates": [[318341.09375, 4700170.5], [318342.90625, 4700166.5]]}}, {"type": "Feature", "properties": {"id": 8, "gap_m": 4.5, "facing": 6.7, "along": 2.6, "lat_m": 0.21, "line_a": 80, "line_b": 82, "type_a": "Sharrow", "type_b": "Sharrow", "crossing": 0}, "geometry": {"type": "LineString", "coordinates": [[315184.8125, 4701875.0], [315180.3125, 4701875.0]]}}, {"type": "Feature", "properties": {"id": 9, "gap_m": 4.7, "facing": 0.7, "along": 2.1, "lat_m": 0.17, "line_a": 106, "line_b": 107, "type_a": "Sharrow", "type_b": "Sharrow", "crossing": 0}, "geometry": {"type": "LineString", "coordinates": [[315262.0625, 4699006.0], [315266.09375, 4699003.5]]}}, {"type": "Feature", "properties": {"id": 10, "gap_m": 4.9, "facing": 0.4, "along": 4.5, "lat_m": 0.39, "line_a": 129, "line_b": 179, "type_a": "BikeOnly", "type_b": "BikeOnly", "crossing": 0}, "geometry": {"type": "LineString", "coordinates": [[316163.09375, 4702290.0], [316166.5625, 4702293.5]]}}, {"type": "Feature", "properties": {"id": 11, "gap_m": 5.0, "facing": 5.0, "along": 8.0, "lat_m": 0.69, "line_a": 144, "line_b": 200, "type_a": "BikeOnly", "type_b": "BikeOnly", "crossing": 0}, "geometry": {"type": "LineString", "coordinates": [[316226.09375, 4699159.5], [316231.0625, 4699160.0]]}}, {"type": "Feature", "properties": {"id": 12, "gap_m": 5.2, "facing": 7.2, "along": 2.9, "lat_m": 0.26, "line_a": 277, "line_b": 280, "type_a": "BikeOnly", "type_b": "BikeOnly", "crossing": 0}, "geometry": {"type": "LineString", "coordinates": [[318280.5, 4700327.0], [318283.0625, 4700322.5]]}}, {"type": "Feature", "properties": {"id": 13, "gap_m": 5.3, "facing": 0.0, "along": 0.8, "lat_m": 0.08, "line_a": 95, "line_b": 98, "type_a": "Sharrow", "type_b": "Sharrow", "crossing": 0}, "geometry": {"type": "LineString", "coordinates": [[315259.8125, 4699003.0], [315264.15625, 4699000.0]]}}, {"type": "Feature", "properties": {"id": 14, "gap_m": 5.3, "facing": 0.1, "along": 4.7, "lat_m": 0.43, "line_a": 373, "line_b": 375, "type_a": "BikeOnly", "type_b": "BikeOnly", "crossing": 0}, "geometry": {"type": "LineString", "coordinates": [[320961.4375, 4699114.0], [320956.34375, 4699115.5]]}}, {"type": "Feature", "properties": {"id": 15, "gap_m": 5.5, "facing": 1.7, "along": 1.2, "lat_m": 0.11, "line_a": 139, "line_b": 141, "type_a": "Sharrow", "type_b": "Sharrow", "crossing": 0}, "geometry": {"type": "LineString", "coordinates": [[315922.8125, 4705966.0], [315923.09375, 4705960.5]]}}, {"type": "Feature", "properties": {"id": 16, "gap_m": 5.9, "facing": 0.2, "along": 0.7, "lat_m": 0.07, "line_a": 215, "line_b": 218, "type_a": "BikeOnly", "type_b": "BikeOnly", "crossing": 0}, "geometry": {"type": "LineString", "coordinates": [[317066.40625, 4701750.5], [317060.6875, 4701752.0]]}}, {"type": "Feature", "properties": {"id": 17, "gap_m": 5.9, "facing": 0.3, "along": 0.3, "lat_m": 0.03, "line_a": 118, "line_b": 122, "type_a": "BikeOnly", "type_b": "BikeOnly", "crossing": 0}, "geometry": {"type": "LineString", "coordinates": [[316148.84375, 4702926.0], [316145.6875, 4702931.0]]}}, {"type": "Feature", "properties": {"id": 18, "gap_m": 6.5, "facing": 0.0, "along": 2.6, "lat_m": 0.29, "line_a": 129, "line_b": 183, "type_a": "BikeOnly", "type_b": "BikeOnly", "crossing": 0}, "geometry": {"type": "LineString", "coordinates": [[316099.1875, 4702235.0], [316094.09375, 4702231.0]]}}, {"type": "Feature", "properties": {"id": 19, "gap_m": 6.8, "facing": 0.2, "along": 0.9, "lat_m": 0.11, "line_a": 190, "line_b": 193, "type_a": "Sharrow", "type_b": "Sharrow", "crossing": 0}, "geometry": {"type": "LineString", "coordinates": [[316459.1875, 4699774.5], [316461.15625, 4699768.0]]}}, {"type": "Feature", "properties": {"id": 20, "gap_m": 6.9, "facing": 1.9, "along": 0.5, "lat_m": 0.06, "line_a": 163, "line_b": 165, "type_a": "Sharrow", "type_b": "Sharrow", "crossing": 0}, "geometry": {"type": "LineString", "coordinates": [[316228.65625, 4702925.0], [316223.40625, 4702920.5]]}}, {"type": "Feature", "properties": {"id": 21, "gap_m": 7.5, "facing": 0.9, "along": 4.7, "lat_m": 0.62, "line_a": 221, "line_b": 223, "type_a": "BikeOnly", "type_b": "BikeOnly", "crossing": 0}, "geometry": {"type": "LineString", "coordinates": [[317065.65625, 4701742.0], [317058.3125, 4701743.5]]}}, {"type": "Feature", "properties": {"id": 22, "gap_m": 7.7, "facing": 6.2, "along": 1.9, "lat_m": 0.26, "line_a": 33, "line_b": 48, "type_a": "Sharrow", "type_b": "Sharrow", "crossing": 0}, "geometry": {"type": "LineString", "coordinates": [[314378.25, 4702273.0], [314384.09375, 4702268.0]]}}, {"type": "Feature", "properties": {"id": 23, "gap_m": 7.7, "facing": 0.3, "along": 0.8, "lat_m": 0.11, "line_a": 258, "line_b": 261, "type_a": "Sharrow", "type_b": "Sharrow", "crossing": 0}, "geometry": {"type": "LineString", "coordinates": [[317975.6875, 4703237.5], [317983.34375, 4703236.5]]}}, {"type": "Feature", "properties": {"id": 24, "gap_m": 7.8, "facing": 4.8, "along": 4.0, "lat_m": 0.55, "line_a": 23, "line_b": 25, "type_a": "Sharrow", "type_b": "Sharrow", "crossing": 0}, "geometry": {"type": "LineString", "coordinates": [[313882.5, 4703171.0], [313884.75, 4703178.5]]}}, {"type": "Feature", "properties": {"id": 25, "gap_m": 8.3, "facing": 0.0, "along": 1.3, "lat_m": 0.19, "line_a": 130, "line_b": 178, "type_a": "BikeOnly", "type_b": "BikeOnly", "crossing": 0}, "geometry": {"type": "LineString", "coordinates": [[316098.90625, 4702223.5], [316105.0625, 4702229.0]]}}, {"type": "Feature", "properties": {"id": 26, "gap_m": 8.6, "facing": 6.1, "along": 5.7, "lat_m": 0.85, "line_a": 27, "line_b": 51, "type_a": "Sharrow", "type_b": "Sharrow", "crossing": 0}, "geometry": {"type": "LineString", "coordinates": [[314376.90625, 4702270.0], [314383.0625, 4702264.0]]}}, {"type": "Feature", "properties": {"id": 27, "gap_m": 8.7, "facing": 0.0, "along": 0.6, "lat_m": 0.09, "line_a": 151, "line_b": 152, "type_a": "Sharrow", "type_b": "Sharrow", "crossing": 0}, "geometry": {"type": "LineString", "coordinates": [[315993.0, 4698717.0], [315984.4375, 4698718.5]]}}, {"type": "Feature", "properties": {"id": 28, "gap_m": 8.8, "facing": 0.9, "along": 3.6, "lat_m": 0.56, "line_a": 201, "line_b": 204, "type_a": "Sharrow", "type_b": "Sharrow", "crossing": 0}, "geometry": {"type": "LineString", "coordinates": [[316308.75, 4698659.5], [316317.3125, 4698657.5]]}}, {"type": "Feature", "properties": {"id": 29, "gap_m": 8.9, "facing": 0.7, "along": 3.8, "lat_m": 0.59, "line_a": 256, "line_b": 260, "type_a": "Sharrow", "type_b": "Sharrow", "crossing": 0}, "geometry": {"type": "LineString", "coordinates": [[317984.25, 4703232.0], [317975.40625, 4703232.5]]}}, {"type": "Feature", "properties": {"id": 30, "gap_m": 9.0, "facing": 0.4, "along": 0.3, "lat_m": 0.05, "line_a": 97, "line_b": 149, "type_a": "Sharrow", "type_b": "Sharrow", "crossing": 0}, "geometry": {"type": "LineString", "coordinates": [[315984.90625, 4698722.5], [315993.75, 4698721.0]]}}, {"type": "Feature", "properties": {"id": 31, "gap_m": 9.0, "facing": 2.0, "along": 2.8, "lat_m": 0.44, "line_a": 295, "line_b": 298, "type_a": "Sharrow", "type_b": "Sharrow", "crossing": 0}, "geometry": {"type": "LineString", "coordinates": [[318012.0, 4697925.0], [318005.25, 4697931.0]]}}, {"type": "Feature", "properties": {"id": 32, "gap_m": 9.5, "facing": 0.4, "along": 0.1, "lat_m": 0.02, "line_a": 245, "line_b": 246, "type_a": "Sharrow", "type_b": "Sharrow", "crossing": 0}, "geometry": {"type": "LineString", "coordinates": [[317516.09375, 4698270.5], [317524.9375, 4698267.0]]}}, {"type": "Feature", "properties": {"id": 33, "gap_m": 9.7, "facing": 5.5, "along": 2.8, "lat_m": 0.47, "line_a": 331, "line_b": 339, "type_a": "Sharrow", "type_b": "Sharrow", "crossing": 0}, "geometry": {"type": "LineString", "coordinates": [[319797.75, 4701585.5], [319807.34375, 4701584.0]]}}, {"type": "Feature", "properties": {"id": 34, "gap_m": 10.1, "facing": 5.2, "along": 3.7, "lat_m": 0.65, "line_a": 31, "line_b": 35, "type_a": "Sharrow", "type_b": "Sharrow", "crossing": 0}, "geometry": {"type": "LineString", "coordinates": [[313924.1875, 4702725.5], [313923.15625, 4702715.5]]}}, {"type": "Feature", "properties": {"id": 35, "gap_m": 10.3, "facing": 5.2, "along": 0.0, "lat_m": 0.0, "line_a": 197, "line_b": 200, "type_a": "BikeOnly", "type_b": "BikeOnly", "crossing": 0}, "geometry": {"type": "LineString", "coordinates": [[316272.0, 4699164.0], [316261.65625, 4699164.0]]}}, {"type": "Feature", "properties": {"id": 36, "gap_m": 10.5, "facing": 2.9, "along": 0.8, "lat_m": 0.14, "line_a": 80, "line_b": 85, "type_a": "Sharrow", "type_b": "Sharrow", "crossing": 0}, "geometry": {"type": "LineString", "coordinates": [[315248.5625, 4701891.5], [315258.4375, 4701895.0]]}}, {"type": "Feature", "properties": {"id": 37, "gap_m": 10.6, "facing": 1.8, "along": 0.6, "lat_m": 0.11, "line_a": 295, "line_b": 299, "type_a": "Sharrow", "type_b": "Sharrow", "crossing": 0}, "geometry": {"type": "LineString", "coordinates": [[318075.3125, 4697863.0], [318082.8125, 4697855.5]]}}, {"type": "Feature", "properties": {"id": 38, "gap_m": 11.2, "facing": 0.6, "along": 0.1, "lat_m": 0.02, "line_a": 98, "line_b": 103, "type_a": "Sharrow", "type_b": "Sharrow", "crossing": 0}, "geometry": {"type": "LineString", "coordinates": [[315359.25, 4698937.5], [315368.6875, 4698931.5]]}}, {"type": "Feature", "properties": {"id": 39, "gap_m": 11.3, "facing": 4.5, "along": 1.4, "lat_m": 0.27, "line_a": 255, "line_b": 312, "type_a": "Sharrow", "type_b": "Sharrow", "crossing": 0}, "geometry": {"type": "LineString", "coordinates": [[318339.3125, 4703055.5], [318350.40625, 4703053.5]]}}, {"type": "Feature", "properties": {"id": 40, "gap_m": 11.4, "facing": 0.5, "along": 1.2, "lat_m": 0.23, "line_a": 169, "line_b": 171, "type_a": "Sharrow", "type_b": "Sharrow", "crossing": 0}, "geometry": {"type": "LineString", "coordinates": [[316474.8125, 4703132.5], [316483.34375, 4703140.0]]}}, {"type": "Feature", "properties": {"id": 41, "gap_m": 11.7, "facing": 0.5, "along": 1.9, "lat_m": 0.39, "line_a": 117, "line_b": 121, "type_a": "BikeOnly", "type_b": "BikeOnly", "crossing": 0}, "geometry": {"type": "LineString", "coordinates": [[316136.84375, 4702926.5], [316142.84375, 4702916.5]]}}, {"type": "Feature", "properties": {"id": 42, "gap_m": 13.2, "facing": 6.8, "along": 2.4, "lat_m": 0.56, "line_a": 158, "line_b": 159, "type_a": "Sharrow", "type_b": "Sharrow", "crossing": 0}, "geometry": {"type": "LineString", "coordinates": [[316221.59375, 4704568.5], [316212.90625, 4704578.5]]}}, {"type": "Feature", "properties": {"id": 43, "gap_m": 13.5, "facing": 0.3, "along": 2.2, "lat_m": 0.51, "line_a": 317, "line_b": 318, "type_a": "Sharrow", "type_b": "Sharrow", "crossing": 0}, "geometry": {"type": "LineString", "coordinates": [[318670.65625, 4701870.0], [318683.84375, 4701873.0]]}}, {"type": "Feature", "properties": {"id": 44, "gap_m": 14.1, "facing": 1.1, "along": 0.7, "lat_m": 0.16, "line_a": 3, "line_b": 4, "type_a": "Sharrow", "type_b": "Sharrow", "crossing": 0}, "geometry": {"type": "LineString", "coordinates": [[312692.6875, 4706704.0], [312690.75, 4706718.0]]}}, {"type": "Feature", "properties": {"id": 45, "gap_m": 14.2, "facing": 0.3, "along": 0.8, "lat_m": 0.2, "line_a": 237, "line_b": 239, "type_a": "Sharrow", "type_b": "Sharrow", "crossing": 0}, "geometry": {"type": "LineString", "coordinates": [[317733.3125, 4701756.5], [317719.1875, 4701755.0]]}}, {"type": "Feature", "properties": {"id": 46, "gap_m": 15.2, "facing": 7.1, "along": 3.1, "lat_m": 0.82, "line_a": 20, "line_b": 26, "type_a": "Sharrow", "type_b": "Sharrow", "crossing": 0}, "geometry": {"type": "LineString", "coordinates": [[313935.15625, 4702874.5], [313932.90625, 4702889.5]]}}, {"type": "Feature", "properties": {"id": 47, "gap_m": 15.6, "facing": 0.1, "along": 0.6, "lat_m": 0.17, "line_a": 168, "line_b": 169, "type_a": "Sharrow", "type_b": "Sharrow", "crossing": 0}, "geometry": {"type": "LineString", "coordinates": [[316333.8125, 4703017.0], [316345.8125, 4703027.0]]}}, {"type": "Feature", "properties": {"id": 48, "gap_m": 15.8, "facing": 1.3, "along": 0.4, "lat_m": 0.11, "line_a": 1, "line_b": 304, "type_a": "Sharrow", "type_b": "Sharrow", "crossing": 0}, "geometry": {"type": "LineString", "coordinates": [[312729.0, 4706466.0], [312732.0, 4706450.5]]}}, {"type": "Feature", "properties": {"id": 49, "gap_m": 16.1, "facing": 0.2, "along": 1.1, "lat_m": 0.31, "line_a": 244, "line_b": 249, "type_a": "Sharrow", "type_b": "Sharrow", "crossing": 0}, "geometry": {"type": "LineString", "coordinates": [[317584.8125, 4698240.0], [317599.9375, 4698234.5]]}}, {"type": "Feature", "properties": {"id": 50, "gap_m": 16.7, "facing": 0.6, "along": 0.4, "lat_m": 0.12, "line_a": 297, "line_b": 300, "type_a": "Sharrow", "type_b": "Sharrow", "crossing": 0}, "geometry": {"type": "LineString", "coordinates": [[317948.09375, 4697977.0], [317935.5, 4697988.0]]}}, {"type": "Feature", "properties": {"id": 51, "gap_m": 16.9, "facing": 0.0, "along": 0.3, "lat_m": 0.09, "line_a": 202, "line_b": 207, "type_a": "Sharrow", "type_b": "Sharrow", "crossing": 0}, "geometry": {"type": "LineString", "coordinates": [[316234.65625, 4698677.0], [316218.0, 4698680.0]]}}, {"type": "Feature", "properties": {"id": 52, "gap_m": 17.4, "facing": 0.3, "along": 0.7, "lat_m": 0.22, "line_a": 266, "line_b": 282, "type_a": "BikeOnly", "type_b": "BikeOnly", "crossing": 0}, "geometry": {"type": "LineString", "coordinates": [[318071.09375, 4700530.5], [318084.90625, 4700520.0]]}}, {"type": "Feature", "properties": {"id": 53, "gap_m": 18.3, "facing": 3.5, "along": 1.6, "lat_m": 0.52, "line_a": 278, "line_b": 281, "type_a": "BikeOnly", "type_b": "BikeOnly", "crossing": 0}, "geometry": {"type": "LineString", "coordinates": [[318385.65625, 4700052.5], [318382.34375, 4700070.5]]}}, {"type": "Feature", "properties": {"id": 54, "gap_m": 18.7, "facing": 4.0, "along": 1.8, "lat_m": 0.6, "line_a": 361, "line_b": 375, "type_a": "BikeOnly", "type_b": "BikeOnly", "crossing": 0}, "geometry": {"type": "LineString", "coordinates": [[320824.1875, 4699167.5], [320841.90625, 4699161.5]]}}, {"type": "Feature", "properties": {"id": 55, "gap_m": 18.7, "facing": 0.1, "along": 1.2, "lat_m": 0.4, "line_a": 16, "line_b": 17, "type_a": "Sharrow", "type_b": "Sharrow", "crossing": 0}, "geometry": {"type": "LineString", "coordinates": [[313846.8125, 4703484.5], [313859.25, 4703470.5]]}}, {"type": "Feature", "properties": {"id": 56, "gap_m": 18.8, "facing": 0.9, "along": 0.8, "lat_m": 0.27, "line_a": 38, "line_b": 54, "type_a": "Sharrow", "type_b": "Sharrow", "crossing": 0}, "geometry": {"type": "LineString", "coordinates": [[314462.5625, 4700430.0], [314477.84375, 4700419.0]]}}, {"type": "Feature", "properties": {"id": 57, "gap_m": 19.0, "facing": 6.7, "along": 2.1, "lat_m": 0.68, "line_a": 365, "line_b": 369, "type_a": "BikeOnly", "type_b": "BikeOnly", "crossing": 0}, "geometry": {"type": "LineString", "coordinates": [[320632.65625, 4698323.0], [320634.0, 4698304.0]]}}, {"type": "Feature", "properties": {"id": 58, "gap_m": 19.3, "facing": 0.6, "along": 0.8, "lat_m": 0.28, "line_a": 99, "line_b": 107, "type_a": "Sharrow", "type_b": "Sharrow", "crossing": 0}, "geometry": {"type": "LineString", "coordinates": [[315298.8125, 4698981.5], [315282.90625, 4698992.5]]}}, {"type": "Feature", "properties": {"id": 59, "gap_m": 20.1, "facing": 0.3, "along": 0.5, "lat_m": 0.17, "line_a": 202, "line_b": 206, "type_a": "Sharrow", "type_b": "Sharrow", "crossing": 0}, "geometry": {"type": "LineString", "coordinates": [[316318.0625, 4698661.5], [316337.84375, 4698658.0]]}}, {"type": "Feature", "properties": {"id": 60, "gap_m": 20.1, "facing": 1.1, "along": 0.8, "lat_m": 0.26, "line_a": 2, "line_b": 6, "type_a": "Sharrow", "type_b": "Sharrow", "crossing": 0}, "geometry": {"type": "LineString", "coordinates": [[312683.84375, 4706744.5], [312681.90625, 4706764.5]]}}, {"type": "Feature", "properties": {"id": 61, "gap_m": 20.6, "facing": 0.8, "along": 0.2, "lat_m": 0.08, "line_a": 244, "line_b": 248, "type_a": "Sharrow", "type_b": "Sharrow", "crossing": 0}, "geometry": {"type": "LineString", "coordinates": [[317523.90625, 4698263.5], [317504.6875, 4698271.0]]}}, {"type": "Feature", "properties": {"id": 62, "gap_m": 21.5, "facing": 1.1, "along": 0.7, "lat_m": 0.25, "line_a": 227, "line_b": 229, "type_a": "Sharrow", "type_b": "Sharrow", "crossing": 0}, "geometry": {"type": "LineString", "coordinates": [[317001.0, 4698474.0], [317020.9375, 4698466.0]]}}, {"type": "Feature", "properties": {"id": 63, "gap_m": 22.1, "facing": 0.1, "along": 1.6, "lat_m": 0.63, "line_a": 105, "line_b": 150, "type_a": "Sharrow", "type_b": "Sharrow", "crossing": 0}, "geometry": {"type": "LineString", "coordinates": [[315686.40625, 4698777.5], [315707.84375, 4698772.0]]}}, {"type": "Feature", "properties": {"id": 64, "gap_m": 22.3, "facing": 0.4, "along": 0.1, "lat_m": 0.03, "line_a": 0, "line_b": 3, "type_a": "Sharrow", "type_b": "Sharrow", "crossing": 0}, "geometry": {"type": "LineString", "coordinates": [[312707.6875, 4706605.0], [312704.25, 4706627.0]]}}, {"type": "Feature", "properties": {"id": 65, "gap_m": 22.6, "facing": 0.1, "along": 0.2, "lat_m": 0.07, "line_a": 362, "line_b": 366, "type_a": "BikeOnly", "type_b": "BikeOnly", "crossing": 0}, "geometry": {"type": "LineString", "coordinates": [[320537.6875, 4698545.0], [320526.3125, 4698564.5]]}}, {"type": "Feature", "properties": {"id": 66, "gap_m": 22.9, "facing": 0.2, "along": 1.0, "lat_m": 0.42, "line_a": 94, "line_b": 108, "type_a": "Sharrow", "type_b": "Sharrow", "crossing": 0}, "geometry": {"type": "LineString", "coordinates": [[315488.84375, 4698858.5], [315469.34375, 4698870.5]]}}, {"type": "Feature", "properties": {"id": 67, "gap_m": 23.1, "facing": 0.4, "along": 1.5, "lat_m": 0.59, "line_a": 134, "line_b": 135, "type_a": "Sharrow", "type_b": "Sharrow", "crossing": 0}, "geometry": {"type": "LineString", "coordinates": [[315969.75, 4702054.0], [315947.40625, 4702048.0]]}}, {"type": "Feature", "properties": {"id": 68, "gap_m": 23.4, "facing": 0.1, "along": 0.8, "lat_m": 0.33, "line_a": 226, "line_b": 231, "type_a": "Sharrow", "type_b": "Sharrow", "crossing": 0}, "geometry": {"type": "LineString", "coordinates": [[317252.5625, 4698375.0], [317230.8125, 4698383.5]]}}, {"type": "Feature", "properties": {"id": 69, "gap_m": 23.4, "facing": 0.3, "along": 0.2, "lat_m": 0.06, "line_a": 205, "line_b": 230, "type_a": "Sharrow", "type_b": "Sharrow", "crossing": 0}, "geometry": {"type": "LineString", "coordinates": [[316758.75, 4698554.0], [316781.25, 4698547.5]]}}, {"type": "Feature", "properties": {"id": 70, "gap_m": 23.5, "facing": 0.6, "along": 0.2, "lat_m": 0.07, "line_a": 153, "line_b": 154, "type_a": "Sharrow", "type_b": "Sharrow", "crossing": 0}, "geometry": {"type": "LineString", "coordinates": [[315859.5, 4705490.5], [315866.25, 4705513.0]]}}, {"type": "Feature", "properties": {"id": 71, "gap_m": 23.7, "facing": 0.0, "along": 1.1, "lat_m": 0.44, "line_a": 280, "line_b": 281, "type_a": "BikeOnly", "type_b": "BikeOnly", "crossing": 0}, "geometry": {"type": "LineString", "coordinates": [[318320.09375, 4700239.5], [318330.0, 4700218.0]]}}, {"type": "Feature", "properties": {"id": 72, "gap_m": 23.7, "facing": 0.1, "along": 1.1, "lat_m": 0.44, "line_a": 181, "line_b": 188, "type_a": "Sharrow", "type_b": "Sharrow", "crossing": 0}, "geometry": {"type": "LineString", "coordinates": [[316712.40625, 4701944.0], [316731.15625, 4701929.5]]}}, {"type": "Feature", "properties": {"id": 73, "gap_m": 23.8, "facing": 0.2, "along": 1.1, "lat_m": 0.47, "line_a": 264, "line_b": 317, "type_a": "Sharrow", "type_b": "Sharrow", "crossing": 0}, "geometry": {"type": "LineString", "coordinates": [[318471.75, 4701824.0], [318495.0, 4701829.0]]}}, {"type": "Feature", "properties": {"id": 74, "gap_m": 24.0, "facing": 0.0, "along": 0.3, "lat_m": 0.12, "line_a": 150, "line_b": 152, "type_a": "Sharrow", "type_b": "Sharrow", "crossing": 0}, "geometry": {"type": "LineString", "coordinates": [[315887.5625, 4698734.5], [315911.25, 4698730.5]]}}]}