{"type": "FeatureCollection", "features": [{"type": "Feature", "properties": {"poly_type": "sidewalk", "area_m2": 146.24, "segment_id": null}, "geometry": {"type": "Polygon", "coordinates": [[[-77.0442573, 38.9197184], [-77.0442435, 38.9197617], [-77.0442113, 38.9198222], [-77.0442002, 38.919828], [-77.0442021, 38.9198417], [-77.0441901, 38.9198597], [-77.0441892, 38.9198712], [-77.044131, 38.9198713], [-77.0441282, 38.9198417], [-77.0441384, 38.9198302], [-77.0441568, 38.9198208], [-77.0441679, 38.9198042], [-77.0441863, 38.9197941], [-77.044202, 38.9197646], [-77.044202, 38.9197509], [-77.0441817, 38.9197329], [-77.0441291, 38.9197329], [-77.0441134, 38.9197379], [-77.0440784, 38.9197401], [-77.044047, 38.9197553], [-77.044047, 38.9196782], [-77.0440663, 38.9196789], [-77.044083, 38.9196882], [-77.0441032, 38.9196925], [-77.0441152, 38.9197034], [-77.0442398, 38.9197047], [-77.0442573, 38.9197184]]]}}, {"type": "Feature", "properties": {"poly_type": "sidewalk", "area_m2": 129.5, "segment_id": null}, "geometry": {"type": "Polygon", "coordinates": [[[-77.0464862, 38.9198422], [-77.0464825, 38.9198704], [-77.0464143, 38.9198704], [-77.0464179, 38.9198459], [-77.0464004, 38.9198372], [-77.046393, 38.9198178], [-77.0463782, 38.9198027], [-77.046357, 38.9197652], [-77.0463653, 38.9197032], [-77.046344, 38.9196751], [-77.0463477, 38.9196629], [-77.0463744, 38.9196585], [-77.0463772, 38.9196672], [-77.0463901, 38.9196686], [-77.0463929, 38.9196895], [-77.0464123, 38.9196996], [-77.0464271, 38.9197176], [-77.0464262, 38.919727], [-77.0464068, 38.9197407], [-77.0464096, 38.9197572], [-77.0464271, 38.919768], [-77.0464557, 38.9197687], [-77.0464566, 38.9198026], [-77.0464862, 38.9198422]]]}}, {"type": "Feature", "properties": {"poly_type": "sidewalk", "area_m2": 0.0, "segment_id": null}, "geometry": {"type": "Polygon", "coordinates": [[[-77.0449879, 38.919641], [-77.0449888, 38.9196403], [-77.0449879, 38.9196403], [-77.0449879, 38.919641]]]}}, {"type": "Feature", "properties": {"poly_type": "sidewalk", "area_m2": 329.47, "segment_id": null}, "geometry": {"type": "Polygon", "coordinates": [[[-77.0449862, 38.9198025], [-77.0450314, 38.9198709], [-77.0450083, 38.9198709], [-77.0449603, 38.9197967], [-77.0449428, 38.91976], [-77.044928, 38.9197557], [-77.0449197, 38.919765], [-77.0449114, 38.9197931], [-77.0448986, 38.919871], [-77.0448773, 38.919871], [-77.0448985, 38.9197636], [-77.0448994, 38.9197348], [-77.0449187, 38.9196951], [-77.0449243, 38.9196937], [-77.0449298, 38.9196742], [-77.0449279, 38.9196461], [-77.0449113, 38.9196425], [-77.0448818, 38.9196454], [-77.0448449, 38.9196591], [-77.0447813, 38.9196714], [-77.0446854, 38.9197738], [-77.0446605, 38.9198141], [-77.0446365, 38.9198091], [-77.0446374, 38.9197932], [-77.0446301, 38.9197904], [-77.0446301, 38.9197853], [-77.0446577, 38.9197759], [-77.0447075, 38.9197233], [-77.0447232, 38.9197046], [-77.0447222, 38.9196865], [-77.0445867, 38.9197039], [-77.0445664, 38.9197147], [-77.0445442, 38.9197371], [-77.0445322, 38.9197349], [-77.044523, 38.9197277], [-77.0444917, 38.9197328], [-77.0444658, 38.919763], [-77.0444493, 38.9198106], [-77.0444317, 38.9198178], [-77.0444059, 38.9198712], [-77.0443718, 38.9198712], [-77.0443727, 38.9198575], [-77.044393, 38.9198142], [-77.0444105, 38.9197883], [-77.0444225, 38.9197803], [-77.0444317, 38.9197508], [-77.044428, 38.9197422], [-77.0444409, 38.9197407], [-77.0444575, 38.9197162], [-77.0444833, 38.9196917], [-77.0445534, 38.9196823], [-77.0445617, 38.9196772], [-77.0445626, 38.91967], [-77.0445719, 38.91967], [-77.0445719, 38.9196816], [-77.0445848, 38.9196866], [-77.0446549, 38.9196794], [-77.0446577, 38.9196686], [-77.0446678, 38.91967], [-77.0446669, 38.9196786], [-77.0446798, 38.9196779], [-77.0447066, 38.9196721], [-77.0447149, 38.9196649], [-77.0447665, 38.919657], [-77.0447656, 38.919644], [-77.044773, 38.9196447], [-77.0447739, 38.919657], [-77.0447831, 38.919657], [-77.0448154, 38.9196462], [-77.0448237, 38.9196389], [-77.0448615, 38.919631], [-77.0448624, 38.9196238], [-77.0448772, 38.9196281], [-77.044891, 38.9196195], [-77.0449169, 38.9196144], [-77.0449279, 38.9195985], [-77.0449593, 38.919605], [-77.0449787, 38.9196158], [-77.0449851, 38.9196274], [-77.0449879, 38.9196403], [-77.0449593, 38.9196468], [-77.044963, 38.9196713], [-77.0449566, 38.9196915], [-77.0449603, 38.9197456], [-77.0449862, 38.9198025]]]}}, {"type": "Feature", "properties": {"poly_type": "sidewalk", "area_m2": 0.12, "segment_id": null}, "geometry": {"type": "Polygon", "coordinates": [[[-77.0448161, 38.9192757], [-77.0448179, 38.9192743], [-77.0448189, 38.9192714], [-77.0448142, 38.9192721], [-77.0448142, 38.9192743], [-77.0448152, 38.9192743], [-77.0448161, 38.9192757]], [[-77.0448161, 38.9192736], [-77.0448152, 38.9192743], [-77.0448152, 38.9192736], [-77.0448161, 38.9192736]]]}}, {"type": "Feature", "properties": {"poly_type": "sidewalk", "area_m2": 369.27, "segment_id": null}, "geometry": {"type": "Polygon", "coordinates": [[[-77.0449214, 38.9195106], [-77.044914, 38.9195186], [-77.0448845, 38.9195222], [-77.0448734, 38.9195308], [-77.0448531, 38.9195323], [-77.0448412, 38.9195287], [-77.0447637, 38.919551], [-77.0446318, 38.9195763], [-77.0446299, 38.9195871], [-77.0445709, 38.9195944], [-77.044558, 38.9195936], [-77.0445515, 38.9195872], [-77.0445515, 38.9195727], [-77.0445736, 38.9195259], [-77.0446649, 38.9193954], [-77.04471, 38.9193169], [-77.04471, 38.9193017], [-77.0447266, 38.9192909], [-77.0447248, 38.9192628], [-77.044745, 38.9192671], [-77.0447644, 38.9192491], [-77.0447921, 38.9192527], [-77.0448105, 38.9192685], [-77.0448133, 38.9192786], [-77.0448032, 38.9192793], [-77.0448004, 38.9192865], [-77.0448401, 38.9193557], [-77.0448475, 38.9193845], [-77.044866, 38.9194047], [-77.0448835, 38.919435], [-77.0448845, 38.9194472], [-77.0449002, 38.9194645], [-77.0449075, 38.9194645], [-77.0449214, 38.9195106]], [[-77.0448301, 38.9195085], [-77.0448301, 38.9195035], [-77.0448089, 38.9195035], [-77.0447729, 38.9195114], [-77.0447415, 38.9195114], [-77.0446954, 38.9194992], [-77.0446824, 38.9194538], [-77.044676, 38.9194444], [-77.0446667, 38.9194437], [-77.0446068, 38.9195353], [-77.0446013, 38.919554], [-77.0446124, 38.9195634], [-77.0446696, 38.9195561], [-77.0447295, 38.9195374], [-77.0447969, 38.9195244], [-77.0448301, 38.9195085]], [[-77.0448226, 38.9194011], [-77.0448235, 38.9193802], [-77.0447995, 38.9193255], [-77.0447847, 38.919301], [-77.0447663, 38.9192981], [-77.0447571, 38.919306], [-77.0447423, 38.9193464], [-77.0447285, 38.9193493], [-77.0447119, 38.9193666], [-77.0447101, 38.9193767], [-77.044699, 38.919386], [-77.0446824, 38.9194149], [-77.0446824, 38.9194199], [-77.0446889, 38.9194199], [-77.0447101, 38.9194141], [-77.0447193, 38.9194069], [-77.0447285, 38.9194084], [-77.0447046, 38.9194466], [-77.0447129, 38.9194797], [-77.0447258, 38.9194876], [-77.044759, 38.9194869], [-77.0447692, 38.9194934], [-77.0448005, 38.9194862], [-77.0448079, 38.9194653], [-77.0447978, 38.9194653], [-77.0447913, 38.9194566], [-77.0447756, 38.9194545], [-77.044759, 38.9194437], [-77.0447562, 38.9194141], [-77.0447673, 38.9194055], [-77.044806, 38.9194112], [-77.0448226, 38.9194011]], [[-77.0448679, 38.9194847], [-77.0448651, 38.9194638], [-77.0448559, 38.9194595], [-77.044843, 38.9194609], [-77.0448319, 38.9194768], [-77.044831, 38.9194977], [-77.0448384, 38.9194991], [-77.0448679, 38.9194847]]]}}, {"type": "Feature", "properties": {"poly_type": "sidewalk", "area_m2": 321.12, "segment_id": null}, "geometry": {"type": "Polygon", "coordinates": [[[-77.0445568, 38.9192484], [-77.044543, 38.9192809], [-77.0445458, 38.9193068], [-77.0445329, 38.9193429], [-77.0445182, 38.9193494], [-77.0445016, 38.9193494], [-77.0444951, 38.9193609], [-77.0444831, 38.9193609], [-77.0444758, 38.9193897], [-77.0444601, 38.919402], [-77.0444278, 38.9194597], [-77.0444002, 38.9194928], [-77.0443882, 38.919544], [-77.0444058, 38.9195634], [-77.0443956, 38.919575], [-77.0443818, 38.9195786], [-77.0443809, 38.9195973], [-77.0443633, 38.919606], [-77.0443283, 38.919611], [-77.0443154, 38.9196197], [-77.0441955, 38.9196233], [-77.0441816, 38.9196168], [-77.0441613, 38.919619], [-77.0441604, 38.9196147], [-77.0441456, 38.9196111], [-77.0441447, 38.919619], [-77.0441355, 38.9196226], [-77.0440829, 38.919619], [-77.0440737, 38.9196248], [-77.0440469, 38.9196234], [-77.0440469, 38.9195809], [-77.0440967, 38.9195837], [-77.0441309, 38.9195938], [-77.0442554, 38.9195916], [-77.0442674, 38.9195729], [-77.0442987, 38.9195628], [-77.0443135, 38.9195382], [-77.0443282, 38.9195289], [-77.0443301, 38.9195202], [-77.0443485, 38.9195101], [-77.0443623, 38.9194741], [-77.0443974, 38.9194366], [-77.0444296, 38.9193833], [-77.0444259, 38.9193436], [-77.0444102, 38.9193429], [-77.0444084, 38.9193357], [-77.0444222, 38.9193328], [-77.0444333, 38.919322], [-77.044448, 38.9193213], [-77.0444637, 38.9193141], [-77.0444812, 38.9192823], [-77.0445052, 38.9192564], [-77.0445061, 38.9192449], [-77.0444895, 38.9192434], [-77.0444886, 38.9192362], [-77.044507, 38.9192333], [-77.0445135, 38.9192413], [-77.044519, 38.9192413], [-77.0445199, 38.9192355], [-77.0445412, 38.9192319], [-77.0445495, 38.9192355], [-77.0445568, 38.9192484]]]}}, {"type": "Feature", "properties": {"poly_type": "sidewalk", "area_m2": 942.74, "segment_id": null}, "geometry": {"type": "Polygon", "coordinates": [[[-77.0463642, 38.9195821], [-77.0463633, 38.9196016], [-77.0463366, 38.9195966], [-77.0463264, 38.9196045], [-77.0463172, 38.9196038], [-77.0462812, 38.9195375], [-77.0461982, 38.9195613], [-77.046188, 38.9195599], [-77.0461825, 38.9195541], [-77.0461686, 38.9195123], [-77.0461917, 38.9195015], [-77.0462286, 38.9194928], [-77.0462452, 38.9194827], [-77.0462461, 38.9194726], [-77.0462082, 38.9193934], [-77.0461962, 38.9193927], [-77.0461603, 38.9194042], [-77.0461603, 38.9194208], [-77.04614, 38.9194294], [-77.046128, 38.9194287], [-77.0461141, 38.9194107], [-77.0461077, 38.9193956], [-77.0461132, 38.9193833], [-77.046151, 38.9193754], [-77.0461566, 38.919384], [-77.0461658, 38.919384], [-77.0461925, 38.9193739], [-77.0461897, 38.919353], [-77.04615, 38.9192745], [-77.0461279, 38.9192615], [-77.0461076, 38.9192853], [-77.0460716, 38.9192997], [-77.0460633, 38.9193142], [-77.0460514, 38.9193228], [-77.0460394, 38.9193271], [-77.0460145, 38.9193272], [-77.0460117, 38.9193387], [-77.0459886, 38.9193488], [-77.0459656, 38.9193524], [-77.0459536, 38.9193481], [-77.0459361, 38.9193524], [-77.0459167, 38.9193445], [-77.0458761, 38.9193402], [-77.0458613, 38.9193589], [-77.0458189, 38.9193611], [-77.0458032, 38.9193741], [-77.045735, 38.9193928], [-77.0457295, 38.919408], [-77.0456916, 38.9194239], [-77.0456713, 38.9194246], [-77.0456529, 38.9194138], [-77.0456271, 38.9194159], [-77.0456086, 38.919426], [-77.045568, 38.9194347], [-77.0455607, 38.9194491], [-77.0455441, 38.9194592], [-77.0454924, 38.9194672], [-77.0454767, 38.9194657], [-77.0453882, 38.9194953], [-77.0453716, 38.919496], [-77.0452923, 38.9195227], [-77.0452461, 38.9195494], [-77.0452268, 38.9195516], [-77.045188, 38.9195689], [-77.0451622, 38.9195747], [-77.0451225, 38.9195718], [-77.0451198, 38.9195855], [-77.0451521, 38.9196554], [-77.0451853, 38.9196669], [-77.0451789, 38.9196777], [-77.0451826, 38.9197138], [-77.0451918, 38.9197325], [-77.0452066, 38.9197426], [-77.0452121, 38.9197527], [-77.0452149, 38.9197728], [-77.0452103, 38.9197981], [-77.0452371, 38.9198391], [-77.0452427, 38.9198708], [-77.0451845, 38.9198709], [-77.0451864, 38.9198161], [-77.0451642, 38.9198053], [-77.0451559, 38.9197815], [-77.0451457, 38.9197707], [-77.0451457, 38.9197563], [-77.0451319, 38.9197325], [-77.0451328, 38.919695], [-77.0451125, 38.9196778], [-77.0451088, 38.9196511], [-77.045081, 38.919587], [-77.0450856, 38.9195668], [-77.0451022, 38.9195502], [-77.0451244, 38.9195415], [-77.0451354, 38.9195473], [-77.0451465, 38.9195336], [-77.0452194, 38.9195047], [-77.0452397, 38.9194874], [-77.045295, 38.9194658], [-77.0453061, 38.9194557], [-77.0453393, 38.9194571], [-77.0454693, 38.9194384], [-77.0454758, 38.9194319], [-77.0455274, 38.9194196], [-77.0455468, 38.9194066], [-77.0456861, 38.9193698], [-77.0457119, 38.9193547], [-77.0457276, 38.9193359], [-77.0457432, 38.9193294], [-77.045793, 38.9193164], [-77.0458668, 38.9193042], [-77.0458908, 38.9192912], [-77.0459083, 38.9192919], [-77.0459342, 38.9192861], [-77.0459369, 38.9192775], [-77.0459683, 38.9192695], [-77.0459618, 38.919258], [-77.0459627, 38.9192385], [-77.045971, 38.9192284], [-77.045983, 38.9192248], [-77.0460273, 38.9192299], [-77.0460531, 38.919245], [-77.0460947, 38.9192406], [-77.0461011, 38.9192378], [-77.0461011, 38.9192313], [-77.0461214, 38.9192385], [-77.0461352, 38.9192298], [-77.0461565, 38.9192327], [-77.0461666, 38.9192421], [-77.0461841, 38.919237], [-77.0462026, 38.9192392], [-77.046198, 38.919281], [-77.0462082, 38.9193055], [-77.0462192, 38.9193098], [-77.0462312, 38.919335], [-77.0462359, 38.9193696], [-77.0462497, 38.9193847], [-77.0462848, 38.9194553], [-77.0462996, 38.919464], [-77.0462996, 38.9194805], [-77.0463227, 38.9195101], [-77.0463236, 38.9195252], [-77.0463393, 38.9195367], [-77.0463642, 38.9195821]], [[-77.0462729, 38.9195224], [-77.046272, 38.919513], [-77.0462609, 38.9195015], [-77.0462295, 38.9195137], [-77.0462332, 38.9195209], [-77.0462729, 38.9195224]]]}}, {"type": "Feature", "properties": {"poly_type": "sidewalk", "area_m2": 735.91, "segment_id": null}, "geometry": {"type": "Polygon", "coordinates": [[[-77.0468805, 38.9190515], [-77.046863, 38.9190515], [-77.0468584, 38.9190587], [-77.0468196, 38.919053], [-77.0467929, 38.919066], [-77.0467698, 38.9190681], [-77.0467661, 38.9190782], [-77.0467772, 38.9190941], [-77.0467735, 38.9191056], [-77.0467422, 38.9190984], [-77.0467108, 38.9191179], [-77.0466877, 38.9191201], [-77.0466647, 38.9191143], [-77.0466518, 38.9191208], [-77.0466333, 38.9191201], [-77.046601, 38.9191323], [-77.0465955, 38.9191396], [-77.0465512, 38.9191612], [-77.0464821, 38.9191533], [-77.0464544, 38.9191627], [-77.0464535, 38.9191764], [-77.046447, 38.9191836], [-77.0464267, 38.9191785], [-77.046388, 38.9191814], [-77.0463197, 38.9192038], [-77.0463216, 38.9192319], [-77.046329, 38.9192442], [-77.0463474, 38.9192535], [-77.0463641, 38.9193184], [-77.0463927, 38.9193645], [-77.0463927, 38.9193717], [-77.0464019, 38.9193839], [-77.0464139, 38.9193897], [-77.0464167, 38.9193991], [-77.0464241, 38.9194012], [-77.0464398, 38.9194445], [-77.0464527, 38.9194517], [-77.0464527, 38.9194581], [-77.0464675, 38.9194704], [-77.0464629, 38.9194848], [-77.0464657, 38.9194978], [-77.0465137, 38.9195489], [-77.0465238, 38.919577], [-77.0465423, 38.9196015], [-77.0465746, 38.9196238], [-77.0465894, 38.9196505], [-77.0466078, 38.9196584], [-77.0466051, 38.9196764], [-77.0466106, 38.919693], [-77.0465839, 38.919706], [-77.0465793, 38.9197219], [-77.0466097, 38.9197442], [-77.0466098, 38.9197593], [-77.0466171, 38.9197694], [-77.0466301, 38.9198278], [-77.0466449, 38.9198602], [-77.0466421, 38.9198703], [-77.0465822, 38.9198703], [-77.0465766, 38.9198552], [-77.0465812, 38.9198227], [-77.0465599, 38.9197766], [-77.0465239, 38.9197248], [-77.0465119, 38.9197233], [-77.0464981, 38.9197284], [-77.0464751, 38.9197493], [-77.0464649, 38.919745], [-77.0464575, 38.9197147], [-77.046463, 38.9196981], [-77.0464824, 38.9196851], [-77.0464805, 38.9196606], [-77.0464879, 38.9196513], [-77.046487, 38.9196174], [-77.0464408, 38.9195302], [-77.0464232, 38.9195201], [-77.0464186, 38.9195057], [-77.0464011, 38.9194906], [-77.0463854, 38.9194668], [-77.04639, 38.9194611], [-77.0463881, 38.9194438], [-77.0463771, 38.9194366], [-77.0463688, 38.9194099], [-77.0463761, 38.9193926], [-77.0463586, 38.9193789], [-77.0463512, 38.9193587], [-77.0463327, 38.919335], [-77.0463373, 38.9193133], [-77.0463189, 38.9193025], [-77.0463152, 38.9192867], [-77.0462884, 38.9192564], [-77.0462764, 38.9192521], [-77.0462589, 38.9192557], [-77.0462257, 38.9192528], [-77.0462146, 38.9192334], [-77.0462349, 38.9192046], [-77.0462459, 38.9192002], [-77.0462468, 38.9191916], [-77.0462598, 38.9191894], [-77.0462597, 38.9191815], [-77.0462948, 38.91918], [-77.0463298, 38.9191627], [-77.0463778, 38.919149], [-77.0463926, 38.919154], [-77.0464073, 38.9191497], [-77.046423, 38.9191526], [-77.0464267, 38.9191353], [-77.0464645, 38.9191281], [-77.0464737, 38.9191144], [-77.0465198, 38.9191072], [-77.0465623, 38.9190898], [-77.0466499, 38.9190768], [-77.0466785, 38.9190581], [-77.0467062, 38.9190501], [-77.0467504, 38.9190242], [-77.0467827, 38.9190141], [-77.0467993, 38.9190011], [-77.0468685, 38.9189996], [-77.0468703, 38.9190112], [-77.0468805, 38.9190112], [-77.0468805, 38.9190515]]]}}, {"type": "Feature", "properties": {"poly_type": "sidewalk", "area_m2": 8.89, "segment_id": null}, "geometry": {"type": "Polygon", "coordinates": [[[-77.0457781, 38.919008], [-77.0457781, 38.9190231], [-77.0457689, 38.9190289], [-77.0457726, 38.9190397], [-77.0457495, 38.9190448], [-77.0457449, 38.9190368], [-77.0457578, 38.9190239], [-77.0457652, 38.9190239], [-77.0457707, 38.9190123], [-77.045767, 38.919003], [-77.045755, 38.9189972], [-77.0457559, 38.9189885], [-77.0457467, 38.9189741], [-77.0457568, 38.9189741], [-77.0457781, 38.919008]]]}}, {"type": "Feature", "properties": {"poly_type": "sidewalk", "area_m2": 117.34, "segment_id": null}, "geometry": {"type": "Polygon", "coordinates": [[[-77.0447107, 38.9189889], [-77.0447117, 38.9190106], [-77.0446914, 38.9190322], [-77.0446453, 38.9191151], [-77.0446131, 38.9191483], [-77.0446121, 38.9191648], [-77.0445992, 38.9191627], [-77.0445826, 38.9191511], [-77.0445845, 38.919136], [-77.0445946, 38.9191324], [-77.0446121, 38.9190935], [-77.0446195, 38.9190892], [-77.0446573, 38.9190315], [-77.0446619, 38.9190156], [-77.0446508, 38.9190128], [-77.0445742, 38.9190294], [-77.0445595, 38.9190214], [-77.0445585, 38.9190135], [-77.0446074, 38.9190106], [-77.0446582, 38.9189947], [-77.0446563, 38.9189774], [-77.0446286, 38.9189248], [-77.0446258, 38.918909], [-77.0446424, 38.9189083], [-77.0446489, 38.9188996], [-77.0446701, 38.918901], [-77.0446886, 38.9189558], [-77.0447043, 38.9189882], [-77.0447107, 38.9189889]]]}}, {"type": "Feature", "properties": {"poly_type": "sidewalk", "area_m2": 0.01, "segment_id": null}, "geometry": {"type": "Polygon", "coordinates": [[[-77.0447485, 38.9188426], [-77.0447494, 38.9188412], [-77.0447485, 38.9188412], [-77.0447485, 38.9188426]]]}}, {"type": "Feature", "properties": {"poly_type": "sidewalk", "area_m2": 0.01, "segment_id": null}, "geometry": {"type": "Polygon", "coordinates": [[[-77.0448352, 38.9188195], [-77.0448361, 38.9188181], [-77.0448352, 38.9188181], [-77.0448352, 38.9188195]]]}}, {"type": "Feature", "properties": {"poly_type": "sidewalk", "area_m2": 438.52, "segment_id": null}, "geometry": {"type": "Polygon", "coordinates": [[[-77.046114, 38.9191253], [-77.046113, 38.9191369], [-77.0461057, 38.9191462], [-77.0460928, 38.9191513], [-77.0460808, 38.9191513], [-77.0460808, 38.9191434], [-77.0460614, 38.919147], [-77.0460568, 38.919165], [-77.0460171, 38.9191765], [-77.0459987, 38.9191881], [-77.0459553, 38.9191924], [-77.0459194, 38.9192133], [-77.0458981, 38.9192105], [-77.0458963, 38.9192205], [-77.0458723, 38.9192213], [-77.0457902, 38.9192509], [-77.0457164, 38.9192646], [-77.0456583, 38.9192841], [-77.0456436, 38.9192942], [-77.0455716, 38.9193144], [-77.0455615, 38.9193252], [-77.0455301, 38.9193302], [-77.045472, 38.9193526], [-77.0454435, 38.9193721], [-77.0454305, 38.9193706], [-77.0454397, 38.9193324], [-77.0454342, 38.9193065], [-77.0454388, 38.9192935], [-77.0454692, 38.9192913], [-77.0455034, 38.919282], [-77.045532, 38.9192812], [-77.0455384, 38.9192863], [-77.0455532, 38.9192855], [-77.0455578, 38.9192783], [-77.0455375, 38.9192697], [-77.0455356, 38.9192618], [-77.0455661, 38.9192567], [-77.045579, 38.9192502], [-77.0455891, 38.9192509], [-77.0455947, 38.9192581], [-77.0455947, 38.9192639], [-77.0455845, 38.9192675], [-77.0455845, 38.919274], [-77.0456113, 38.9192704], [-77.045627, 38.9192646], [-77.0456426, 38.9192502], [-77.0456841, 38.9192379], [-77.0456952, 38.9192221], [-77.0457395, 38.919217], [-77.0457459, 38.9192228], [-77.0457542, 38.9192228], [-77.0458197, 38.9192069], [-77.045852, 38.9191939], [-77.0458695, 38.9191802], [-77.0459332, 38.9191643], [-77.0459608, 38.9191528], [-77.0460014, 38.9191499], [-77.0460789, 38.9191246], [-77.0460743, 38.9191059], [-77.0460604, 38.9190836], [-77.0460217, 38.9190547], [-77.0460152, 38.9190353], [-77.0460133, 38.9189942], [-77.0460032, 38.9189675], [-77.0459782, 38.9189387], [-77.0459616, 38.918884], [-77.0459459, 38.9188544], [-77.0459293, 38.9188458], [-77.0459117, 38.9188162], [-77.0459062, 38.9187896], [-77.0458776, 38.9187824], [-77.0458591, 38.9187925], [-77.0458388, 38.9187925], [-77.0458425, 38.9187774], [-77.0458591, 38.9187673], [-77.045884, 38.9187651], [-77.0459025, 38.9187694], [-77.04592, 38.9187571], [-77.045932, 38.9187557], [-77.0459486, 38.9187665], [-77.0459643, 38.9188025], [-77.0459901, 38.9188177], [-77.0459883, 38.9188256], [-77.0459754, 38.9188328], [-77.0459948, 38.9188825], [-77.0459939, 38.918889], [-77.0459856, 38.918889], [-77.0459902, 38.9189063], [-77.0460096, 38.9189092], [-77.0460354, 38.9189618], [-77.0460345, 38.9189675], [-77.0460253, 38.9189683], [-77.046029, 38.9189834], [-77.0460456, 38.918987], [-77.0460715, 38.9190201], [-77.0460844, 38.9190461], [-77.0460779, 38.9190771], [-77.0460853, 38.9190929], [-77.0460992, 38.9190922], [-77.046114, 38.9191253]]]}}, {"type": "Feature", "properties": {"poly_type": "sidewalk", "area_m2": 0.0, "segment_id": null}, "geometry": {"type": "Polygon", "coordinates": [[[-77.0445095, 38.9187058], [-77.0445104, 38.9187051], [-77.0445095, 38.9187051], [-77.0445095, 38.9187058]]]}}, {"type": "Feature", "properties": {"poly_type": "sidewalk", "area_m2": 30.34, "segment_id": null}, "geometry": {"type": "Polygon", "coordinates": [[[-77.0459034, 38.9187009], [-77.0459006, 38.9187118], [-77.045884, 38.9187197], [-77.0458692, 38.918737], [-77.0458268, 38.9187384], [-77.0458296, 38.9187276], [-77.0458425, 38.9187147], [-77.0458397, 38.9187053], [-77.0458268, 38.9186995], [-77.0458268, 38.9186945], [-77.0458378, 38.9186866], [-77.0458913, 38.9186786], [-77.0459034, 38.9187009]]]}}, {"type": "Feature", "properties": {"poly_type": "sidewalk", "area_m2": 602.54, "segment_id": null}, "geometry": {"type": "Polygon", "coordinates": [[[-77.0468776, 38.9188555], [-77.0468804, 38.918924], [-77.0468666, 38.918924], [-77.0468288, 38.9189406], [-77.0468029, 38.918942], [-77.0466876, 38.918968], [-77.046529, 38.9190178], [-77.0464783, 38.9190459], [-77.0464589, 38.9190466], [-77.0464119, 38.9190582], [-77.0463897, 38.9190546], [-77.0463685, 38.9190712], [-77.0463252, 38.9190813], [-77.0463187, 38.9190878], [-77.0462348, 38.9191029], [-77.0462154, 38.9190943], [-77.0461942, 38.919064], [-77.0461942, 38.9190576], [-77.0462034, 38.9190568], [-77.0461969, 38.9190359], [-77.046184, 38.9190388], [-77.0461739, 38.9190259], [-77.0461452, 38.9189639], [-77.0461341, 38.9189567], [-77.0461268, 38.918943], [-77.0461129, 38.9189012], [-77.0460806, 38.9188673], [-77.0460612, 38.9188198], [-77.0460243, 38.9188054], [-77.0460408, 38.9187557], [-77.0460113, 38.9187074], [-77.0460103, 38.9186778], [-77.0459817, 38.9186505], [-77.0459799, 38.9186433], [-77.0459919, 38.9186267], [-77.0460131, 38.9186231], [-77.0460279, 38.9186504], [-77.0460399, 38.9186548], [-77.0460463, 38.9186634], [-77.0460565, 38.9186886], [-77.0460556, 38.9187139], [-77.0460611, 38.9187283], [-77.0460731, 38.9187369], [-77.0460796, 38.9187571], [-77.0460934, 38.9187722], [-77.0461156, 38.9188133], [-77.0461313, 38.9188572], [-77.0461719, 38.9189293], [-77.0461858, 38.918974], [-77.0462043, 38.9189999], [-77.0462412, 38.9190763], [-77.0463205, 38.9190553], [-77.0463473, 38.919038], [-77.0463445, 38.918997], [-77.0463519, 38.918997], [-77.0463685, 38.9190121], [-77.046374, 38.9190258], [-77.0463833, 38.9190265], [-77.0464266, 38.9190171], [-77.046457, 38.9189998], [-77.0465124, 38.9189947], [-77.0466166, 38.9189615], [-77.0466129, 38.9189478], [-77.0465538, 38.9188672], [-77.0465353, 38.9188282], [-77.0465335, 38.918803], [-77.0465076, 38.9187656], [-77.0464818, 38.9187605], [-77.0464338, 38.9187634], [-77.0464209, 38.9187678], [-77.0464062, 38.9187836], [-77.0464062, 38.9188088], [-77.0463979, 38.9188276], [-77.0463785, 38.9188413], [-77.0463684, 38.9188557], [-77.0463546, 38.9188535], [-77.0463462, 38.9188456], [-77.0463462, 38.9188377], [-77.0463684, 38.9188283], [-77.0463785, 38.9188168], [-77.0463868, 38.9187995], [-77.0463868, 38.9187786], [-77.0464043, 38.9187577], [-77.0464301, 38.9187483], [-77.0464707, 38.9187476], [-77.0464938, 38.9187382], [-77.0465011, 38.9186957], [-77.046514, 38.9187007], [-77.046514, 38.9187101], [-77.0465427, 38.9187735], [-77.0465741, 38.9188081], [-77.0465879, 38.9188477], [-77.0466415, 38.9189486], [-77.0466563, 38.9189486], [-77.0467254, 38.9189226], [-77.0467337, 38.9188959], [-77.0467402, 38.9188966], [-77.0467402, 38.9189017], [-77.0467485, 38.9189017], [-77.0467808, 38.9188815], [-77.0467789, 38.9188627], [-77.0467992, 38.9188627], [-77.0468278, 38.9188534], [-77.0468776, 38.9188555]]]}}, {"type": "Feature", "properties": {"poly_type": "sidewalk", "area_m2": 1.08, "segment_id": null}, "geometry": {"type": "Polygon", "coordinates": [[[-77.0451007, 38.9186133], [-77.0450777, 38.9186119], [-77.0450777, 38.9186083], [-77.0450924, 38.9186054], [-77.0451007, 38.9186133]]]}}, {"type": "Feature", "properties": {"poly_type": "sidewalk", "area_m2": 261.77, "segment_id": null}, "geometry": {"type": "Polygon", "coordinates": [[[-77.0449642, 38.9185982], [-77.0449513, 38.9186372], [-77.0448923, 38.9187258], [-77.0448812, 38.9187302], [-77.0448757, 38.9187208], [-77.0448526, 38.9187179], [-77.044849, 38.9187338], [-77.0448573, 38.9187381], [-77.0448554, 38.9187561], [-77.0448683, 38.9187576], [-77.0448674, 38.9187676], [-77.0447983, 38.9188678], [-77.0447891, 38.9188736], [-77.0447743, 38.9188722], [-77.0447485, 38.9188398], [-77.0447235, 38.9187756], [-77.0447125, 38.9187742], [-77.0447143, 38.9187684], [-77.0447217, 38.918767], [-77.0447254, 38.9187554], [-77.0447235, 38.9187475], [-77.0447087, 38.9187389], [-77.0447078, 38.9187151], [-77.0447521, 38.9186877], [-77.0447567, 38.918679], [-77.0448037, 38.9186596], [-77.0448277, 38.9186408], [-77.0448526, 38.9186343], [-77.0449015, 38.9185997], [-77.0449411, 38.9185867], [-77.0449559, 38.9185889], [-77.0449642, 38.9185982]], [[-77.0448416, 38.9187186], [-77.0448249, 38.918697], [-77.0448093, 38.9186934], [-77.0447539, 38.9187244], [-77.0447521, 38.9187425], [-77.0447798, 38.9187958], [-77.0447881, 38.9187958], [-77.044801, 38.9187878], [-77.0448185, 38.9187669], [-77.0448259, 38.9187417], [-77.0448416, 38.9187186]]]}}, {"type": "Feature", "properties": {"poly_type": "sidewalk", "area_m2": 0.01, "segment_id": null}, "geometry": {"type": "Polygon", "coordinates": [[[-77.044633, 38.9185789], [-77.0446348, 38.9185768], [-77.0446339, 38.9185768], [-77.044633, 38.9185789]]]}}, {"type": "Feature", "properties": {"poly_type": "sidewalk", "area_m2": 699.49, "segment_id": null}, "geometry": {"type": "Polygon", "coordinates": [[[-77.0454065, 38.9193324], [-77.0454139, 38.9193721], [-77.0454084, 38.9193742], [-77.0453789, 38.9193714], [-77.0453457, 38.9193894], [-77.0453263, 38.9193901], [-77.0451677, 38.9194414], [-77.0451372, 38.9194378], [-77.0451012, 38.9194471], [-77.0450902, 38.9194515], [-77.0450893, 38.9194623], [-77.0450745, 38.9194681], [-77.0450376, 38.9194673], [-77.0450145, 38.9194544], [-77.0449933, 38.9194227], [-77.0449951, 38.919409], [-77.0449841, 38.9194039], [-77.0449563, 38.919342], [-77.0449563, 38.9193355], [-77.0449656, 38.9193319], [-77.0449656, 38.9193232], [-77.04496, 38.919316], [-77.0449425, 38.919316], [-77.0449157, 38.9192555], [-77.0449102, 38.9192526], [-77.0449111, 38.9192245], [-77.0448945, 38.9192188], [-77.0448797, 38.9191863], [-77.04484, 38.9191518], [-77.04484, 38.9191316], [-77.0448455, 38.9191265], [-77.0448501, 38.9190977], [-77.0448888, 38.9190379], [-77.0448676, 38.9190004], [-77.0448777, 38.9189874], [-77.0449008, 38.9189802], [-77.0449054, 38.9189673], [-77.0449201, 38.918955], [-77.0449146, 38.9189435], [-77.0448915, 38.9189355], [-77.0448943, 38.9189262], [-77.044886, 38.9189233], [-77.0448878, 38.9189132], [-77.0448989, 38.9189103], [-77.044898, 38.918901], [-77.0449302, 38.9188937], [-77.0449394, 38.9188627], [-77.0449726, 38.9188202], [-77.0449911, 38.9188159], [-77.0449911, 38.9188216], [-77.0449966, 38.9188216], [-77.0450151, 38.9188144], [-77.0450335, 38.9187834], [-77.0450611, 38.9187575], [-77.0450694, 38.9187395], [-77.0450823, 38.9187315], [-77.045098, 38.9187056], [-77.0450999, 38.9186933], [-77.045122, 38.9186652], [-77.0451229, 38.9186551], [-77.0451358, 38.9186436], [-77.0451358, 38.9186227], [-77.045145, 38.9186126], [-77.0451192, 38.9186126], [-77.0451109, 38.918604], [-77.0451118, 38.9185982], [-77.0451247, 38.9185874], [-77.0451754, 38.9185917], [-77.0451902, 38.918565], [-77.0451892, 38.9185398], [-77.0452169, 38.9185131], [-77.0452298, 38.9184929], [-77.0452649, 38.9184958], [-77.0452492, 38.9185592], [-77.0452289, 38.9185722], [-77.0452271, 38.9185852], [-77.0452086, 38.9186003], [-77.0451967, 38.9186306], [-77.0451782, 38.9186443], [-77.0451736, 38.9186601], [-77.0451515, 38.9186775], [-77.0451156, 38.9187337], [-77.0451045, 38.9187546], [-77.0451055, 38.9188], [-77.0450999, 38.9188021], [-77.0450815, 38.9188403], [-77.0450667, 38.918849], [-77.0450676, 38.9188295], [-77.0450621, 38.9188295], [-77.0450501, 38.9188476], [-77.0450501, 38.918867], [-77.0450317, 38.9188699], [-77.0450216, 38.9188851], [-77.0450197, 38.9188951], [-77.0450336, 38.9189096], [-77.0450363, 38.9189326], [-77.0449939, 38.9189499], [-77.0449912, 38.9189917], [-77.0449737, 38.9190061], [-77.0449497, 38.9190083], [-77.0449359, 38.919017], [-77.0448842, 38.9191049], [-77.0449471, 38.9192274], [-77.044972, 38.9192274], [-77.0449793, 38.919231], [-77.0450061, 38.9192764], [-77.0450052, 38.9192865], [-77.0449831, 38.9192937], [-77.0449803, 38.9193023], [-77.0450496, 38.9194414], [-77.045068, 38.9194392], [-77.0453198, 38.9193606], [-77.045342, 38.9193462], [-77.0453585, 38.9193216], [-77.0454065, 38.9193324]]]}}, {"type": "Feature", "properties": {"poly_type": "sidewalk", "area_m2": 125.37, "segment_id": null}, "geometry": {"type": "Polygon", "coordinates": [[[-77.0456117, 38.9184077], [-77.0456089, 38.9184142], [-77.0455351, 38.9184373], [-77.0455259, 38.9184431], [-77.0455268, 38.9184539], [-77.0455047, 38.9184626], [-77.045453, 38.9184763], [-77.045441, 38.9184705], [-77.0454115, 38.918472], [-77.0453949, 38.9184806], [-77.0453359, 38.9184979], [-77.045311, 38.9185008], [-77.0453211, 38.918485], [-77.0453193, 38.9184691], [-77.0453405, 38.9184597], [-77.045346, 38.9184511], [-77.0453617, 38.9184482], [-77.0453811, 38.9184532], [-77.0453894, 38.9184374], [-77.0454013, 38.918433], [-77.045417, 38.9184338], [-77.0454336, 38.9184258], [-77.0454327, 38.9184165], [-77.0454142, 38.9184114], [-77.0454161, 38.9183948], [-77.0454271, 38.9183948], [-77.0454345, 38.9183999], [-77.0454382, 38.9184136], [-77.0454576, 38.9184092], [-77.0454576, 38.9184049], [-77.0454401, 38.9183992], [-77.0454401, 38.9183948], [-77.0454677, 38.9183948], [-77.0454677, 38.9184056], [-77.045477, 38.9184107], [-77.0454982, 38.9184085], [-77.0455443, 38.9183948], [-77.0455757, 38.9183948], [-77.0455748, 38.9184049], [-77.0456006, 38.918402], [-77.0456117, 38.9184077]]]}}, {"type": "Feature", "properties": {"poly_type": "sidewalk", "area_m2": 115.88, "segment_id": null}, "geometry": {"type": "MultiPolygon", "coordinates": [[[[-77.0456974, 38.9183861], [-77.0456753, 38.918389], [-77.045667, 38.9183753], [-77.0456402, 38.9183724], [-77.0456384, 38.9183674], [-77.0456679, 38.9183558], [-77.045678, 38.9183558], [-77.0456974, 38.9183861]]], [[[-77.0458248, 38.9185583], [-77.0458627, 38.9186274], [-77.0458544, 38.9186318], [-77.0458323, 38.9186368], [-77.0458203, 38.9186347], [-77.0458101, 38.9186095], [-77.0457972, 38.9185986], [-77.0457889, 38.9185633], [-77.045751, 38.9185021], [-77.0457427, 38.9184733], [-77.0457288, 38.9184553], [-77.045727, 38.9184401], [-77.0457122, 38.9184221], [-77.0456984, 38.9183825], [-77.0457389, 38.9183796], [-77.0457408, 38.918394], [-77.045762, 38.9184214], [-77.0457777, 38.9184567], [-77.0457787, 38.9184646], [-77.0457694, 38.9184668], [-77.045775, 38.9184877], [-77.0457944, 38.9184891], [-77.0458258, 38.9185489], [-77.0458248, 38.9185583]]]]}}, {"type": "Feature", "properties": {"poly_type": "sidewalk", "area_m2": 623.1, "segment_id": null}, "geometry": {"type": "MultiPolygon", "coordinates": [[[[-77.0446562, 38.918865], [-77.0446562, 38.9188715], [-77.0446415, 38.9188766], [-77.0446101, 38.9188722], [-77.0445861, 38.9188477], [-77.0445677, 38.9188456], [-77.0445621, 38.9188333], [-77.0444883, 38.9188233], [-77.0444154, 38.9188233], [-77.0443961, 38.9188175], [-77.0443647, 38.9188212], [-77.0443527, 38.9188154], [-77.0443066, 38.9188118], [-77.0443001, 38.918832], [-77.0442909, 38.9188334], [-77.0442798, 38.918814], [-77.04423, 38.9188155], [-77.044194, 38.9188104], [-77.0441285, 38.9188155], [-77.0440852, 38.9188061], [-77.0440464, 38.9188069], [-77.0440464, 38.9187362], [-77.044063, 38.9187427], [-77.0440768, 38.9187586], [-77.0441045, 38.9187636], [-77.0441331, 38.9187759], [-77.0441811, 38.9187722], [-77.0441986, 38.9187787], [-77.0442604, 38.918783], [-77.0443075, 38.9187816], [-77.0443204, 38.9187751], [-77.0443398, 38.9187794], [-77.0443628, 38.918775], [-77.0443831, 38.9187801], [-77.0444163, 38.9187786], [-77.0444772, 38.9187844], [-77.0445132, 38.9187757], [-77.044527, 38.9187663], [-77.0445289, 38.9187498], [-77.044551, 38.9187469], [-77.0445565, 38.9187634], [-77.0445953, 38.9187677], [-77.044599, 38.9187778], [-77.0446101, 38.918785], [-77.0446101, 38.9187958], [-77.0446175, 38.9188052], [-77.0446294, 38.9188059], [-77.0446359, 38.918811], [-77.0446433, 38.9188297], [-77.0446313, 38.9188348], [-77.0446313, 38.9188412], [-77.0446562, 38.918865]]], [[[-77.0445398, 38.9185977], [-77.0445583, 38.918669], [-77.0445491, 38.9186834], [-77.0445334, 38.9186964], [-77.0445095, 38.9187036], [-77.0444089, 38.9187037], [-77.0443923, 38.9187123], [-77.044325, 38.9187037], [-77.0442862, 38.9187109], [-77.0442751, 38.9187045], [-77.044229, 38.9187016], [-77.0442235, 38.9186872], [-77.0441958, 38.9186865], [-77.044194, 38.9187023], [-77.0441709, 38.9187095], [-77.0441063, 38.9187038], [-77.0440713, 38.9187038], [-77.0440464, 38.9187089], [-77.0440463, 38.9186707], [-77.0440842, 38.9186699], [-77.0441026, 38.9186649], [-77.0441681, 38.9186656], [-77.0442262, 38.9186713], [-77.044241, 38.9186692], [-77.0442511, 38.9186569], [-77.0442853, 38.9186533], [-77.0442926, 38.9186598], [-77.0443249, 38.9186634], [-77.0443554, 38.9186605], [-77.0444043, 38.9186698], [-77.0444938, 38.9186705], [-77.0445002, 38.9186546], [-77.0444808, 38.9185999], [-77.0444799, 38.9185754], [-77.0444651, 38.9185502], [-77.0444457, 38.9184911], [-77.044381, 38.9183491], [-77.0443681, 38.9183138], [-77.0443681, 38.918308], [-77.0443801, 38.9183059], [-77.0444133, 38.9183131], [-77.0444133, 38.918321], [-77.044405, 38.9183253], [-77.0444096, 38.9183433], [-77.0444133, 38.9183506], [-77.0444308, 38.9183513], [-77.0444428, 38.9183743], [-77.0444493, 38.9183959], [-77.0444392, 38.9183995], [-77.0444419, 38.9184111], [-77.0444484, 38.918424], [-77.0444613, 38.9184233], [-77.0444669, 38.9184305], [-77.0444816, 38.9184694], [-77.044478, 38.9184954], [-77.0444909, 38.9184954], [-77.044501, 38.9185119], [-77.0445149, 38.9185451], [-77.0445112, 38.918571], [-77.0445269, 38.9185761], [-77.0445398, 38.9185977]]], [[[-77.0440538, 38.9187197], [-77.0440538, 38.9187283], [-77.0440464, 38.918729], [-77.0440464, 38.9187153], [-77.0440538, 38.9187197]]]]}}, {"type": "Feature", "properties": {"poly_type": "sidewalk", "area_m2": 166.57, "segment_id": null}, "geometry": {"type": "Polygon", "coordinates": [[[-77.0457149, 38.9183371], [-77.0457057, 38.918345], [-77.0456799, 38.9183493], [-77.0456596, 38.9183061], [-77.0456476, 38.918304], [-77.0455563, 38.9183328], [-77.0455406, 38.9183436], [-77.0455046, 38.9183552], [-77.0454622, 38.918361], [-77.0454484, 38.9183747], [-77.0453561, 38.918397], [-77.0453368, 38.9184129], [-77.0453128, 38.9184223], [-77.0452888, 38.9184619], [-77.0452611, 38.9184497], [-77.0452768, 38.9184237], [-77.0452768, 38.9184151], [-77.0452888, 38.9184093], [-77.0453017, 38.9183898], [-77.0453229, 38.9183747], [-77.0453948, 38.9183516], [-77.0453958, 38.9183473], [-77.0454566, 38.9183307], [-77.0454658, 38.9183242], [-77.045511, 38.9183163], [-77.0456208, 38.918278], [-77.0456512, 38.918273], [-77.045678, 38.9182758], [-77.0456881, 38.9182917], [-77.0457057, 38.9182953], [-77.0457066, 38.9183191], [-77.0457149, 38.9183371]]]}}, {"type": "Feature", "properties": {"poly_type": "sidewalk", "area_m2": 543.71, "segment_id": null}, "geometry": {"type": "Polygon", "coordinates": [[[-77.046426, 38.9180651], [-77.0463891, 38.9180759], [-77.0463817, 38.9180853], [-77.046343, 38.9180918], [-77.046331, 38.9180976], [-77.0463135, 38.9181156], [-77.0463116, 38.9181329], [-77.0463015, 38.9181459], [-77.0462914, 38.9181862], [-77.046249, 38.9182057], [-77.0462416, 38.9182273], [-77.0461899, 38.9182209], [-77.046141, 38.9182202], [-77.046118, 38.9182014], [-77.0460755, 38.9182108], [-77.0460571, 38.918187], [-77.0460423, 38.9181849], [-77.0459888, 38.9182029], [-77.0459695, 38.9182051], [-77.0459169, 38.9182275], [-77.0458274, 38.9182491], [-77.0458394, 38.9182873], [-77.0458644, 38.9183233], [-77.0458708, 38.9183442], [-77.0459207, 38.9184372], [-77.0459355, 38.9184408], [-77.0459355, 38.9184458], [-77.0459438, 38.9184487], [-77.045954, 38.9184912], [-77.0459521, 38.9185042], [-77.0459669, 38.9185359], [-77.0459937, 38.918564], [-77.0459928, 38.9185762], [-77.0459734, 38.9185705], [-77.0459706, 38.9185813], [-77.0459605, 38.9185798], [-77.045906, 38.9185064], [-77.0458857, 38.9184559], [-77.0458847, 38.9184422], [-77.045857, 38.918404], [-77.045845, 38.9183666], [-77.0458284, 38.9183478], [-77.0458053, 38.9182916], [-77.0458016, 38.9182859], [-77.0457859, 38.918283], [-77.0457841, 38.9182419], [-77.0457887, 38.9182333], [-77.0458578, 38.9182073], [-77.0458624, 38.9182015], [-77.0458717, 38.9182015], [-77.0458837, 38.9181914], [-77.0459279, 38.9181849], [-77.045975, 38.9181705], [-77.0459823, 38.9181705], [-77.0459833, 38.9181777], [-77.0459971, 38.9181755], [-77.046022, 38.9181611], [-77.0460285, 38.9181525], [-77.0460912, 38.918133], [-77.0461188, 38.9181186], [-77.0461493, 38.9181092], [-77.0461705, 38.9180919], [-77.046247, 38.9180774], [-77.0463457, 38.9180464], [-77.0463752, 38.9180464], [-77.046402, 38.918037], [-77.0464158, 38.9180399], [-77.046426, 38.9180651]]]}}, {"type": "Feature", "properties": {"poly_type": "sidewalk", "area_m2": 195.93, "segment_id": null}, "geometry": {"type": "Polygon", "coordinates": [[[-77.0456161, 38.9181332], [-77.0456087, 38.918144], [-77.0455967, 38.9181411], [-77.0455746, 38.9181462], [-77.0455561, 38.918144], [-77.0455377, 38.9181606], [-77.0455008, 38.9181692], [-77.0454814, 38.9181873], [-77.0454759, 38.9181988], [-77.0454556, 38.9182103], [-77.0454538, 38.9182233], [-77.0454621, 38.9182406], [-77.0454363, 38.9182406], [-77.0454169, 38.918224], [-77.0454132, 38.9182089], [-77.0454371, 38.9181664], [-77.0454464, 38.9181383], [-77.0454685, 38.9181109], [-77.0454749, 38.9180727], [-77.0454896, 38.9180366], [-77.0455256, 38.9180085], [-77.0455348, 38.9180114], [-77.0455441, 38.9180237], [-77.0455588, 38.9180236], [-77.0455736, 38.9180417], [-77.0455865, 38.9180453], [-77.0455865, 38.9180748], [-77.0455967, 38.9180892], [-77.0455995, 38.9181043], [-77.0455958, 38.918126], [-77.0456106, 38.918126], [-77.0456106, 38.9181332], [-77.0456161, 38.9181332]]]}}, {"type": "Feature", "properties": {"poly_type": "sidewalk", "area_m2": 23.55, "segment_id": null}, "geometry": {"type": "Polygon", "coordinates": [[[-77.0465689, 38.9180211], [-77.0465127, 38.9180384], [-77.046497, 38.9180363], [-77.0464905, 38.9180276], [-77.0464915, 38.9180175], [-77.0465053, 38.9180125], [-77.0465071, 38.918006], [-77.0465496, 38.9179887], [-77.0465569, 38.9179894], [-77.0465662, 38.917998], [-77.0465689, 38.9180211]]]}}, {"type": "Feature", "properties": {"poly_type": "sidewalk", "area_m2": 21.31, "segment_id": null}, "geometry": {"type": "Polygon", "coordinates": [[[-77.0463586, 38.917965], [-77.0463032, 38.9179794], [-77.0462876, 38.9179679], [-77.0462848, 38.9179563], [-77.0463318, 38.917934], [-77.0463456, 38.9179318], [-77.0463577, 38.9179477], [-77.0463586, 38.917965]]]}}, {"type": "Feature", "properties": {"poly_type": "sidewalk", "area_m2": 4.72, "segment_id": null}, "geometry": {"type": "Polygon", "coordinates": [[[-77.0455413, 38.9180006], [-77.0455938, 38.9179184], [-77.045592, 38.9179105], [-77.0455404, 38.9179941], [-77.0455413, 38.9180006]]]}}, {"type": "Feature", "properties": {"poly_type": "sidewalk", "area_m2": 83.58, "segment_id": null}, "geometry": {"type": "Polygon", "coordinates": [[[-77.0468798, 38.9179287], [-77.0468447, 38.9179295], [-77.0467977, 38.9179259], [-77.0467894, 38.9179208], [-77.046758, 38.9179208], [-77.0467506, 38.9179511], [-77.046735, 38.9179648], [-77.046711, 38.91798], [-77.046652, 38.9179973], [-77.046639, 38.9179973], [-77.0466344, 38.9179807], [-77.0466178, 38.9179735], [-77.0466252, 38.9179641], [-77.0466787, 38.9179418], [-77.0467156, 38.9179353], [-77.0467202, 38.9179309], [-77.0467174, 38.9179086], [-77.0467248, 38.9179043], [-77.0467875, 38.9179143], [-77.0468216, 38.9178985], [-77.0468558, 38.9178963], [-77.0468797, 38.9178999], [-77.0468798, 38.9179287]]]}}, {"type": "Feature", "properties": {"poly_type": "sidewalk", "area_m2": 0.0, "segment_id": null}, "geometry": {"type": "Polygon", "coordinates": [[[-77.0443364, 38.9178908], [-77.0443374, 38.9178901], [-77.0443364, 38.9178901], [-77.0443364, 38.9178908]]]}}, {"type": "Feature", "properties": {"poly_type": "sidewalk", "area_m2": 0.0, "segment_id": null}, "geometry": {"type": "Polygon", "coordinates": [[[-77.0443355, 38.9178901], [-77.0443364, 38.9178894], [-77.0443355, 38.9178894], [-77.0443355, 38.9178901]]]}}, {"type": "Feature", "properties": {"poly_type": "sidewalk", "area_m2": 276.52, "segment_id": null}, "geometry": {"type": "Polygon", "coordinates": [[[-77.0443911, 38.9182381], [-77.0443865, 38.9182446], [-77.0443708, 38.9182439], [-77.0443431, 38.9182655], [-77.0443348, 38.9182648], [-77.04432, 38.9182036], [-77.0442942, 38.9181531], [-77.0442859, 38.9181229], [-77.0442766, 38.9181149], [-77.044248, 38.9181121], [-77.0442453, 38.9181049], [-77.0442563, 38.9180998], [-77.0442572, 38.9180905], [-77.0442462, 38.9180796], [-77.0442222, 38.9180761], [-77.0442222, 38.9180609], [-77.0442397, 38.9180551], [-77.0442452, 38.9180378], [-77.0442369, 38.9180299], [-77.0442304, 38.9180299], [-77.0442203, 38.9180314], [-77.0442166, 38.9180458], [-77.0442028, 38.9180429], [-77.0442037, 38.9180285], [-77.0442166, 38.9180249], [-77.0442184, 38.9180098], [-77.0442046, 38.9179564], [-77.0441972, 38.9179492], [-77.0441972, 38.9179435], [-77.0442092, 38.9179362], [-77.0442064, 38.9179168], [-77.0441575, 38.9179002], [-77.0441529, 38.9178923], [-77.0440459, 38.9178916], [-77.0440458, 38.9178657], [-77.0440606, 38.9178621], [-77.0441187, 38.9178613], [-77.0441833, 38.9178627], [-77.0441981, 38.9178671], [-77.044246, 38.9178634], [-77.0442756, 38.9178822], [-77.0442737, 38.9179016], [-77.0442571, 38.9179117], [-77.0442534, 38.9179341], [-77.0442627, 38.917942], [-77.0442645, 38.9179629], [-77.0442821, 38.9179989], [-77.044295, 38.9180133], [-77.0442932, 38.9180681], [-77.0443218, 38.9180868], [-77.0443311, 38.9181229], [-77.0443421, 38.9181286], [-77.0443477, 38.9181675], [-77.0443606, 38.9181949], [-77.044368, 38.9181992], [-77.0443726, 38.9182144], [-77.0443911, 38.9182381]]]}}, {"type": "Feature", "properties": {"poly_type": "sidewalk", "area_m2": 0.0, "segment_id": null}, "geometry": {"type": "Polygon", "coordinates": [[[-77.0441187, 38.9177849], [-77.0441196, 38.9177842], [-77.0441187, 38.9177842], [-77.0441187, 38.9177849]]]}}, {"type": "Feature", "properties": {"poly_type": "sidewalk", "area_m2": 272.78, "segment_id": null}, "geometry": {"type": "Polygon", "coordinates": [[[-77.0468797, 38.9178062], [-77.0468105, 38.9178264], [-77.0468022, 38.9178257], [-77.0467994, 38.9178178], [-77.046781, 38.9178207], [-77.046769, 38.9178257], [-77.0467672, 38.9178387], [-77.0467174, 38.9178538], [-77.0467045, 38.9178639], [-77.0466574, 38.9178827], [-77.0466261, 38.9178841], [-77.0466002, 38.917895], [-77.0465799, 38.9179108], [-77.0465449, 38.9179202], [-77.0465292, 38.917931], [-77.0464536, 38.9179383], [-77.0464112, 38.9179534], [-77.0463973, 38.9179534], [-77.0463872, 38.9179361], [-77.0463853, 38.9179239], [-77.0463982, 38.9178979], [-77.046437, 38.9179051], [-77.0464858, 38.9179029], [-77.0465024, 38.9178964], [-77.0465034, 38.9178727], [-77.0465421, 38.9178719], [-77.0465735, 38.9178589], [-77.0466196, 38.9178524], [-77.0466417, 38.9178373], [-77.0466887, 38.9178301], [-77.0466869, 38.9177984], [-77.0466989, 38.9177753], [-77.0466822, 38.9177616], [-77.0466795, 38.9177479], [-77.0466601, 38.917745], [-77.0466472, 38.9177177], [-77.0466776, 38.9177083], [-77.0466711, 38.9177148], [-77.046673, 38.9177205], [-77.0466979, 38.9177227], [-77.0467136, 38.9177119], [-77.0467053, 38.9176989], [-77.0467209, 38.917691], [-77.0467357, 38.9176895], [-77.0467412, 38.9176946], [-77.046732, 38.9177263], [-77.0467431, 38.91774], [-77.0467487, 38.9177616], [-77.0467791, 38.9177709], [-77.046792, 38.9177846], [-77.0467948, 38.9177962], [-77.046828, 38.9177882], [-77.0468437, 38.9177781], [-77.0468797, 38.9177658], [-77.0468797, 38.9178062]], [[-77.0467505, 38.9177926], [-77.0467459, 38.9177825], [-77.0467312, 38.9177803], [-77.0467136, 38.9177897], [-77.0467109, 38.9177991], [-77.046721, 38.9178034], [-77.0467505, 38.9177926]]]}}, {"type": "Feature", "properties": {"poly_type": "sidewalk", "area_m2": 75.7, "segment_id": null}, "geometry": {"type": "Polygon", "coordinates": [[[-77.0441657, 38.917764], [-77.0441565, 38.9177727], [-77.0441187, 38.9177828], [-77.0440458, 38.9177814], [-77.0440458, 38.9177533], [-77.0441187, 38.9177525], [-77.0440826, 38.9176574], [-77.0441306, 38.9176574], [-77.0441638, 38.9177402], [-77.0441657, 38.917764]]]}}, {"type": "Feature", "properties": {"poly_type": "sidewalk", "area_m2": 4.04, "segment_id": null}, "geometry": {"type": "Polygon", "coordinates": [[[-77.0455568, 38.917677], [-77.0455475, 38.9176806], [-77.0455337, 38.9176676], [-77.0455309, 38.9176568], [-77.0455531, 38.9176568], [-77.0455568, 38.917677]]]}}, {"type": "Feature", "properties": {"poly_type": "sidewalk", "area_m2": 1397.38, "segment_id": null}, "geometry": {"type": "Polygon", "coordinates": [[[-77.0455374, 38.9177087], [-77.0455374, 38.9177181], [-77.0455171, 38.9177585], [-77.0455024, 38.9177671], [-77.0455024, 38.9177729], [-77.0454886, 38.9177786], [-77.0454655, 38.917814], [-77.04546, 38.9178342], [-77.045448, 38.9178515], [-77.0454536, 38.917868], [-77.045448, 38.917894], [-77.0454075, 38.9179444], [-77.0453826, 38.917956], [-77.0453798, 38.9179675], [-77.0453632, 38.9179805], [-77.0453568, 38.9179963], [-77.0453439, 38.9180086], [-77.0452821, 38.9181131], [-77.0452582, 38.9181261], [-77.0452573, 38.918152], [-77.0451881, 38.9182602], [-77.0451881, 38.918271], [-77.0451762, 38.9182746], [-77.0451651, 38.9182854], [-77.0451485, 38.9183279], [-77.0451421, 38.9183279], [-77.0451328, 38.9183373], [-77.0450987, 38.9184007], [-77.0450499, 38.9184238], [-77.045037, 38.9184526], [-77.0449853, 38.9184873], [-77.0449613, 38.918493], [-77.0449208, 38.9184938], [-77.0448239, 38.9185486], [-77.0448156, 38.9185486], [-77.0448138, 38.9185356], [-77.0448046, 38.9185363], [-77.0447714, 38.9185544], [-77.0447778, 38.9185645], [-77.0447852, 38.9185644], [-77.0447778, 38.9185738], [-77.0447096, 38.9186063], [-77.0446773, 38.9186077], [-77.0446607, 38.9186012], [-77.0446358, 38.9185782], [-77.0445979, 38.9184925], [-77.044597, 38.9184816], [-77.0446071, 38.918478], [-77.0446071, 38.9184672], [-77.0445997, 38.9184615], [-77.044584, 38.9184607], [-77.0445785, 38.9184406], [-77.0445702, 38.9184384], [-77.0445609, 38.9184276], [-77.0445526, 38.9183952], [-77.0445305, 38.9183599], [-77.0445268, 38.9183397], [-77.044512, 38.9183166], [-77.0445092, 38.9182784], [-77.0444575, 38.9182114], [-77.0444658, 38.9181833], [-77.0444528, 38.9181545], [-77.0444528, 38.918143], [-77.0444344, 38.9181163], [-77.0444122, 38.9180551], [-77.0444011, 38.9180414], [-77.044378, 38.9179765], [-77.0443466, 38.9179139], [-77.0443374, 38.9178793], [-77.0442884, 38.9177798], [-77.0442838, 38.9177597], [-77.0442958, 38.9177589], [-77.0442939, 38.9177409], [-77.0442764, 38.9177388], [-77.0442607, 38.9176998], [-77.0442524, 38.9176984], [-77.0442542, 38.9176573], [-77.0443252, 38.9176573], [-77.0443096, 38.9177099], [-77.0443438, 38.9177877], [-77.0443844, 38.9177863], [-77.0443936, 38.917792], [-77.0443954, 38.9178093], [-77.044377, 38.9178288], [-77.0443733, 38.9178425], [-77.0443964, 38.9178814], [-77.0443927, 38.917898], [-77.0444001, 38.9179239], [-77.0444149, 38.9179354], [-77.0444426, 38.9179304], [-77.0444582, 38.9179318], [-77.0444555, 38.9179578], [-77.0444656, 38.9179751], [-77.0444638, 38.9179837], [-77.0444509, 38.9179844], [-77.0444324, 38.9179535], [-77.0444195, 38.9179513], [-77.0444167, 38.9179585], [-77.044426, 38.9179801], [-77.0444518, 38.9180219], [-77.0444592, 38.9180262], [-77.0444851, 38.9180248], [-77.0445017, 38.9180313], [-77.0445174, 38.9180572], [-77.0445155, 38.9180702], [-77.0444795, 38.918076], [-77.0444823, 38.9180976], [-77.0444962, 38.9181163], [-77.0444953, 38.9181437], [-77.0445027, 38.9181495], [-77.0445331, 38.9181566], [-77.0445543, 38.9181574], [-77.0445516, 38.9181833], [-77.044559, 38.9181941], [-77.0445562, 38.9182229], [-77.0445719, 38.9182727], [-77.0445904, 38.9183051], [-77.0445849, 38.9183245], [-77.0446079, 38.9183382], [-77.0446218, 38.9183526], [-77.044619, 38.9183879], [-77.0446264, 38.9183952], [-77.0446725, 38.9183951], [-77.0446707, 38.9184088], [-77.044679, 38.9184391], [-77.0446606, 38.9184593], [-77.0446412, 38.9184658], [-77.0446449, 38.9184809], [-77.0446495, 38.9184903], [-77.0446662, 38.9184982], [-77.0446892, 38.9185047], [-77.0447067, 38.9185025], [-77.044716, 38.9185191], [-77.0447289, 38.9185169], [-77.0447473, 38.9185046], [-77.0448091, 38.9184794], [-77.04487, 38.9184397], [-77.0448709, 38.9184246], [-77.0448986, 38.9184217], [-77.0449382, 38.9184037], [-77.0449456, 38.9184073], [-77.0449604, 38.9184051], [-77.0449678, 38.9184094], [-77.0450019, 38.9183856], [-77.0450074, 38.9183856], [-77.0450083, 38.918395], [-77.0450185, 38.918395], [-77.0450471, 38.9183914], [-77.0450609, 38.918382], [-77.0450978, 38.9183294], [-77.0451088, 38.9183215], [-77.0451282, 38.9182681], [-77.0451494, 38.9182508], [-77.0451623, 38.9182328], [-77.0451623, 38.9182278], [-77.0451494, 38.9182177], [-77.0451328, 38.9182105], [-77.0451337, 38.9181982], [-77.0451512, 38.9181665], [-77.0451696, 38.9181564], [-77.0451918, 38.918165], [-77.0452111, 38.9181614], [-77.0452508, 38.9180879], [-77.0452609, 38.9180778], [-77.0452627, 38.9180663], [-77.0452756, 38.9180605], [-77.0452812, 38.9180432], [-77.0453042, 38.9180165], [-77.0453107, 38.9179827], [-77.0452968, 38.9179553], [-77.0453005, 38.9179351], [-77.0452608, 38.9179301], [-77.0452553, 38.9179214], [-77.045258, 38.9179106], [-77.0453623, 38.9179048], [-77.0453789, 38.9178918], [-77.0453853, 38.9178731], [-77.0454047, 38.9178515], [-77.0454019, 38.917845], [-77.0453604, 38.9178428], [-77.0453428, 38.9178371], [-77.0453474, 38.9177708], [-77.0453862, 38.9177621], [-77.0453972, 38.9177484], [-77.0454415, 38.9177498], [-77.0454479, 38.9177369], [-77.0454618, 38.9177297], [-77.0454673, 38.9177181], [-77.0454959, 38.9177087], [-77.0455014, 38.9177023], [-77.0455282, 38.9176986], [-77.0455374, 38.9177087]]]}}, {"type": "Feature", "properties": {"poly_type": "sidewalk", "area_m2": 2.7, "segment_id": null}, "geometry": {"type": "Polygon", "coordinates": [[[-77.045506, 38.917659], [-77.0455051, 38.9176662], [-77.0454959, 38.9176705], [-77.0454783, 38.9176662], [-77.0454793, 38.9176569], [-77.045506, 38.917659]]]}}, {"type": "Feature", "properties": {"poly_type": "sidewalk", "area_m2": 474.65, "segment_id": null}, "geometry": {"type": "MultiPolygon", "coordinates": [[[[-77.0459767, 38.9180523], [-77.0459592, 38.9180725], [-77.0459509, 38.918092], [-77.0459122, 38.9181013], [-77.0459039, 38.9181093], [-77.0458532, 38.918128], [-77.0458421, 38.9181417], [-77.0458089, 38.9181417], [-77.0457904, 38.9181374], [-77.0457591, 38.9181497], [-77.0457443, 38.9181511], [-77.0457314, 38.9181454], [-77.0457176, 38.9181137], [-77.0456899, 38.9181173], [-77.045689, 38.9181086], [-77.0457, 38.9180985], [-77.0456982, 38.9180791], [-77.0456769, 38.9180286], [-77.0456594, 38.9180027], [-77.0456308, 38.917984], [-77.0456308, 38.9179797], [-77.0456243, 38.9179797], [-77.0456261, 38.9179689], [-77.0456381, 38.917953], [-77.0456169, 38.9179235], [-77.0456095, 38.9178946], [-77.0456279, 38.9178752], [-77.0456583, 38.9178161], [-77.0457274, 38.9177087], [-77.0457293, 38.9176885], [-77.0457247, 38.9176791], [-77.0457339, 38.9176568], [-77.0457892, 38.9176567], [-77.0457828, 38.9176971], [-77.0457754, 38.9177101], [-77.0457754, 38.9177194], [-77.0457865, 38.9177346], [-77.0457579, 38.9177418], [-77.0457413, 38.917754], [-77.0457376, 38.9177721], [-77.0457524, 38.9177814], [-77.0457524, 38.9177858], [-77.0457349, 38.9177829], [-77.0457312, 38.917793], [-77.0457118, 38.9178002], [-77.0457008, 38.9178168], [-77.0457026, 38.9178297], [-77.0457248, 38.917847], [-77.0457441, 38.9178477], [-77.0457607, 38.9178571], [-77.0457626, 38.9178794], [-77.0457506, 38.9178816], [-77.0457368, 38.9178658], [-77.0456796, 38.9178463], [-77.0456501, 38.9178961], [-77.0456492, 38.9179076], [-77.0456907, 38.9179832], [-77.0457055, 38.9179955], [-77.0457258, 38.9179998], [-77.0457406, 38.9180207], [-77.0457415, 38.9180272], [-77.0457323, 38.9180315], [-77.0457286, 38.9180423], [-77.0457277, 38.9180618], [-77.0457498, 38.918105], [-77.0457655, 38.9181165], [-77.0457849, 38.9181144], [-77.0458098, 38.9180913], [-77.0458393, 38.9180884], [-77.0459076, 38.9180639], [-77.0459066, 38.9180487], [-77.045926, 38.9180415], [-77.0459334, 38.9180415], [-77.0459371, 38.9180473], [-77.0459647, 38.918048], [-77.0459767, 38.9180523]]], [[[-77.0462378, 38.917983], [-77.0462313, 38.9180046], [-77.046199, 38.9180126], [-77.0461963, 38.9180025], [-77.0461843, 38.9180032], [-77.0461594, 38.9180126], [-77.0461594, 38.918027], [-77.0460884, 38.9180487], [-77.0460662, 38.9180616], [-77.0460505, 38.9180609], [-77.046033, 38.9180696], [-77.0460136, 38.9180703], [-77.0459933, 38.9180653], [-77.045985, 38.918053], [-77.0459924, 38.9180494], [-77.0459961, 38.9180379], [-77.0459804, 38.9180292], [-77.0459527, 38.9180285], [-77.0459352, 38.9180343], [-77.045938, 38.9180228], [-77.0459749, 38.9180076], [-77.0460431, 38.9179917], [-77.0460514, 38.9179795], [-77.0460671, 38.9179744], [-77.0460782, 38.9179744], [-77.0460837, 38.9179824], [-77.0461095, 38.917991], [-77.0461409, 38.9179924], [-77.0461557, 38.9179874], [-77.0461575, 38.9179722], [-77.0462193, 38.9179564], [-77.0462378, 38.917983]]]]}}, {"type": "Feature", "properties": {"poly_type": "midblock", "area_m2": 26.72, "segment_id": null}, "geometry": {"type": "Polygon", "coordinates": [[[-77.0463763, 38.9196333], [-77.0463874, 38.9196592], [-77.0463652, 38.9196585], [-77.0463477, 38.9196629], [-77.0463348, 38.9196355], [-77.0463246, 38.9196304], [-77.0463181, 38.9196045], [-77.0463301, 38.919603], [-77.0463366, 38.9195966], [-77.0463633, 38.9196023], [-77.0463735, 38.9196117], [-77.0463763, 38.9196333]]]}}, {"type": "Feature", "properties": {"poly_type": "midblock", "area_m2": 9.22, "segment_id": null}, "geometry": {"type": "Polygon", "coordinates": [[[-77.0454397, 38.9193288], [-77.0454296, 38.9193706], [-77.0454149, 38.9193706], [-77.0454065, 38.9193324], [-77.0454397, 38.9193288]]]}}, {"type": "Feature", "properties": {"poly_type": "midblock", "area_m2": 43.6, "segment_id": null}, "geometry": {"type": "Polygon", "coordinates": [[[-77.0446112, 38.9191655], [-77.0446075, 38.9191821], [-77.0445596, 38.9192456], [-77.0445532, 38.9192448], [-77.0445439, 38.9192326], [-77.044519, 38.9192333], [-77.0445291, 38.9192131], [-77.0445319, 38.9191843], [-77.0445374, 38.9191793], [-77.0445614, 38.9191771], [-77.0445697, 38.9191497], [-77.0445817, 38.9191497], [-77.0445918, 38.9191591], [-77.0446112, 38.9191655]]]}}, {"type": "Feature", "properties": {"poly_type": "midblock", "area_m2": 13.27, "segment_id": null}, "geometry": {"type": "Polygon", "coordinates": [[[-77.0446664, 38.9188989], [-77.0446489, 38.9188996], [-77.0446424, 38.9189083], [-77.0446258, 38.918909], [-77.0446194, 38.9189018], [-77.044612, 38.918873], [-77.0446313, 38.9188766], [-77.0446581, 38.9188729], [-77.0446664, 38.9188989]]]}}, {"type": "Feature", "properties": {"poly_type": "midblock", "area_m2": 22.84, "segment_id": null}, "geometry": {"type": "Polygon", "coordinates": [[[-77.045908, 38.9187089], [-77.0459301, 38.9187557], [-77.04592, 38.9187571], [-77.0459025, 38.9187694], [-77.0458748, 38.9187651], [-77.0458683, 38.918737], [-77.0458849, 38.918719], [-77.045908, 38.9187089]]]}}, {"type": "Feature", "properties": {"poly_type": "midblock", "area_m2": 23.96, "segment_id": null}, "geometry": {"type": "Polygon", "coordinates": [[[-77.0458886, 38.9186786], [-77.0458664, 38.9186801], [-77.0458563, 38.9186865], [-77.0458378, 38.9186866], [-77.0458286, 38.9186621], [-77.0458277, 38.9186368], [-77.0458664, 38.9186282], [-77.0458886, 38.9186786]]]}}, {"type": "Feature", "properties": {"poly_type": "midblock", "area_m2": 25.39, "segment_id": null}, "geometry": {"type": "Polygon", "coordinates": [[[-77.0459928, 38.918577], [-77.0460112, 38.9186231], [-77.0459882, 38.9186296], [-77.0459854, 38.9186411], [-77.0459753, 38.9186418], [-77.0459374, 38.9185561], [-77.0459475, 38.9185597], [-77.0459522, 38.9185726], [-77.0459642, 38.9185813], [-77.0459734, 38.9185791], [-77.0459734, 38.9185705], [-77.0459928, 38.918577]]]}}, {"type": "Feature", "properties": {"poly_type": "midblock", "area_m2": 13.05, "segment_id": null}, "geometry": {"type": "Polygon", "coordinates": [[[-77.0452861, 38.9184662], [-77.0452667, 38.9184958], [-77.0452335, 38.9184922], [-77.0452574, 38.9184511], [-77.0452805, 38.918459], [-77.0452861, 38.9184662]]]}}, {"type": "Feature", "properties": {"poly_type": "midblock", "area_m2": 16.37, "segment_id": null}, "geometry": {"type": "Polygon", "coordinates": [[[-77.045738, 38.9183781], [-77.0456974, 38.9183825], [-77.0456836, 38.9183695], [-77.0456808, 38.9183515], [-77.0457195, 38.9183371], [-77.045738, 38.9183781]]]}}, {"type": "Feature", "properties": {"poly_type": "midblock", "area_m2": 26.16, "segment_id": null}, "geometry": {"type": "Polygon", "coordinates": [[[-77.0444096, 38.9183095], [-77.0443957, 38.9183116], [-77.0443874, 38.9183059], [-77.0443662, 38.9183073], [-77.0443542, 38.9182857], [-77.0443459, 38.91828], [-77.0443431, 38.9182634], [-77.0443607, 38.9182547], [-77.0443708, 38.9182439], [-77.0443865, 38.9182453], [-77.0444096, 38.9183095]]]}}, {"type": "Feature", "properties": {"poly_type": "midblock", "area_m2": 10.11, "segment_id": null}, "geometry": {"type": "Polygon", "coordinates": [[[-77.0460136, 38.9180696], [-77.045986, 38.9180833], [-77.0459528, 38.9180905], [-77.0459592, 38.9180725], [-77.045974, 38.9180566], [-77.0459878, 38.9180574], [-77.0459933, 38.9180653], [-77.0460044, 38.9180653], [-77.0460136, 38.9180696]]]}}, {"type": "Feature", "properties": {"poly_type": "midblock", "area_m2": 26.71, "segment_id": null}, "geometry": {"type": "Polygon", "coordinates": [[[-77.0465053, 38.9180067], [-77.0465053, 38.9180125], [-77.0464905, 38.918019], [-77.0464942, 38.9180341], [-77.0465053, 38.9180377], [-77.0465053, 38.9180413], [-77.0464813, 38.9180471], [-77.046473, 38.918055], [-77.046426, 38.9180629], [-77.0464177, 38.918042], [-77.0464112, 38.9180384], [-77.0464131, 38.9180334], [-77.0465053, 38.9180067]]]}}, {"type": "Feature", "properties": {"poly_type": "midblock", "area_m2": 0.01, "segment_id": null}, "geometry": {"type": "Polygon", "coordinates": [[[-77.0465099, 38.9180045], [-77.0465117, 38.9180038], [-77.0465099, 38.9180038], [-77.0465099, 38.9180045]]]}}, {"type": "Feature", "properties": {"poly_type": "midblock", "area_m2": 20.38, "segment_id": null}, "geometry": {"type": "Polygon", "coordinates": [[[-77.0466344, 38.9179807], [-77.0466372, 38.917998], [-77.0466261, 38.918003], [-77.0465689, 38.9180175], [-77.0465671, 38.9180002], [-77.0465579, 38.9179879], [-77.0466187, 38.9179735], [-77.0466344, 38.9179807]]]}}, {"type": "Feature", "properties": {"poly_type": "midblock", "area_m2": 19.02, "segment_id": null}, "geometry": {"type": "Polygon", "coordinates": [[[-77.0463032, 38.9179787], [-77.0462959, 38.9179859], [-77.0462359, 38.9180025], [-77.0462387, 38.9179866], [-77.0462322, 38.9179715], [-77.0462377, 38.9179701], [-77.0462387, 38.9179628], [-77.0462829, 38.9179563], [-77.0462876, 38.9179679], [-77.0463032, 38.9179787]]]}}, {"type": "Feature", "properties": {"poly_type": "midblock", "area_m2": 10.63, "segment_id": null}, "geometry": {"type": "Polygon", "coordinates": [[[-77.0463955, 38.9179549], [-77.0463595, 38.9179642], [-77.0463521, 38.9179347], [-77.0463853, 38.9179253], [-77.0463955, 38.9179549]]]}}, {"type": "Feature", "properties": {"poly_type": "midblock", "area_m2": 16.96, "segment_id": null}, "geometry": {"type": "Polygon", "coordinates": [[[-77.0455522, 38.9176821], [-77.045542, 38.9177066], [-77.0455282, 38.9176986], [-77.0455005, 38.9177015], [-77.0455042, 38.9176763], [-77.0454968, 38.9176698], [-77.0455051, 38.9176662], [-77.045506, 38.9176568], [-77.04553, 38.9176568], [-77.0455337, 38.9176676], [-77.0455522, 38.9176821]]]}}, {"type": "Feature", "properties": {"poly_type": "crosswalk", "area_m2": 94.4, "segment_id": 1}, "geometry": {"type": "Polygon", "coordinates": [[[-77.0444833, 38.9196881], [-77.0444391, 38.9197421], [-77.0442859, 38.9197501], [-77.0442444, 38.9197574], [-77.0442573, 38.9197156], [-77.0442712, 38.9197047], [-77.0443376, 38.9197018], [-77.0443376, 38.9196982], [-77.0443634, 38.9196925], [-77.0443708, 38.9196924], [-77.0443745, 38.9196989], [-77.0443892, 38.9196989], [-77.0444483, 38.9196953], [-77.0444833, 38.9196881]]]}}, {"type": "Feature", "properties": {"poly_type": "crosswalk", "area_m2": 52.36, "segment_id": 2}, "geometry": {"type": "Polygon", "coordinates": [[[-77.0443098, 38.919624], [-77.0443025, 38.9196255], [-77.044296, 38.9196355], [-77.044273, 38.9196997], [-77.0442582, 38.9197127], [-77.0442398, 38.9197047], [-77.0441909, 38.9197026], [-77.0441909, 38.9196983], [-77.044213, 38.9196932], [-77.044237, 38.9196363], [-77.0442379, 38.9196255], [-77.0442324, 38.9196255], [-77.0442324, 38.9196212], [-77.0443108, 38.9196197], [-77.0443098, 38.919624]]]}}, {"type": "Feature", "properties": {"poly_type": "crosswalk", "area_m2": 58.12, "segment_id": 3}, "geometry": {"type": "Polygon", "coordinates": [[[-77.0446161, 38.9195893], [-77.0446115, 38.9195929], [-77.0446115, 38.9196016], [-77.0445737, 38.9196578], [-77.0445719, 38.9196686], [-77.0445626, 38.9196693], [-77.044559, 38.9196794], [-77.0444861, 38.9196888], [-77.0445054, 38.9196679], [-77.0445441, 38.919598], [-77.0445534, 38.9195936], [-77.0446069, 38.9195893], [-77.0446161, 38.9195893]]]}}, {"type": "Feature", "properties": {"poly_type": "crosswalk", "area_m2": 77.51, "segment_id": 4}, "geometry": {"type": "Polygon", "coordinates": [[[-77.0445699, 38.9195353], [-77.0445506, 38.9195756], [-77.0445524, 38.9195922], [-77.044546, 38.9195965], [-77.0443403, 38.9196139], [-77.0443403, 38.9196096], [-77.0443633, 38.919606], [-77.0443809, 38.9195973], [-77.0443818, 38.9195786], [-77.0444011, 38.9195714], [-77.0444067, 38.919562], [-77.0445478, 38.9195519], [-77.0445644, 38.9195353], [-77.0445699, 38.9195353]]]}}, {"type": "Feature", "properties": {"poly_type": "crosswalk", "area_m2": 0.0, "segment_id": 4}, "geometry": {"type": "Polygon", "coordinates": [[[-77.0445727, 38.9195288], [-77.0445736, 38.9195281], [-77.0445727, 38.9195281], [-77.0445727, 38.9195288]]]}}, {"type": "Feature", "properties": {"poly_type": "crosswalk", "area_m2": 50.23, "segment_id": 5}, "geometry": {"type": "Polygon", "coordinates": [[[-77.0450921, 38.9196136], [-77.04507, 38.9196165], [-77.0449897, 38.9196418], [-77.0449787, 38.9196158], [-77.044951, 38.9196029], [-77.044951, 38.9195985], [-77.0449787, 38.9195978], [-77.0450773, 38.9195661], [-77.0450829, 38.9195697], [-77.045081, 38.919587], [-77.0450921, 38.9196136]]]}}, {"type": "Feature", "properties": {"poly_type": "crosswalk", "area_m2": 50.17, "segment_id": 6}, "geometry": {"type": "Polygon", "coordinates": [[[-77.0451299, 38.9195343], [-77.0451281, 38.9195423], [-77.0451022, 38.9195502], [-77.0450875, 38.9195661], [-77.0450792, 38.9195653], [-77.0450764, 38.9195516], [-77.045033, 38.9194717], [-77.0450376, 38.9194681], [-77.0450625, 38.9194702], [-77.0450976, 38.9194623], [-77.0450985, 38.919481], [-77.0451299, 38.9195343]]]}}, {"type": "Feature", "properties": {"poly_type": "crosswalk", "area_m2": 49.31, "segment_id": 7}, "geometry": {"type": "MultiPolygon", "coordinates": [[[[-77.0449103, 38.9195243], [-77.0449039, 38.9195243], [-77.0449039, 38.9195207], [-77.0449103, 38.9195207], [-77.0449103, 38.9195243]]], [[[-77.0450339, 38.9194688], [-77.0450265, 38.9194746], [-77.0449269, 38.9195085], [-77.0449214, 38.9195085], [-77.0449168, 38.9194861], [-77.0449066, 38.9194753], [-77.0449094, 38.9194652], [-77.0449592, 38.9194465], [-77.0449915, 38.9194393], [-77.0449952, 38.919432], [-77.0450016, 38.9194328], [-77.0450145, 38.9194544], [-77.045033, 38.9194637], [-77.0450339, 38.9194688]]]]}}, {"type": "Feature", "properties": {"poly_type": "crosswalk", "area_m2": 119.39, "segment_id": 8}, "geometry": {"type": "Polygon", "coordinates": [[[-77.044781, 38.9192332], [-77.0447699, 38.9192419], [-77.0447699, 38.9192484], [-77.0447589, 38.9192513], [-77.044745, 38.9192671], [-77.0447303, 38.9192635], [-77.0446785, 38.9191309], [-77.0446684, 38.9191172], [-77.0446675, 38.9191057], [-77.0446582, 38.9191043], [-77.0446481, 38.91911], [-77.0446619, 38.9190798], [-77.044696, 38.9190279], [-77.0447015, 38.9190279], [-77.0447062, 38.9190509], [-77.044781, 38.9192332]]]}}, {"type": "Feature", "properties": {"poly_type": "crosswalk", "area_m2": 0.01, "segment_id": 8}, "geometry": {"type": "Polygon", "coordinates": [[[-77.0447098, 38.9190135], [-77.0447108, 38.919012], [-77.0447098, 38.919012], [-77.0447098, 38.9190135]]]}}, {"type": "Feature", "properties": {"poly_type": "crosswalk", "area_m2": 0.01, "segment_id": 8}, "geometry": {"type": "Polygon", "coordinates": [[[-77.0447108, 38.919012], [-77.0447117, 38.9190106], [-77.0447108, 38.9190106], [-77.0447108, 38.919012]]]}}, {"type": "Feature", "properties": {"poly_type": "crosswalk", "area_m2": 0.01, "segment_id": 9}, "geometry": {"type": "Polygon", "coordinates": [[[-77.0448142, 38.9192765], [-77.0448152, 38.9192743], [-77.0448142, 38.9192743], [-77.0448142, 38.9192765]]]}}, {"type": "Feature", "properties": {"poly_type": "crosswalk", "area_m2": 0.0, "segment_id": 9}, "geometry": {"type": "Polygon", "coordinates": [[[-77.0448152, 38.9192743], [-77.0448161, 38.9192736], [-77.0448152, 38.9192736], [-77.0448152, 38.9192743]]]}}, {"type": "Feature", "properties": {"poly_type": "crosswalk", "area_m2": 0.0, "segment_id": 9}, "geometry": {"type": "Polygon", "coordinates": [[[-77.0448557, 38.9191828], [-77.0448566, 38.919182], [-77.0448557, 38.919182], [-77.0448557, 38.9191828]]]}}, {"type": "Feature", "properties": {"poly_type": "crosswalk", "area_m2": 0.01, "segment_id": 9}, "geometry": {"type": "Polygon", "coordinates": [[[-77.0448566, 38.9191806], [-77.0448575, 38.9191791], [-77.0448566, 38.9191791], [-77.0448566, 38.9191806]]]}}, {"type": "Feature", "properties": {"poly_type": "crosswalk", "area_m2": 48.82, "segment_id": 9}, "geometry": {"type": "Polygon", "coordinates": [[[-77.0448622, 38.9191791], [-77.0448557, 38.9191799], [-77.0448474, 38.9191957], [-77.0448189, 38.9192685], [-77.0448105, 38.9192707], [-77.0447995, 38.919257], [-77.0447718, 38.9192484], [-77.0447718, 38.9192433], [-77.0447958, 38.9192202], [-77.0448418, 38.9191107], [-77.0448473, 38.9191107], [-77.0448474, 38.9191165], [-77.04484, 38.9191316], [-77.04484, 38.9191518], [-77.0448612, 38.9191676], [-77.0448622, 38.9191791]]]}}, {"type": "Feature", "properties": {"poly_type": "crosswalk", "area_m2": 0.01, "segment_id": 10}, "geometry": {"type": "Polygon", "coordinates": [[[-77.0448629, 38.9189406], [-77.0448638, 38.9189392], [-77.0448629, 38.9189392], [-77.0448629, 38.9189406]]]}}, {"type": "Feature", "properties": {"poly_type": "crosswalk", "area_m2": 123.23, "segment_id": 10}, "geometry": {"type": "MultiPolygon", "coordinates": [[[[-77.0448888, 38.9190336], [-77.0448704, 38.919071], [-77.0448529, 38.9190948], [-77.0448473, 38.9190948], [-77.0448519, 38.9190826], [-77.0448482, 38.9190602], [-77.04479, 38.9189111], [-77.0447845, 38.9189039], [-77.0447753, 38.9189039], [-77.0447753, 38.9188902], [-77.0447854, 38.9188823], [-77.0447854, 38.9188736], [-77.0447983, 38.9188678], [-77.0448278, 38.9188239], [-77.0448333, 38.9188239], [-77.0448324, 38.9188426], [-77.0448426, 38.9188577], [-77.0448629, 38.9189197], [-77.0448602, 38.9189363], [-77.0448666, 38.918942], [-77.0448694, 38.9189593], [-77.0448805, 38.9189622], [-77.0448768, 38.9189788], [-77.0448851, 38.9189817], [-77.0448851, 38.918986], [-77.0448713, 38.9189925], [-77.0448676, 38.9190069], [-77.0448888, 38.9190336]]], [[[-77.0448501, 38.9190963], [-77.0448501, 38.9190999], [-77.0448446, 38.9190999], [-77.0448446, 38.9190963], [-77.0448501, 38.9190963]]]]}}, {"type": "Feature", "properties": {"poly_type": "crosswalk", "area_m2": 54.92, "segment_id": 11}, "geometry": {"type": "MultiPolygon", "coordinates": [[[[-77.044683, 38.9189255], [-77.0446775, 38.9189255], [-77.0446775, 38.9189212], [-77.044683, 38.9189212], [-77.044683, 38.9189255]]], [[[-77.0447836, 38.9188808], [-77.0447734, 38.9188888], [-77.0447697, 38.9189075], [-77.0447614, 38.9189133], [-77.0447144, 38.9189832], [-77.0447043, 38.9189882], [-77.0446812, 38.9189291], [-77.0446996, 38.9189284], [-77.044731, 38.918878], [-77.0447476, 38.9188607], [-77.0447494, 38.918847], [-77.0447549, 38.918847], [-77.0447669, 38.9188671], [-77.0447835, 38.9188736], [-77.0447836, 38.9188808]]]]}}, {"type": "Feature", "properties": {"poly_type": "crosswalk", "area_m2": 2.54, "segment_id": 12}, "geometry": {"type": "Polygon", "coordinates": [[[-77.0462155, 38.9192392], [-77.0462257, 38.9192521], [-77.0462174, 38.9192543], [-77.0461998, 38.9192536], [-77.0462054, 38.9192399], [-77.0462155, 38.9192392]]]}}, {"type": "Feature", "properties": {"poly_type": "crosswalk", "area_m2": 19.39, "segment_id": 13}, "geometry": {"type": "Polygon", "coordinates": [[[-77.0462459, 38.9191937], [-77.0462459, 38.9192002], [-77.0462349, 38.9192046], [-77.04621, 38.919237], [-77.0461841, 38.919237], [-77.0461666, 38.9192421], [-77.0461546, 38.9192327], [-77.046162, 38.9192168], [-77.0462459, 38.9191937]]]}}, {"type": "Feature", "properties": {"poly_type": "crosswalk", "area_m2": 45.55, "segment_id": 14}, "geometry": {"type": "Polygon", "coordinates": [[[-77.0461583, 38.9192226], [-77.04615, 38.9192298], [-77.0461352, 38.9192298], [-77.0461214, 38.9192385], [-77.0461085, 38.9192349], [-77.0460725, 38.9191643], [-77.0460808, 38.9191513], [-77.0460964, 38.9191506], [-77.0461094, 38.9191426], [-77.0461232, 38.9191455], [-77.0461583, 38.9192226]]]}}, {"type": "Feature", "properties": {"poly_type": "crosswalk", "area_m2": 53.5, "segment_id": 15}, "geometry": {"type": "Polygon", "coordinates": [[[-77.0463215, 38.9191541], [-77.046328, 38.9191663], [-77.0462948, 38.91918], [-77.0462616, 38.91918], [-77.0462265, 38.9191102], [-77.0462348, 38.9191029], [-77.0463077, 38.9190885], [-77.0463049, 38.9191072], [-77.0462938, 38.9191181], [-77.0463049, 38.9191397], [-77.0463123, 38.9191433], [-77.0463123, 38.9191519], [-77.0463215, 38.9191541]]]}}, {"type": "Feature", "properties": {"poly_type": "crosswalk", "area_m2": 50.04, "segment_id": 16}, "geometry": {"type": "Polygon", "coordinates": [[[-77.0462293, 38.9191008], [-77.0462237, 38.9191102], [-77.0461177, 38.9191419], [-77.046113, 38.919139], [-77.046114, 38.9191253], [-77.046101, 38.9190943], [-77.0461204, 38.9190929], [-77.0461979, 38.9190655], [-77.0462154, 38.9190943], [-77.0462293, 38.9191008]]]}}, {"type": "Feature", "properties": {"poly_type": "crosswalk", "area_m2": 0.0, "segment_id": 17}, "geometry": {"type": "Polygon", "coordinates": [[[-77.0457172, 38.9190044], [-77.0457181, 38.9190037], [-77.0457172, 38.9190037], [-77.0457172, 38.9190044]]]}}, {"type": "Feature", "properties": {"poly_type": "crosswalk", "area_m2": 0.0, "segment_id": 17}, "geometry": {"type": "Polygon", "coordinates": [[[-77.0457163, 38.9190037], [-77.0457172, 38.919003], [-77.0457163, 38.919003], [-77.0457163, 38.9190037]]]}}, {"type": "Feature", "properties": {"poly_type": "crosswalk", "area_m2": 0.01, "segment_id": 17}, "geometry": {"type": "Polygon", "coordinates": [[[-77.0457587, 38.9189986], [-77.0457606, 38.9189979], [-77.0457587, 38.9189979], [-77.0457587, 38.9189986]]]}}, {"type": "Feature", "properties": {"poly_type": "crosswalk", "area_m2": 0.01, "segment_id": 17}, "geometry": {"type": "Polygon", "coordinates": [[[-77.0456969, 38.9189497], [-77.0456978, 38.9189482], [-77.0456969, 38.9189482], [-77.0456969, 38.9189497]]]}}, {"type": "Feature", "properties": {"poly_type": "crosswalk", "area_m2": 0.01, "segment_id": 17}, "geometry": {"type": "Polygon", "coordinates": [[[-77.045695, 38.918946], [-77.0456959, 38.9189446], [-77.045695, 38.9189446], [-77.045695, 38.918946]]]}}, {"type": "Feature", "properties": {"poly_type": "crosswalk", "area_m2": 0.01, "segment_id": 17}, "geometry": {"type": "Polygon", "coordinates": [[[-77.0456876, 38.9189331], [-77.0456886, 38.9189316], [-77.0456876, 38.9189316], [-77.0456876, 38.9189331]]]}}, {"type": "Feature", "properties": {"poly_type": "crosswalk", "area_m2": 102.78, "segment_id": 17}, "geometry": {"type": "Polygon", "coordinates": [[[-77.0457449, 38.918972], [-77.0457661, 38.9190109], [-77.0457596, 38.9190109], [-77.0457596, 38.9190152], [-77.0457661, 38.9190152], [-77.0457633, 38.9190275], [-77.045756, 38.9190275], [-77.0457421, 38.9190376], [-77.0457126, 38.919034], [-77.0457089, 38.9190203], [-77.0457163, 38.9190051], [-77.0457163, 38.9189799], [-77.0456821, 38.9189698], [-77.0456701, 38.9189871], [-77.0456618, 38.9189864], [-77.0456775, 38.9189497], [-77.0456895, 38.9189396], [-77.0456886, 38.9189215], [-77.0456719, 38.9189223], [-77.0456664, 38.9189079], [-77.0456535, 38.9189093], [-77.0456433, 38.9189021], [-77.0456461, 38.9188848], [-77.045635, 38.9188704], [-77.0456295, 38.9188704], [-77.045624, 38.918892], [-77.0456184, 38.918892], [-77.0456083, 38.9188755], [-77.0455953, 38.9188733], [-77.0455889, 38.918882], [-77.0455834, 38.918882], [-77.045575, 38.9188697], [-77.04567, 38.9188387], [-77.0456876, 38.9188401], [-77.0456922, 38.9188797], [-77.0456996, 38.9188942], [-77.0457088, 38.9188999], [-77.0457384, 38.9189705], [-77.0457449, 38.918972]], [[-77.0456923, 38.9189446], [-77.0456932, 38.9189497], [-77.0457006, 38.9189496], [-77.0456996, 38.9189446], [-77.0456923, 38.9189446]], [[-77.0457116, 38.918972], [-77.045707, 38.9189597], [-77.0457015, 38.9189597], [-77.0457052, 38.918972], [-77.0457116, 38.918972]]]}}, {"type": "Feature", "properties": {"poly_type": "crosswalk", "area_m2": 47.62, "segment_id": 18}, "geometry": {"type": "Polygon", "coordinates": [[[-77.0447198, 38.9187454], [-77.0447208, 38.9187684], [-77.0447032, 38.9187764], [-77.0446479, 38.9188239], [-77.0446415, 38.9188232], [-77.0446294, 38.9188059], [-77.0446175, 38.9188052], [-77.044611, 38.918798], [-77.0446101, 38.9187879], [-77.0446202, 38.9187879], [-77.0446294, 38.9187821], [-77.0446949, 38.9187245], [-77.044706, 38.9187245], [-77.0447087, 38.9187389], [-77.0447198, 38.9187454]]]}}, {"type": "Feature", "properties": {"poly_type": "crosswalk", "area_m2": 41.38, "segment_id": 19}, "geometry": {"type": "Polygon", "coordinates": [[[-77.0445629, 38.9186791], [-77.0446045, 38.9187778], [-77.044599, 38.9187778], [-77.0445953, 38.9187677], [-77.0445565, 38.9187634], [-77.044551, 38.9187461], [-77.0445289, 38.918749], [-77.0445131, 38.9187015], [-77.0445362, 38.918695], [-77.0445528, 38.9186777], [-77.0445629, 38.9186791]]]}}, {"type": "Feature", "properties": {"poly_type": "crosswalk", "area_m2": 51.41, "segment_id": 20}, "geometry": {"type": "Polygon", "coordinates": [[[-77.0447558, 38.9186841], [-77.0447032, 38.9187151], [-77.0447013, 38.9186928], [-77.0446718, 38.9186193], [-77.0446773, 38.9186077], [-77.0447013, 38.9186084], [-77.0447326, 38.9185983], [-77.044729, 38.9186207], [-77.0447558, 38.9186841]]]}}, {"type": "Feature", "properties": {"poly_type": "crosswalk", "area_m2": 44.1, "segment_id": 21}, "geometry": {"type": "Polygon", "coordinates": [[[-77.0446708, 38.9186063], [-77.0446662, 38.9186157], [-77.0446496, 38.9186214], [-77.0445685, 38.9186748], [-77.0445574, 38.9186755], [-77.0445583, 38.9186575], [-77.0445463, 38.9186186], [-77.0445537, 38.9186193], [-77.044562, 38.9186308], [-77.0445685, 38.9186308], [-77.0446293, 38.9185912], [-77.044633, 38.9185811], [-77.0446395, 38.9185811], [-77.0446487, 38.9185926], [-77.0446708, 38.9186063]]]}}, {"type": "Feature", "properties": {"poly_type": "crosswalk", "area_m2": 82.41, "segment_id": 22}, "geometry": {"type": "Polygon", "coordinates": [[[-77.0451902, 38.918565], [-77.0451764, 38.9185917], [-77.0451219, 38.9185881], [-77.0451109, 38.9185996], [-77.0451173, 38.9186133], [-77.0450813, 38.9186054], [-77.0450777, 38.9186097], [-77.0450112, 38.9186177], [-77.0449513, 38.9186328], [-77.0449642, 38.918599], [-77.0449817, 38.9185867], [-77.0451736, 38.9185506], [-77.0451883, 38.918552], [-77.0451902, 38.918565]]]}}, {"type": "Feature", "properties": {"poly_type": "crosswalk", "area_m2": 75.79, "segment_id": 23}, "geometry": {"type": "Polygon", "coordinates": [[[-77.0450858, 38.9184079], [-77.0449891, 38.9185651], [-77.0449799, 38.918573], [-77.04499, 38.9185845], [-77.0449799, 38.9185853], [-77.0449669, 38.9185954], [-77.0449485, 38.9185867], [-77.0449153, 38.9185947], [-77.0449844, 38.9184873], [-77.045037, 38.9184526], [-77.0450499, 38.9184238], [-77.0450794, 38.9184079], [-77.0450858, 38.9184079]]]}}, {"type": "Feature", "properties": {"poly_type": "crosswalk", "area_m2": 0.0, "segment_id": 24}, "geometry": {"type": "Polygon", "coordinates": [[[-77.0451061, 38.9183878], [-77.045107, 38.918387], [-77.0451061, 38.918387], [-77.0451061, 38.9183878]]]}}, {"type": "Feature", "properties": {"poly_type": "crosswalk", "area_m2": 79.86, "segment_id": 24}, "geometry": {"type": "Polygon", "coordinates": [[[-77.0453164, 38.9183754], [-77.0452823, 38.9184144], [-77.0452574, 38.9184036], [-77.0451476, 38.9183805], [-77.0451107, 38.9183791], [-77.0451126, 38.9183683], [-77.0451411, 38.9183287], [-77.0451476, 38.9183287], [-77.0451504, 38.9183366], [-77.0453118, 38.9183697], [-77.0453164, 38.9183754]]]}}, {"type": "Feature", "properties": {"poly_type": "crosswalk", "area_m2": 63.86, "segment_id": 25}, "geometry": {"type": "Polygon", "coordinates": [[[-77.0454584, 38.9182428], [-77.0454372, 38.9182543], [-77.0454354, 38.918263], [-77.0453856, 38.9183271], [-77.0453847, 38.918335], [-77.0453773, 38.9183394], [-77.0453773, 38.9183459], [-77.0453948, 38.918348], [-77.0453948, 38.9183516], [-77.0453192, 38.9183747], [-77.0453146, 38.9183653], [-77.0453644, 38.9182969], [-77.0454077, 38.9182248], [-77.0454169, 38.9182226], [-77.0454317, 38.9182385], [-77.0454584, 38.9182428]]]}}, {"type": "Feature", "properties": {"poly_type": "crosswalk", "area_m2": 0.01, "segment_id": 26}, "geometry": {"type": "Polygon", "coordinates": [[[-77.0457776, 38.9182866], [-77.0457795, 38.9182859], [-77.0457776, 38.9182859], [-77.0457776, 38.9182866]]]}}, {"type": "Feature", "properties": {"poly_type": "crosswalk", "area_m2": 0.0, "segment_id": 26}, "geometry": {"type": "Polygon", "coordinates": [[[-77.0457795, 38.9182859], [-77.0457804, 38.9182852], [-77.0457795, 38.9182852], [-77.0457795, 38.9182859]]]}}, {"type": "Feature", "properties": {"poly_type": "crosswalk", "area_m2": 0.0, "segment_id": 26}, "geometry": {"type": "Polygon", "coordinates": [[[-77.0456567, 38.9182031], [-77.0456576, 38.9182023], [-77.0456567, 38.9182023], [-77.0456567, 38.9182031]]]}}, {"type": "Feature", "properties": {"poly_type": "crosswalk", "area_m2": 0.01, "segment_id": 26}, "geometry": {"type": "Polygon", "coordinates": [[[-77.0456595, 38.9181663], [-77.0456613, 38.9181656], [-77.0456595, 38.9181656], [-77.0456595, 38.9181663]]]}}, {"type": "Feature", "properties": {"poly_type": "crosswalk", "area_m2": 0.0, "segment_id": 26}, "geometry": {"type": "Polygon", "coordinates": [[[-77.0456465, 38.9181591], [-77.0456475, 38.9181584], [-77.0456465, 38.9181584], [-77.0456465, 38.9181591]]]}}, {"type": "Feature", "properties": {"poly_type": "crosswalk", "area_m2": 256.33, "segment_id": 26}, "geometry": {"type": "Polygon", "coordinates": [[[-77.0458633, 38.9181619], [-77.0458633, 38.9181814], [-77.0458468, 38.9181965], [-77.0458468, 38.9182008], [-77.0458615, 38.9182015], [-77.0458615, 38.9182051], [-77.0457887, 38.9182333], [-77.0457841, 38.9182419], [-77.0457859, 38.9182816], [-77.0457785, 38.9182852], [-77.0457786, 38.9182917], [-77.0457592, 38.9182989], [-77.0457573, 38.9183061], [-77.04575, 38.9183054], [-77.045749, 38.9182989], [-77.0457343, 38.918301], [-77.0456881, 38.9182917], [-77.0456844, 38.9182809], [-77.0456715, 38.9182737], [-77.0456254, 38.9182773], [-77.0456309, 38.9182679], [-77.0456429, 38.9182658], [-77.0456272, 38.9182305], [-77.0456272, 38.9182081], [-77.0456521, 38.918198], [-77.0456715, 38.9182153], [-77.0457167, 38.918221], [-77.0457241, 38.918203], [-77.0457139, 38.9181915], [-77.0456927, 38.9181865], [-77.0456853, 38.9181785], [-77.0456466, 38.9181843], [-77.0456466, 38.9181807], [-77.0456549, 38.9181793], [-77.0456613, 38.9181649], [-77.0456493, 38.9181584], [-77.0456456, 38.918149], [-77.045653, 38.9181245], [-77.0456447, 38.9181238], [-77.0456447, 38.9181195], [-77.0456613, 38.9181144], [-77.0456926, 38.9181194], [-77.0457176, 38.9181137], [-77.0457314, 38.9181454], [-77.0457416, 38.9181504], [-77.0457536, 38.9181511], [-77.0457904, 38.9181374], [-77.0458006, 38.9181374], [-77.0458015, 38.918141], [-77.0458366, 38.9181417], [-77.0458633, 38.9181619]]]}}, {"type": "Feature", "properties": {"poly_type": "crosswalk", "area_m2": 67.12, "segment_id": 27}, "geometry": {"type": "Polygon", "coordinates": [[[-77.0456381, 38.917958], [-77.0456261, 38.9179689], [-77.0456022, 38.918015], [-77.0455957, 38.9180186], [-77.045592, 38.9180272], [-77.0455957, 38.9180438], [-77.0455754, 38.9180431], [-77.0455588, 38.9180236], [-77.0455376, 38.9180201], [-77.0455311, 38.9180056], [-77.0455404, 38.9180049], [-77.0455938, 38.9179184], [-77.0455947, 38.917904], [-77.045603, 38.9178982], [-77.0456095, 38.9178982], [-77.0456169, 38.9179235], [-77.0456363, 38.9179472], [-77.0456381, 38.917958]]]}}, {"type": "Feature", "properties": {"poly_type": "crosswalk", "area_m2": 0.0, "segment_id": 28}, "geometry": {"type": "Polygon", "coordinates": [[[-77.0456482, 38.9178348], [-77.0456491, 38.9178341], [-77.0456482, 38.9178341], [-77.0456482, 38.9178348]]]}}, {"type": "Feature", "properties": {"poly_type": "crosswalk", "area_m2": 78.26, "segment_id": 28}, "geometry": {"type": "Polygon", "coordinates": [[[-77.0456463, 38.9178362], [-77.045627, 38.9178766], [-77.0456159, 38.9178881], [-77.0456104, 38.9178881], [-77.0456067, 38.9178781], [-77.0454831, 38.9178248], [-77.0454637, 38.9178233], [-77.0454637, 38.9178183], [-77.0454886, 38.9177786], [-77.0455015, 38.9177743], [-77.0455098, 38.9177873], [-77.0455365, 38.9177952], [-77.0455393, 38.9178002], [-77.0455707, 38.9178103], [-77.045627, 38.9178377], [-77.0456463, 38.9178362]]]}}, {"type": "Feature", "properties": {"poly_type": "crosswalk", "area_m2": 25.8, "segment_id": 29}, "geometry": {"type": "MultiPolygon", "coordinates": [[[[-77.0443217, 38.9178461], [-77.0443383, 38.9178894], [-77.0442737, 38.917898], [-77.0442765, 38.9178829], [-77.0442543, 38.9178721], [-77.0442479, 38.9178627], [-77.0443069, 38.9178533], [-77.0443217, 38.9178461]]], [[[-77.0443355, 38.9178944], [-77.044342, 38.9178994], [-77.0443365, 38.9178994], [-77.0443355, 38.9178944]]]]}}, {"type": "Feature", "properties": {"poly_type": "crosswalk", "area_m2": 44.24, "segment_id": 30}, "geometry": {"type": "Polygon", "coordinates": [[[-77.0441749, 38.9177842], [-77.044211, 38.9178656], [-77.0442036, 38.9178671], [-77.0441464, 38.917862], [-77.0441547, 38.9178534], [-77.0441547, 38.9178462], [-77.0441224, 38.9177813], [-77.044151, 38.9177748], [-77.0441629, 38.9177669], [-77.0441722, 38.9177676], [-77.0441749, 38.9177842]]]}}, {"type": "Feature", "properties": {"poly_type": "crosswalk", "area_m2": 49.77, "segment_id": 31}, "geometry": {"type": "Polygon", "coordinates": [[[-77.0442773, 38.9177431], [-77.0441666, 38.917764], [-77.0441537, 38.9177143], [-77.0441878, 38.9177128], [-77.0442598, 38.9176991], [-77.0442773, 38.9177431]]]}}]}