{"type": "FeatureCollection", "features": [{"type": "Feature", "properties": {"poly_type": "sidewalk", "area_m2": 146.24, "segment_id": null}, "geometry": {"type": "Polygon", "coordinates": [[[396162.01, 139095.14], [396163.21, 139099.94], [396166.01, 139106.66], [396166.97, 139107.3], [396166.81, 139108.82], [396167.85, 139110.82], [396167.93, 139112.1], [396172.97, 139112.1], [396173.21, 139108.82], [396172.33, 139107.54], [396170.73, 139106.5], [396169.77, 139104.66], [396168.17, 139103.54], [396166.81, 139100.26], [396166.81, 139098.74], [396168.57, 139096.74], [396173.13, 139096.74], [396174.49, 139097.3], [396177.53, 139097.54], [396180.25, 139099.22], [396180.25, 139090.66], [396178.57, 139090.74], [396177.13, 139091.78], [396175.37, 139092.26], [396174.33, 139093.46], [396163.53, 139093.62], [396162.01, 139095.14]]]}}, {"type": "Feature", "properties": {"poly_type": "sidewalk", "area_m2": 129.5, "segment_id": null}, "geometry": {"type": "Polygon", "coordinates": [[[395968.73, 139108.98], [395969.05, 139112.1], [395974.97, 139112.1], [395974.65, 139109.38], [395976.17, 139108.42], [395976.81, 139106.26], [395978.09, 139104.58], [395979.93, 139100.42], [395979.21, 139093.54], [395981.05, 139090.42], [395980.73, 139089.06], [395978.41, 139088.58], [395978.17, 139089.54], [395977.05, 139089.7], [395976.81, 139092.02], [395975.13, 139093.14], [395973.85, 139095.14], [395973.93, 139096.18], [395975.61, 139097.7], [395975.37, 139099.54], [395973.85, 139100.74], [395971.37, 139100.82], [395971.29, 139104.58], [395968.73, 139108.98]]]}}, {"type": "Feature", "properties": {"poly_type": "sidewalk", "area_m2": 0.0, "segment_id": null}, "geometry": {"type": "Polygon", "coordinates": [[[396098.64999999997, 139086.58000000002], [396098.56999999995, 139086.5], [396098.64999999997, 139086.5], [396098.64999999997, 139086.58000000002]]]}}, {"type": "Feature", "properties": {"poly_type": "sidewalk", "area_m2": 329.47, "segment_id": null}, "geometry": {"type": "Polygon", "coordinates": [[[396098.81, 139104.5], [396094.89, 139112.1], [396096.89, 139112.1], [396101.05, 139103.86], [396102.57, 139099.78], [396103.85, 139099.3], [396104.57, 139100.34], [396105.29, 139103.46], [396106.41, 139112.1], [396108.25, 139112.1], [396106.41, 139100.18], [396106.33, 139096.98], [396104.65, 139092.58], [396104.17, 139092.42], [396103.69, 139090.26], [396103.85, 139087.14], [396105.29, 139086.74], [396107.85, 139087.06], [396111.05, 139088.58], [396116.57, 139089.94], [396124.89, 139101.3], [396127.05, 139105.78], [396129.13, 139105.22], [396129.05, 139103.46], [396129.69, 139103.14], [396129.69, 139102.58], [396127.29, 139101.54], [396122.97, 139095.7], [396121.61, 139093.62], [396121.69, 139091.62], [396133.45, 139093.54], [396135.21, 139094.74], [396137.13, 139097.22], [396138.17, 139096.98], [396138.97, 139096.18], [396141.69, 139096.74], [396143.93, 139100.1], [396145.37, 139105.38], [396146.89, 139106.18], [396149.13, 139112.1], [396152.09, 139112.1], [396152.01, 139110.58], [396150.25, 139105.78], [396148.73, 139102.9], [396147.69, 139102.02], [396146.89, 139098.74], [396147.21, 139097.78], [396146.09, 139097.62], [396144.65, 139094.9], [396142.41, 139092.18], [396136.33, 139091.14], [396135.61, 139090.58], [396135.53, 139089.78], [396134.73, 139089.78], [396134.73, 139091.06], [396133.61, 139091.62], [396127.53, 139090.82], [396127.29, 139089.62], [396126.41, 139089.78], [396126.49, 139090.74], [396125.37, 139090.66], [396123.05, 139090.02], [396122.33, 139089.22], [396117.85, 139088.34], [396117.93, 139086.9], [396117.29, 139086.98], [396117.21, 139088.34], [396116.41, 139088.34], [396113.61, 139087.14], [396112.89, 139086.34], [396109.61, 139085.46], [396109.53, 139084.66], [396108.25, 139085.14], [396107.05, 139084.18], [396104.81, 139083.62], [396103.85, 139081.86], [396101.13, 139082.58], [396099.45, 139083.78], [396098.89, 139085.06], [396098.65, 139086.5], [396101.13, 139087.22], [396100.81, 139089.94], [396101.37, 139092.18], [396101.05, 139098.18], [396098.81, 139104.5]]]}}, {"type": "Feature", "properties": {"poly_type": "sidewalk", "area_m2": 0.12, "segment_id": null}, "geometry": {"type": "Polygon", "coordinates": [[[396113.52999999997, 139046.02000000002], [396113.36999999994, 139045.86000000002], [396113.29, 139045.54], [396113.68999999994, 139045.62000000002], [396113.68999999994, 139045.86000000002], [396113.6099999999, 139045.86000000002], [396113.52999999997, 139046.02000000002]], [[396113.52999999997, 139045.78000000003], [396113.6099999999, 139045.86000000002], [396113.6099999999, 139045.78000000003], [396113.52999999997, 139045.78000000003]]]}}, {"type": "Feature", "properties": {"poly_type": "sidewalk", "area_m2": 369.27, "segment_id": null}, "geometry": {"type": "Polygon", "coordinates": [[[396104.41, 139072.1], [396105.05, 139072.98], [396107.61, 139073.38], [396108.57, 139074.34], [396110.33, 139074.5], [396111.37, 139074.1], [396118.09, 139076.58], [396129.53, 139079.38], [396129.69, 139080.58], [396134.81, 139081.38], [396135.93, 139081.3], [396136.49, 139080.58], [396136.49, 139078.98], [396134.57, 139073.78], [396126.65, 139059.3], [396122.73, 139050.58], [396122.73, 139048.9], [396121.29, 139047.7], [396121.45, 139044.58], [396119.69, 139045.06], [396118.01, 139043.06], [396115.61, 139043.46], [396114.01, 139045.22], [396113.77, 139046.34], [396114.65, 139046.42], [396114.89, 139047.22], [396111.45, 139054.9], [396110.81, 139058.1], [396109.21, 139060.34], [396107.69, 139063.7], [396107.61, 139065.06], [396106.25, 139066.98], [396105.61, 139066.98], [396104.41, 139072.1]], [[396112.33, 139071.86], [396112.33, 139071.3], [396114.17, 139071.3], [396117.29, 139072.18], [396120.01, 139072.18], [396124.01, 139070.82], [396125.13, 139065.78], [396125.69, 139064.74], [396126.49, 139064.66], [396131.69, 139074.82], [396132.17, 139076.9], [396131.21, 139077.94], [396126.25, 139077.14], [396121.05, 139075.06], [396115.21, 139073.62], [396112.33, 139071.86]], [[396112.97, 139059.94], [396112.89, 139057.62], [396114.97, 139051.54], [396116.25, 139048.82], [396117.85, 139048.5], [396118.65, 139049.38], [396119.93, 139053.86], [396121.13, 139054.18], [396122.57, 139056.1], [396122.73, 139057.22], [396123.69, 139058.26], [396125.13, 139061.46], [396125.13, 139062.02], [396124.57, 139062.02], [396122.73, 139061.38], [396121.93, 139060.58], [396121.13, 139060.74], [396123.21, 139064.98], [396122.49, 139068.66], [396121.37, 139069.54], [396118.49, 139069.46], [396117.61, 139070.18], [396114.89, 139069.38], [396114.25, 139067.06], [396115.13, 139067.06], [396115.69, 139066.1], [396117.05, 139065.86], [396118.49, 139064.66], [396118.73, 139061.38], [396117.77, 139060.42], [396114.41, 139061.06], [396112.97, 139059.94]], [[396109.05, 139069.22], [396109.29, 139066.9], [396110.09, 139066.42], [396111.21, 139066.58], [396112.17, 139068.34], [396112.25, 139070.66], [396111.61, 139070.82], [396109.05, 139069.22]]]}}, {"type": "Feature", "properties": {"poly_type": "sidewalk", "area_m2": 321.12, "segment_id": null}, "geometry": {"type": "Polygon", "coordinates": [[[396136.01, 139042.98], [396137.21, 139046.58], [396136.97, 139049.46], [396138.09, 139053.46], [396139.37, 139054.18], [396140.81, 139054.18], [396141.37, 139055.46], [396142.41, 139055.46], [396143.05, 139058.66], [396144.41, 139060.02], [396147.21, 139066.42], [396149.61, 139070.1], [396150.65, 139075.78], [396149.13, 139077.94], [396150.01, 139079.22], [396151.21, 139079.62], [396151.29, 139081.7], [396152.81, 139082.66], [396155.85, 139083.22], [396156.97, 139084.18], [396167.37, 139084.58], [396168.57, 139083.86], [396170.33, 139084.1], [396170.41, 139083.62], [396171.69, 139083.22], [396171.77, 139084.1], [396172.57, 139084.5], [396177.13, 139084.1], [396177.93, 139084.74], [396180.25, 139084.58], [396180.25, 139079.86], [396175.93, 139080.18], [396172.97, 139081.3], [396162.17, 139081.06], [396161.13, 139078.98], [396158.41, 139077.86], [396157.13, 139075.14], [396155.85, 139074.1], [396155.69, 139073.14], [396154.09, 139072.02], [396152.89, 139068.02], [396149.85, 139063.86], [396147.05, 139057.94], [396147.37, 139053.54], [396148.73, 139053.46], [396148.89, 139052.66], [396147.69, 139052.34], [396146.73, 139051.14], [396145.45, 139051.06], [396144.09, 139050.26], [396142.57, 139046.74], [396140.49, 139043.86], [396140.41, 139042.58], [396141.85, 139042.42], [396141.93, 139041.62], [396140.33, 139041.3], [396139.77, 139042.18], [396139.29, 139042.18], [396139.21, 139041.54], [396137.37, 139041.14], [396136.65, 139041.54], [396136.01, 139042.98]]]}}, {"type": "Feature", "properties": {"poly_type": "sidewalk", "area_m2": 942.74, "segment_id": null}, "geometry": {"type": "Polygon", "coordinates": [[[395979.29, 139080.1], [395979.37, 139082.26], [395981.69, 139081.7], [395982.57, 139082.58], [395983.37, 139082.5], [395986.49, 139075.14], [395993.69, 139077.78], [395994.57, 139077.62], [395995.05, 139076.98], [395996.25, 139072.34], [395994.25, 139071.14], [395991.05, 139070.18], [395989.61, 139069.06], [395989.53, 139067.94], [395992.81, 139059.14], [395993.85, 139059.06], [395996.97, 139060.34], [395996.97, 139062.18], [395998.73, 139063.14], [395999.77, 139063.06], [396000.97, 139061.06], [396001.53, 139059.38], [396001.05, 139058.02], [395997.77, 139057.14], [395997.29, 139058.1], [395996.49, 139058.1], [395994.17, 139056.98], [395994.41, 139054.66], [395997.85, 139045.94], [395999.77, 139044.5], [396001.53, 139047.14], [396004.65, 139048.74], [396005.37, 139050.34], [396006.41, 139051.3], [396007.45, 139051.78], [396009.61, 139051.78], [396009.85, 139053.06], [396011.85, 139054.18], [396013.85, 139054.58], [396014.89, 139054.1], [396016.41, 139054.58], [396018.09, 139053.7], [396021.61, 139053.22], [396022.89, 139055.3], [396026.57, 139055.54], [396027.93, 139056.98], [396033.85, 139059.06], [396034.33, 139060.74], [396037.61, 139062.5], [396039.37, 139062.58], [396040.97, 139061.38], [396043.21, 139061.62], [396044.81, 139062.74], [396048.33, 139063.7], [396048.97, 139065.3], [396050.41, 139066.42], [396054.89, 139067.3], [396056.25, 139067.14], [396063.93, 139070.42], [396065.37, 139070.5], [396072.25, 139073.46], [396076.25, 139076.42], [396077.93, 139076.66], [396081.29, 139078.58], [396083.53, 139079.22], [396086.97, 139078.9], [396087.21, 139080.42], [396084.41, 139088.18], [396081.53, 139089.46], [396082.09, 139090.66], [396081.77, 139094.66], [396080.97, 139096.74], [396079.69, 139097.86], [396079.21, 139098.98], [396078.97, 139101.22], [396079.37, 139104.02], [396077.05, 139108.58], [396076.57, 139112.1], [396081.61, 139112.1], [396081.45, 139106.02], [396083.37, 139104.82], [396084.09, 139102.18], [396084.97, 139100.98], [396084.97, 139099.38], [396086.17, 139096.74], [396086.09, 139092.58], [396087.85, 139090.66], [396088.17, 139087.7], [396090.57, 139080.58], [396090.17, 139078.34], [396088.73, 139076.5], [396086.81, 139075.54], [396085.85, 139076.18], [396084.89, 139074.66], [396078.57, 139071.46], [396076.81, 139069.54], [396072.01, 139067.14], [396071.05, 139066.02], [396068.17, 139066.18], [396056.89, 139064.1], [396056.33, 139063.38], [396051.85, 139062.02], [396050.17, 139060.58], [396038.09, 139056.5], [396035.85, 139054.82], [396034.49, 139052.74], [396033.13, 139052.02], [396028.81, 139050.58], [396022.41, 139049.22], [396020.33, 139047.78], [396018.81, 139047.86], [396016.57, 139047.22], [396016.33, 139046.26], [396013.61, 139045.38], [396014.17, 139044.1], [396014.09, 139041.94], [396013.37, 139040.82], [396012.33, 139040.42], [396008.49, 139040.98], [396006.25, 139042.66], [396002.65, 139042.18], [396002.09, 139041.86], [396002.09, 139041.14], [396000.33, 139041.94], [395999.13, 139040.98], [395997.29, 139041.3], [395996.41, 139042.34], [395994.89, 139041.78], [395993.29, 139042.02], [395993.69, 139046.66], [395992.81, 139049.38], [395991.85, 139049.86], [395990.81, 139052.66], [395990.41, 139056.5], [395989.21, 139058.18], [395986.17, 139066.02], [395984.89, 139066.98], [395984.89, 139068.82], [395982.89, 139072.1], [395982.81, 139073.78], [395981.45, 139075.06], [395979.29, 139080.1]], [[395987.21, 139073.46], [395987.29, 139072.42], [395988.25, 139071.14], [395990.97, 139072.5], [395990.65, 139073.3], [395987.21, 139073.46]]]}}, {"type": "Feature", "properties": {"poly_type": "sidewalk", "area_m2": 735.91, "segment_id": null}, "geometry": {"type": "Polygon", "coordinates": [[[395934.49, 139021.22], [395936.01, 139021.22], [395936.41, 139022.02], [395939.77, 139021.38], [395942.09, 139022.82], [395944.09, 139023.06], [395944.41, 139024.18], [395943.45, 139025.94], [395943.77, 139027.22], [395946.49, 139026.42], [395949.21, 139028.58], [395951.21, 139028.82], [395953.21, 139028.18], [395954.33, 139028.9], [395955.93, 139028.82], [395958.73, 139030.18], [395959.21, 139030.98], [395963.05, 139033.38], [395969.05, 139032.5], [395971.45, 139033.54], [395971.53, 139035.06], [395972.09, 139035.86], [395973.85, 139035.3], [395977.21, 139035.62], [395983.13, 139038.1], [395982.97, 139041.22], [395982.33, 139042.58], [395980.73, 139043.62], [395979.29, 139050.82], [395976.81, 139055.94], [395976.81, 139056.74], [395976.01, 139058.1], [395974.97, 139058.74], [395974.73, 139059.78], [395974.09, 139060.02], [395972.73, 139064.82], [395971.61, 139065.62], [395971.61, 139066.34], [395970.33, 139067.7], [395970.73, 139069.3], [395970.49, 139070.74], [395966.33, 139076.42], [395965.45, 139079.54], [395963.85, 139082.26], [395961.05, 139084.74], [395959.77, 139087.7], [395958.17, 139088.58], [395958.41, 139090.58], [395957.93, 139092.42], [395960.25, 139093.86], [395960.65, 139095.62], [395958.01, 139098.1], [395958.01, 139099.78], [395957.37, 139100.9], [395956.25, 139107.38], [395954.97, 139110.98], [395955.21, 139112.1], [395960.41, 139112.1], [395960.89, 139110.42], [395960.49, 139106.82], [395962.33, 139101.7], [395965.45, 139095.94], [395966.49, 139095.78], [395967.69, 139096.34], [395969.69, 139098.66], [395970.57, 139098.18], [395971.21, 139094.82], [395970.73, 139092.98], [395969.05, 139091.54], [395969.21, 139088.82], [395968.57, 139087.78], [395968.65, 139084.02], [395972.65, 139074.34], [395974.17, 139073.22], [395974.57, 139071.62], [395976.09, 139069.94], [395977.45, 139067.3], [395977.05, 139066.66], [395977.21, 139064.74], [395978.17, 139063.94], [395978.89, 139060.98], [395978.25, 139059.06], [395979.77, 139057.54], [395980.41, 139055.3], [395982.01, 139052.66], [395981.61, 139050.26], [395983.21, 139049.06], [395983.53, 139047.3], [395985.85, 139043.94], [395986.89, 139043.46], [395988.41, 139043.86], [395991.29, 139043.54], [395992.25, 139041.38], [395990.49, 139038.18], [395989.53, 139037.7], [395989.45, 139036.74], [395988.33, 139036.5], [395988.33, 139035.62], [395985.29, 139035.46], [395982.25, 139033.54], [395978.09, 139032.02], [395976.81, 139032.58], [395975.53, 139032.1], [395974.17, 139032.42], [395973.85, 139030.5], [395970.57, 139029.7], [395969.77, 139028.18], [395965.77, 139027.38], [395962.09, 139025.46], [395954.49, 139024.02], [395952.01, 139021.94], [395949.61, 139021.06], [395945.77, 139018.18], [395942.97, 139017.06], [395941.53, 139015.62], [395935.53, 139015.46], [395935.37, 139016.74], [395934.49, 139016.74], [395934.49, 139021.22]]]}}, {"type": "Feature", "properties": {"poly_type": "sidewalk", "area_m2": 8.89, "segment_id": null}, "geometry": {"type": "Polygon", "coordinates": [[[396030.09, 139016.34], [396030.09, 139018.02], [396030.89, 139018.66], [396030.57, 139019.86], [396032.57, 139020.42], [396032.97, 139019.54], [396031.85, 139018.1], [396031.21, 139018.1], [396030.73, 139016.82], [396031.05, 139015.78], [396032.09, 139015.14], [396032.01, 139014.18], [396032.81, 139012.58], [396031.93, 139012.58], [396030.09, 139016.34]]]}}, {"type": "Feature", "properties": {"poly_type": "sidewalk", "area_m2": 117.34, "segment_id": null}, "geometry": {"type": "Polygon", "coordinates": [[[396122.65, 139014.18], [396122.57, 139016.58], [396124.33, 139018.98], [396128.33, 139028.18], [396131.13, 139031.86], [396131.21, 139033.7], [396132.33, 139033.46], [396133.77, 139032.18], [396133.61, 139030.5], [396132.73, 139030.1], [396131.21, 139025.78], [396130.57, 139025.3], [396127.29, 139018.9], [396126.89, 139017.14], [396127.85, 139016.82], [396134.49, 139018.66], [396135.77, 139017.78], [396135.85, 139016.9], [396131.61, 139016.58], [396127.21, 139014.82], [396127.37, 139012.9], [396129.77, 139007.06], [396130.01, 139005.3], [396128.57, 139005.22], [396128.01, 139004.26], [396126.17, 139004.42], [396124.57, 139010.5], [396123.21, 139014.1], [396122.65, 139014.18]]]}}, {"type": "Feature", "properties": {"poly_type": "sidewalk", "area_m2": 0.01, "segment_id": null}, "geometry": {"type": "Polygon", "coordinates": [[[396119.36999999994, 138997.94000000003], [396119.29, 138997.78000000003], [396119.36999999994, 138997.78000000003], [396119.36999999994, 138997.94000000003]]]}}, {"type": "Feature", "properties": {"poly_type": "sidewalk", "area_m2": 0.01, "segment_id": null}, "geometry": {"type": "Polygon", "coordinates": [[[396111.85, 138995.38000000003], [396111.76999999996, 138995.22000000003], [396111.85, 138995.22000000003], [396111.85, 138995.38000000003]]]}}, {"type": "Feature", "properties": {"poly_type": "sidewalk", "area_m2": 438.52, "segment_id": null}, "geometry": {"type": "Polygon", "coordinates": [[[396000.97, 139029.38], [396001.05, 139030.66], [396001.69, 139031.7], [396002.81, 139032.26], [396003.85, 139032.26], [396003.85, 139031.38], [396005.53, 139031.78], [396005.93, 139033.78], [396009.37, 139035.06], [396010.97, 139036.34], [396014.73, 139036.82], [396017.85, 139039.14], [396019.69, 139038.82], [396019.85, 139039.94], [396021.93, 139040.02], [396029.05, 139043.3], [396035.45, 139044.82], [396040.49, 139046.98], [396041.77, 139048.1], [396048.01, 139050.34], [396048.89, 139051.54], [396051.61, 139052.1], [396056.65, 139054.58], [396059.13, 139056.74], [396060.25, 139056.58], [396059.45, 139052.34], [396059.93, 139049.46], [396059.53, 139048.02], [396056.89, 139047.78], [396053.93, 139046.74], [396051.45, 139046.66], [396050.89, 139047.22], [396049.61, 139047.14], [396049.21, 139046.34], [396050.97, 139045.38], [396051.13, 139044.5], [396048.49, 139043.94], [396047.37, 139043.22], [396046.49, 139043.3], [396046.01, 139044.1], [396046.01, 139044.74], [396046.89, 139045.14], [396046.89, 139045.86], [396044.57, 139045.46], [396043.21, 139044.82], [396041.85, 139043.22], [396038.25, 139041.86], [396037.29, 139040.1], [396033.45, 139039.54], [396032.89, 139040.18], [396032.17, 139040.18], [396026.49, 139038.42], [396023.69, 139036.98], [396022.17, 139035.46], [396016.65, 139033.7], [396014.25, 139032.42], [396010.73, 139032.1], [396004.01, 139029.3], [396004.41, 139027.22], [396005.61, 139024.74], [396008.97, 139021.54], [396009.53, 139019.38], [396009.69, 139014.82], [396010.57, 139011.86], [396012.73, 139008.66], [396014.17, 139002.58], [396015.53, 138999.3], [396016.97, 138998.34], [396018.49, 138995.06], [396018.97, 138992.1], [396021.45, 138991.3], [396023.05, 138992.42], [396024.81, 138992.42], [396024.49, 138990.74], [396023.05, 138989.62], [396020.89, 138989.38], [396019.29, 138989.86], [396017.77, 138988.5], [396016.73, 138988.34], [396015.29, 138989.54], [396013.93, 138993.54], [396011.69, 138995.22], [396011.85, 138996.1], [396012.97, 138996.9], [396011.29, 139002.42], [396011.37, 139003.14], [396012.09, 139003.14], [396011.69, 139005.06], [396010.01, 139005.38], [396007.77, 139011.22], [396007.85, 139011.86], [396008.65, 139011.94], [396008.33, 139013.62], [396006.89, 139014.02], [396004.65, 139017.7], [396003.53, 139020.58], [396004.09, 139024.02], [396003.45, 139025.78], [396002.25, 139025.7], [396000.97, 139029.38]]]}}, {"type": "Feature", "properties": {"poly_type": "sidewalk", "area_m2": 0.0, "segment_id": null}, "geometry": {"type": "Polygon", "coordinates": [[[396140.08999999997, 138982.74000000002], [396140.00999999995, 138982.66000000003], [396140.08999999997, 138982.66000000003], [396140.08999999997, 138982.74000000002]]]}}, {"type": "Feature", "properties": {"poly_type": "sidewalk", "area_m2": 30.34, "segment_id": null}, "geometry": {"type": "Polygon", "coordinates": [[[396019.21, 138982.26], [396019.45, 138983.46], [396020.89, 138984.34], [396022.17, 138986.26], [396025.85, 138986.42], [396025.61, 138985.22], [396024.49, 138983.78], [396024.73, 138982.74], [396025.85, 138982.1], [396025.85, 138981.54], [396024.89, 138980.66], [396020.25, 138979.78], [396019.21, 138982.26]]]}}, {"type": "Feature", "properties": {"poly_type": "sidewalk", "area_m2": 602.54, "segment_id": null}, "geometry": {"type": "Polygon", "coordinates": [[[395934.73, 138999.46], [395934.49, 139007.06], [395935.69, 139007.06], [395938.97, 139008.9], [395941.21, 139009.06], [395951.21, 139011.94], [395964.97, 139017.46], [395969.37, 139020.58], [395971.05, 139020.66], [395975.13, 139021.94], [395977.05, 139021.54], [395978.89, 139023.38], [395982.65, 139024.5], [395983.21, 139025.22], [395990.49, 139026.9], [395992.17, 139025.94], [395994.01, 139022.58], [395994.01, 139021.86], [395993.21, 139021.78], [395993.77, 139019.46], [395994.89, 139019.78], [395995.77, 139018.34], [395998.25, 139011.46], [395999.21, 139010.66], [395999.85, 139009.14], [396001.05, 139004.5], [396003.85, 139000.74], [396005.53, 138995.46], [396008.73, 138993.86], [396007.29, 138988.34], [396009.85, 138982.98], [396009.93, 138979.7], [396012.41, 138976.66], [396012.57, 138975.86], [396011.53, 138974.02], [396009.69, 138973.62], [396008.41, 138976.66], [396007.37, 138977.14], [396006.81, 138978.1], [396005.93, 138980.9], [396006.01, 138983.7], [396005.53, 138985.3], [396004.49, 138986.26], [396003.93, 138988.5], [396002.73, 138990.18], [396000.81, 138994.74], [395999.45, 138999.62], [395995.93, 139007.62], [395994.73, 139012.58], [395993.13, 139015.46], [395989.93, 139023.94], [395983.05, 139021.62], [395980.73, 139019.7], [395980.97, 139015.14], [395980.33, 139015.14], [395978.89, 139016.82], [395978.41, 139018.34], [395977.61, 139018.42], [395973.85, 139017.38], [395971.21, 139015.46], [395966.41, 139014.9], [395957.37, 139011.22], [395957.69, 139009.7], [395962.81, 139000.74], [395964.41, 138996.42], [395964.57, 138993.62], [395966.81, 138989.46], [395969.05, 138988.9], [395973.21, 138989.22], [395974.33, 138989.7], [395975.61, 138991.46], [395975.61, 138994.26], [395976.33, 138996.34], [395978.01, 138997.86], [395978.89, 138999.46], [395980.09, 138999.22], [395980.81, 138998.34], [395980.81, 138997.46], [395978.89, 138996.42], [395978.01, 138995.14], [395977.29, 138993.22], [395977.29, 138990.9], [395975.77, 138988.58], [395973.53, 138987.54], [395970.01, 138987.46], [395968.01, 138986.42], [395967.37, 138981.7], [395966.25, 138982.26], [395966.25, 138983.3], [395963.77, 138990.34], [395961.05, 138994.18], [395959.85, 138998.58], [395955.21, 139009.78], [395953.93, 139009.78], [395947.93, 139006.9], [395947.21, 139003.94], [395946.65, 139004.02], [395946.65, 139004.58], [395945.93, 139004.58], [395943.13, 139002.34], [395943.29, 139000.26], [395941.53, 139000.26], [395939.05, 138999.22], [395934.73, 138999.46]]]}}, {"type": "Feature", "properties": {"poly_type": "sidewalk", "area_m2": 1.08, "segment_id": null}, "geometry": {"type": "Polygon", "coordinates": [[[396088.81, 138972.50000000003], [396090.81, 138972.34000000003], [396090.81, 138971.93999999997], [396089.53, 138971.62], [396088.81, 138972.50000000003]]]}}, {"type": "Feature", "properties": {"poly_type": "sidewalk", "area_m2": 261.77, "segment_id": null}, "geometry": {"type": "Polygon", "coordinates": [[[396100.65, 138970.82], [396101.77, 138975.14], [396106.89, 138984.98], [396107.85, 138985.46], [396108.33, 138984.42], [396110.33, 138984.1], [396110.65, 138985.86], [396109.93, 138986.34], [396110.09, 138988.34], [396108.97, 138988.5], [396109.05, 138989.62], [396115.05, 139000.74], [396115.85, 139001.38], [396117.13, 139001.22], [396119.37, 138997.62], [396121.53, 138990.5], [396122.49, 138990.34], [396122.33, 138989.7], [396121.69, 138989.54], [396121.37, 138988.26], [396121.53, 138987.38], [396122.81, 138986.42], [396122.89, 138983.78], [396119.05, 138980.74], [396118.65, 138979.78], [396114.57, 138977.62], [396112.49, 138975.54], [396110.33, 138974.82], [396106.09, 138970.98], [396102.65, 138969.54], [396101.37, 138969.78], [396100.65, 138970.82]], [[396111.29, 138984.18], [396112.73, 138981.78], [396114.09, 138981.38], [396118.89, 138984.82], [396119.05, 138986.82], [396116.65, 138992.74], [396115.93, 138992.74], [396114.81, 138991.86], [396113.29, 138989.54], [396112.65, 138986.74], [396111.29, 138984.18]]]}}, {"type": "Feature", "properties": {"poly_type": "sidewalk", "area_m2": 0.01, "segment_id": null}, "geometry": {"type": "Polygon", "coordinates": [[[396129.36999999994, 138968.66000000003], [396129.20999999996, 138968.42000000004], [396129.29, 138968.42000000004], [396129.36999999994, 138968.66000000003]]]}}, {"type": "Feature", "properties": {"poly_type": "sidewalk", "area_m2": 699.49, "segment_id": null}, "geometry": {"type": "Polygon", "coordinates": [[[396062.33, 139052.34], [396061.69, 139056.74], [396062.17, 139056.98], [396064.73, 139056.66], [396067.61, 139058.66], [396069.29, 139058.74], [396083.05, 139064.42], [396085.69, 139064.02], [396088.81, 139065.06], [396089.77, 139065.54], [396089.85, 139066.74], [396091.13, 139067.38], [396094.33, 139067.3], [396096.33, 139065.86], [396098.17, 139062.34], [396098.01, 139060.82], [396098.97, 139060.26], [396101.37, 139053.38], [396101.37, 139052.66], [396100.57, 139052.26], [396100.57, 139051.3], [396101.05, 139050.5], [396102.57, 139050.5], [396104.89, 139043.78], [396105.37, 139043.46], [396105.29, 139040.34], [396106.73, 139039.7], [396108.01, 139036.1], [396111.45, 139032.26], [396111.45, 139030.02], [396110.97, 139029.46], [396110.57, 139026.26], [396107.21, 139019.62], [396109.05, 139015.46], [396108.17, 139014.02], [396106.17, 139013.22], [396105.77, 139011.78], [396104.49, 139010.42], [396104.97, 139009.14], [396106.97, 139008.26], [396106.73, 139007.22], [396107.45, 139006.9], [396107.29, 139005.78], [396106.33, 139005.46], [396106.41, 139004.42], [396103.61, 139003.62], [396102.81, 139000.18], [396099.93, 138995.46], [396098.33, 138994.98], [396098.33, 138995.62], [396097.85, 138995.62], [396096.25, 138994.82], [396094.65, 138991.38], [396092.25, 138988.5], [396091.53, 138986.5], [396090.41, 138985.62], [396089.05, 138982.74], [396088.89, 138981.38], [396086.97, 138978.26], [396086.89, 138977.14], [396085.77, 138975.86], [396085.77, 138973.54], [396084.97, 138972.42], [396087.21, 138972.42], [396087.93, 138971.46], [396087.85, 138970.82], [396086.73, 138969.62], [396082.33, 138970.1], [396081.05, 138967.14], [396081.13, 138964.34], [396078.73, 138961.38], [396077.61, 138959.14], [396074.57, 138959.46], [396075.93, 138966.5], [396077.69, 138967.94], [396077.85, 138969.38], [396079.45, 138971.06], [396080.49, 138974.42], [396082.09, 138975.94], [396082.49, 138977.7], [396084.41, 138979.62], [396087.53, 138985.86], [396088.49, 138988.18], [396088.41, 138993.22], [396088.89, 138993.46], [396090.49, 138997.7], [396091.77, 138998.66], [396091.69, 138996.5], [396092.17, 138996.5], [396093.21, 138998.5], [396093.21, 139000.66], [396094.81, 139000.98], [396095.69, 139002.66], [396095.85, 139003.78], [396094.65, 139005.38], [396094.41, 139007.94], [396098.09, 139009.86], [396098.33, 139014.5], [396099.85, 139016.1], [396101.93, 139016.34], [396103.13, 139017.3], [396107.61, 139027.06], [396102.17, 139040.66], [396100.01, 139040.66], [396099.37, 139041.06], [396097.05, 139046.1], [396097.13, 139047.22], [396099.05, 139048.02], [396099.29, 139048.98], [396093.29, 139064.42], [396091.69, 139064.18], [396069.85, 139055.46], [396067.93, 139053.86], [396066.49, 139051.14], [396062.33, 139052.34]]]}}, {"type": "Feature", "properties": {"poly_type": "sidewalk", "area_m2": 125.37, "segment_id": null}, "geometry": {"type": "Polygon", "coordinates": [[[396044.49, 138949.7], [396044.73, 138950.42], [396051.13, 138952.98], [396051.93, 138953.62], [396051.85, 138954.82], [396053.77, 138955.78], [396058.25, 138957.3], [396059.29, 138956.66], [396061.85, 138956.82], [396063.29, 138957.78], [396068.41, 138959.7], [396070.57, 138960.02], [396069.69, 138958.26], [396069.85, 138956.5], [396068.01, 138955.46], [396067.53, 138954.5], [396066.17, 138954.18], [396064.49, 138954.74], [396063.77, 138952.98], [396062.73, 138952.5], [396061.37, 138952.58], [396059.93, 138951.7], [396060.01, 138950.66], [396061.61, 138950.1], [396061.45, 138948.26], [396060.49, 138948.26], [396059.85, 138948.82], [396059.53, 138950.34], [396057.85, 138949.86], [396057.85, 138949.38], [396059.37, 138948.74], [396059.37, 138948.26], [396056.97, 138948.26], [396056.97, 138949.46], [396056.17, 138950.02], [396054.33, 138949.78], [396050.33, 138948.26], [396047.61, 138948.26], [396047.69, 138949.38], [396045.45, 138949.06], [396044.49, 138949.7]]]}}, {"type": "Feature", "properties": {"poly_type": "sidewalk", "area_m2": 115.88, "segment_id": null}, "geometry": {"type": "MultiPolygon", "coordinates": [[[[396037.05, 138947.3], [396038.97, 138947.62], [396039.69, 138946.1], [396042.01, 138945.78], [396042.17, 138945.22], [396039.61, 138943.94], [396038.73, 138943.94], [396037.05, 138947.3]]], [[[396026.01, 138966.42], [396022.73, 138974.1], [396023.45, 138974.58], [396025.37, 138975.14], [396026.41, 138974.9], [396027.29, 138972.1], [396028.41, 138970.9], [396029.13, 138966.98], [396032.41, 138960.18], [396033.13, 138956.98], [396034.33, 138954.98], [396034.49, 138953.3], [396035.77, 138951.3], [396036.97, 138946.9], [396033.45, 138946.58], [396033.29, 138948.18], [396031.45, 138951.22], [396030.09, 138955.14], [396030.01, 138956.02], [396030.81, 138956.26], [396030.33, 138958.58], [396028.65, 138958.74], [396025.93, 138965.38], [396026.01, 138966.42]]]]}}, {"type": "Feature", "properties": {"poly_type": "sidewalk", "area_m2": 623.1, "segment_id": null}, "geometry": {"type": "MultiPolygon", "coordinates": [[[[396127.37, 139000.42], [396127.37, 139001.14], [396128.65, 139001.7], [396131.37, 139001.22], [396133.45, 138998.5], [396135.05, 138998.26], [396135.53, 138996.9], [396141.93, 138995.78], [396148.25, 138995.78], [396149.93, 138995.14], [396152.65, 138995.54], [396153.69, 138994.9], [396157.69, 138994.5], [396158.25, 138996.74], [396159.05, 138996.9], [396160.01, 138994.74], [396164.33, 138994.9], [396167.45, 138994.34], [396173.13, 138994.9], [396176.89, 138993.86], [396180.25, 138993.94], [396180.25, 138986.1], [396178.81, 138986.82], [396177.61, 138988.58], [396175.21, 138989.14], [396172.73, 138990.5], [396168.57, 138990.1], [396167.05, 138990.82], [396161.69, 138991.3], [396157.61, 138991.14], [396156.49, 138990.42], [396154.81, 138990.9], [396152.81, 138990.42], [396151.05, 138990.98], [396148.17, 138990.82], [396142.89, 138991.46], [396139.77, 138990.5], [396138.57, 138989.46], [396138.41, 138987.62], [396136.49, 138987.3], [396136.01, 138989.14], [396132.65, 138989.62], [396132.33, 138990.74], [396131.37, 138991.54], [396131.37, 138992.74], [396130.73, 138993.78], [396129.69, 138993.86], [396129.13, 138994.42], [396128.49, 138996.5], [396129.53, 138997.06], [396129.53, 138997.78], [396127.37, 139000.42]]], [[[396137.45, 138970.74], [396135.85, 138978.66], [396136.65, 138980.26], [396138.01, 138981.7], [396140.09, 138982.5], [396148.81, 138982.5], [396150.25, 138983.46], [396156.09, 138982.5], [396159.45, 138983.3], [396160.41, 138982.58], [396164.41, 138982.26], [396164.89, 138980.66], [396167.29, 138980.58], [396167.45, 138982.34], [396169.45, 138983.14], [396175.05, 138982.5], [396178.09, 138982.5], [396180.25, 138983.06], [396180.25, 138978.82], [396176.97, 138978.74], [396175.37, 138978.18], [396169.69, 138978.26], [396164.65, 138978.9], [396163.37, 138978.66], [396162.49, 138977.3], [396159.53, 138976.9], [396158.89, 138977.62], [396156.09, 138978.02], [396153.45, 138977.7], [396149.21, 138978.74], [396141.45, 138978.82], [396140.89, 138977.06], [396142.57, 138970.98], [396142.65, 138968.26], [396143.93, 138965.46], [396145.61, 138958.9], [396151.21, 138943.14], [396152.33, 138939.22], [396152.33, 138938.58], [396151.29, 138938.34], [396148.41, 138939.14], [396148.41, 138940.02], [396149.13, 138940.5], [396148.73, 138942.5], [396148.41, 138943.3], [396146.89, 138943.38], [396145.85, 138945.94], [396145.29, 138948.34], [396146.17, 138948.74], [396145.93, 138950.02], [396145.37, 138951.46], [396144.25, 138951.38], [396143.77, 138952.18], [396142.49, 138956.5], [396142.81, 138959.38], [396141.69, 138959.38], [396140.81, 138961.22], [396139.61, 138964.9], [396139.93, 138967.78], [396138.57, 138968.34], [396137.45, 138970.74]]], [[[396179.61, 138984.26], [396179.61, 138985.22], [396180.25, 138985.3], [396180.25, 138983.78], [396179.61, 138984.26]]]]}}, {"type": "Feature", "properties": {"poly_type": "sidewalk", "area_m2": 166.57, "segment_id": null}, "geometry": {"type": "Polygon", "coordinates": [[[396035.53, 138941.86], [396036.33, 138942.74], [396038.57, 138943.22], [396040.33, 138938.42], [396041.37, 138938.18], [396049.29, 138941.38], [396050.65, 138942.58], [396053.77, 138943.86], [396057.45, 138944.5], [396058.65, 138946.02], [396066.65, 138948.5], [396068.33, 138950.26], [396070.41, 138951.3], [396072.49, 138955.7], [396074.89, 138954.34], [396073.53, 138951.46], [396073.53, 138950.5], [396072.49, 138949.86], [396071.37, 138947.7], [396069.53, 138946.02], [396063.29, 138943.46], [396063.21, 138942.98], [396057.93, 138941.14], [396057.13, 138940.42], [396053.21, 138939.54], [396043.69, 138935.3], [396041.05, 138934.74], [396038.73, 138935.06], [396037.85, 138936.82], [396036.33, 138937.22], [396036.25, 138939.86], [396035.53, 138941.86]]]}}, {"type": "Feature", "properties": {"poly_type": "sidewalk", "area_m2": 543.71, "segment_id": null}, "geometry": {"type": "Polygon", "coordinates": [[[395973.85, 138911.7], [395977.05, 138912.9], [395977.69, 138913.94], [395981.05, 138914.66], [395982.09, 138915.3], [395983.61, 138917.3], [395983.77, 138919.22], [395984.65, 138920.66], [395985.53, 138925.14], [395989.21, 138927.3], [395989.85, 138929.7], [395994.33, 138928.98], [395998.57, 138928.9], [396000.57, 138926.82], [396004.25, 138927.86], [396005.85, 138925.22], [396007.13, 138924.98], [396011.77, 138926.98], [396013.45, 138927.22], [396018.01, 138929.7], [396025.77, 138932.1], [396024.73, 138936.34], [396022.57, 138940.34], [396022.01, 138942.66], [396017.69, 138952.98], [396016.41, 138953.38], [396016.41, 138953.94], [396015.69, 138954.26], [396014.81, 138958.98], [396014.97, 138960.42], [396013.69, 138963.94], [396011.37, 138967.06], [396011.45, 138968.42], [396013.13, 138967.78], [396013.37, 138968.98], [396014.25, 138968.82], [396018.97, 138960.66], [396020.73, 138955.06], [396020.81, 138953.54], [396023.21, 138949.3], [396024.25, 138945.14], [396025.69, 138943.06], [396027.69, 138936.82], [396028.01, 138936.18], [396029.37, 138935.86], [396029.53, 138931.3], [396029.13, 138930.34], [396023.13, 138927.46], [396022.73, 138926.82], [396021.93, 138926.82], [396020.89, 138925.7], [396017.05, 138924.98], [396012.97, 138923.38], [396012.33, 138923.38], [396012.25, 138924.18], [396011.05, 138923.94], [396008.89, 138922.34], [396008.33, 138921.38], [396002.89, 138919.22], [396000.49, 138917.62], [395997.85, 138916.58], [395996.01, 138914.66], [395989.37, 138913.06], [395980.81, 138909.62], [395978.25, 138909.62], [395975.93, 138908.58], [395974.73, 138908.9], [395973.85, 138911.7]]]}}, {"type": "Feature", "properties": {"poly_type": "sidewalk", "area_m2": 195.93, "segment_id": null}, "geometry": {"type": "Polygon", "coordinates": [[[396044.09, 138919.22], [396044.73, 138920.42], [396045.77, 138920.1], [396047.69, 138920.66], [396049.29, 138920.42], [396050.89, 138922.26], [396054.09, 138923.22], [396055.77, 138925.22], [396056.25, 138926.5], [396058.01, 138927.78], [396058.17, 138929.22], [396057.45, 138931.14], [396059.69, 138931.14], [396061.37, 138929.3], [396061.69, 138927.62], [396059.61, 138922.9], [396058.81, 138919.78], [396056.89, 138916.74], [396056.33, 138912.5], [396055.05, 138908.5], [396051.93, 138905.38], [396051.13, 138905.7], [396050.33, 138907.06], [396049.05, 138907.06], [396047.77, 138909.06], [396046.65, 138909.46], [396046.65, 138912.74], [396045.77, 138914.34], [396045.53, 138916.02], [396045.85, 138918.42], [396044.57, 138918.42], [396044.57, 138919.22], [396044.09, 138919.22]]]}}, {"type": "Feature", "properties": {"poly_type": "sidewalk", "area_m2": 23.55, "segment_id": null}, "geometry": {"type": "Polygon", "coordinates": [[[395961.45, 138906.82], [395966.33, 138908.74], [395967.69, 138908.5], [395968.25, 138907.54], [395968.17, 138906.42], [395966.97, 138905.86], [395966.81, 138905.14], [395963.13, 138903.22], [395962.49, 138903.3], [395961.69, 138904.26], [395961.45, 138906.82]]]}}, {"type": "Feature", "properties": {"poly_type": "sidewalk", "area_m2": 21.31, "segment_id": null}, "geometry": {"type": "Polygon", "coordinates": [[[395979.69, 138900.58], [395984.49, 138902.18], [395985.85, 138900.9], [395986.09, 138899.62], [395982.01, 138897.14], [395980.81, 138896.9], [395979.77, 138898.66], [395979.69, 138900.58]]]}}, {"type": "Feature", "properties": {"poly_type": "sidewalk", "area_m2": 4.72, "segment_id": null}, "geometry": {"type": "Polygon", "coordinates": [[[396050.56999999995, 138904.50000000006], [396046.00999999995, 138895.38000000006], [396046.17, 138894.50000000006], [396050.64999999997, 138903.78000000006], [396050.56999999995, 138904.50000000006]]]}}, {"type": "Feature", "properties": {"poly_type": "sidewalk", "area_m2": 83.58, "segment_id": null}, "geometry": {"type": "Polygon", "coordinates": [[[395934.49, 138896.58], [395937.53, 138896.66], [395941.61, 138896.26], [395942.33, 138895.7], [395945.05, 138895.7], [395945.69, 138899.06], [395947.05, 138900.58], [395949.13, 138902.26], [395954.25, 138904.18], [395955.37, 138904.18], [395955.77, 138902.34], [395957.21, 138901.54], [395956.57, 138900.5], [395951.93, 138898.02], [395948.73, 138897.3], [395948.33, 138896.82], [395948.57, 138894.34], [395947.93, 138893.86], [395942.49, 138894.98], [395939.53, 138893.22], [395936.57, 138892.98], [395934.49, 138893.38], [395934.49, 138896.58]]]}}, {"type": "Feature", "properties": {"poly_type": "sidewalk", "area_m2": 0.0, "segment_id": null}, "geometry": {"type": "Polygon", "coordinates": [[[396155.04999999993, 138892.26000000004], [396154.97, 138892.18000000005], [396155.04999999993, 138892.18000000005], [396155.04999999993, 138892.26000000004]]]}}, {"type": "Feature", "properties": {"poly_type": "sidewalk", "area_m2": 0.0, "segment_id": null}, "geometry": {"type": "Polygon", "coordinates": [[[396155.12999999995, 138892.18000000005], [396155.04999999993, 138892.10000000006], [396155.12999999995, 138892.10000000006], [396155.12999999995, 138892.18000000005]]]}}, {"type": "Feature", "properties": {"poly_type": "sidewalk", "area_m2": 276.52, "segment_id": null}, "geometry": {"type": "Polygon", "coordinates": [[[396150.33, 138930.82], [396150.73, 138931.54], [396152.09, 138931.46], [396154.49, 138933.86], [396155.21, 138933.78], [396156.49, 138926.98], [396158.73, 138921.38], [396159.45, 138918.02], [396160.25, 138917.14], [396162.73, 138916.82], [396162.97, 138916.02], [396162.01, 138915.46], [396161.93, 138914.42], [396162.89, 138913.22], [396164.97, 138912.82], [396164.97, 138911.14], [396163.45, 138910.5], [396162.97, 138908.58], [396163.69, 138907.7], [396164.25, 138907.7], [396165.13, 138907.86], [396165.45, 138909.46], [396166.65, 138909.14], [396166.57, 138907.54], [396165.45, 138907.14], [396165.29, 138905.46], [396166.49, 138899.54], [396167.13, 138898.74], [396167.13, 138898.1], [396166.09, 138897.3], [396166.33, 138895.14], [396170.57, 138893.3], [396170.97, 138892.42], [396180.25, 138892.34], [396180.25, 138889.46], [396178.97, 138889.06], [396173.93, 138888.98], [396168.33, 138889.14], [396167.05, 138889.62], [396162.89, 138889.22], [396160.33, 138891.3], [396160.49, 138893.46], [396161.93, 138894.58], [396162.25, 138897.06], [396161.45, 138897.94], [396161.29, 138900.26], [396159.77, 138904.26], [396158.65, 138905.86], [396158.81, 138911.94], [396156.33, 138914.02], [396155.53, 138918.02], [396154.57, 138918.66], [396154.09, 138922.98], [396152.97, 138926.02], [396152.33, 138926.5], [396151.93, 138928.18], [396150.33, 138930.82]]]}}, {"type": "Feature", "properties": {"poly_type": "sidewalk", "area_m2": 0.0, "segment_id": null}, "geometry": {"type": "Polygon", "coordinates": [[[396173.92999999993, 138880.50000000006], [396173.8499999999, 138880.42000000004], [396173.92999999993, 138880.42000000004], [396173.92999999993, 138880.50000000006]]]}}, {"type": "Feature", "properties": {"poly_type": "sidewalk", "area_m2": 272.78, "segment_id": null}, "geometry": {"type": "Polygon", "coordinates": [[[395934.49, 138882.98], [395940.49, 138885.22], [395941.21, 138885.14], [395941.45, 138884.26], [395943.05, 138884.58], [395944.09, 138885.14], [395944.25, 138886.58], [395948.57, 138888.26], [395949.69, 138889.38], [395953.77, 138891.46], [395956.49, 138891.62], [395958.73, 138892.82], [395960.49, 138894.58], [395963.53, 138895.62], [395964.89, 138896.82], [395971.45, 138897.62], [395975.13, 138899.3], [395976.33, 138899.3], [395977.21, 138897.38], [395977.37, 138896.02], [395976.25, 138893.14], [395972.89, 138893.94], [395968.65, 138893.7], [395967.21, 138892.98], [395967.13, 138890.34], [395963.77, 138890.26], [395961.05, 138888.82], [395957.05, 138888.1], [395955.13, 138886.42], [395951.05, 138885.62], [395951.21, 138882.1], [395950.17, 138879.54], [395951.61, 138878.02], [395951.85, 138876.5], [395953.53, 138876.18], [395954.65, 138873.14], [395952.01, 138872.1], [395952.57, 138872.82], [395952.41, 138873.46], [395950.25, 138873.7], [395948.89, 138872.5], [395949.61, 138871.06], [395948.25, 138870.18], [395946.97, 138870.02], [395946.49, 138870.58], [395947.29, 138874.1], [395946.33, 138875.62], [395945.85, 138878.02], [395943.21, 138879.06], [395942.09, 138880.58], [395941.85, 138881.86], [395938.97, 138880.98], [395937.61, 138879.86], [395934.49, 138878.5], [395934.49, 138882.98]], [[395945.69, 138881.46], [395946.09, 138880.34], [395947.37, 138880.1], [395948.89, 138881.14], [395949.13, 138882.18], [395948.25, 138882.66], [395945.69, 138881.46]]]}}, {"type": "Feature", "properties": {"poly_type": "sidewalk", "area_m2": 75.7, "segment_id": null}, "geometry": {"type": "Polygon", "coordinates": [[[396169.85, 138878.18], [396170.65, 138879.14], [396173.93, 138880.26], [396180.25, 138880.1], [396180.25, 138876.98], [396173.93, 138876.9], [396177.05, 138866.34], [396172.89, 138866.34], [396170.01, 138875.54], [396169.85, 138878.18]]]}}, {"type": "Feature", "properties": {"poly_type": "sidewalk", "area_m2": 4.04, "segment_id": null}, "geometry": {"type": "Polygon", "coordinates": [[[396049.21, 138868.58000000002], [396050.01, 138868.98], [396051.20999999996, 138867.54], [396051.45, 138866.34], [396049.53, 138866.34], [396049.21, 138868.58000000002]]]}}, {"type": "Feature", "properties": {"poly_type": "sidewalk", "area_m2": 1397.38, "segment_id": null}, "geometry": {"type": "Polygon", "coordinates": [[[396050.89, 138872.1], [396050.89, 138873.14], [396052.65, 138877.62], [396053.93, 138878.58], [396053.93, 138879.22], [396055.13, 138879.86], [396057.13, 138883.78], [396057.61, 138886.02], [396058.65, 138887.94], [396058.17, 138889.78], [396058.65, 138892.66], [396062.17, 138898.26], [396064.33, 138899.54], [396064.57, 138900.82], [396066.01, 138902.26], [396066.57, 138904.02], [396067.69, 138905.38], [396073.05, 138916.98], [396075.13, 138918.42], [396075.21, 138921.3], [396081.21, 138933.3], [396081.21, 138934.5], [396082.25, 138934.9], [396083.21, 138936.1], [396084.65, 138940.82], [396085.21, 138940.82], [396086.01, 138941.86], [396088.97, 138948.9], [396093.21, 138951.46], [396094.33, 138954.66], [396098.81, 138958.5], [396100.89, 138959.14], [396104.41, 138959.22], [396112.81, 138965.3], [396113.53, 138965.3], [396113.69, 138963.86], [396114.49, 138963.94], [396117.37, 138965.94], [396116.81, 138967.06], [396116.17, 138967.06], [396116.81, 138968.1], [396122.73, 138971.7], [396125.53, 138971.86], [396126.97, 138971.14], [396129.13, 138968.58], [396132.41, 138959.06], [396132.49, 138957.86], [396131.61, 138957.46], [396131.61, 138956.26], [396132.25, 138955.62], [396133.61, 138955.54], [396134.09, 138953.3], [396134.81, 138953.06], [396135.61, 138951.86], [396136.33, 138948.26], [396138.25, 138944.34], [396138.57, 138942.1], [396139.85, 138939.54], [396140.09, 138935.3], [396144.57, 138927.86], [396143.85, 138924.74], [396144.97, 138921.54], [396144.97, 138920.26], [396146.57, 138917.3], [396148.49, 138910.5], [396149.45, 138908.98], [396151.45, 138901.78], [396154.17, 138894.82], [396154.97, 138890.98], [396159.21, 138879.94], [396159.61, 138877.7], [396158.57, 138877.62], [396158.73, 138875.62], [396160.25, 138875.38], [396161.61, 138871.06], [396162.33, 138870.9], [396162.17, 138866.34], [396156.01, 138866.34], [396157.37, 138872.18], [396154.41, 138880.82], [396150.89, 138880.66], [396150.09, 138881.3], [396149.93, 138883.22], [396151.53, 138885.38], [396151.85, 138886.9], [396149.85, 138891.22], [396150.17, 138893.06], [396149.53, 138895.94], [396148.25, 138897.22], [396145.85, 138896.66], [396144.49, 138896.82], [396144.73, 138899.7], [396143.85, 138901.62], [396144.01, 138902.58], [396145.13, 138902.66], [396146.73, 138899.22], [396147.85, 138898.98], [396148.09, 138899.78], [396147.29, 138902.18], [396145.05, 138906.82], [396144.41, 138907.3], [396142.17, 138907.14], [396140.73, 138907.86], [396139.37, 138910.74], [396139.53, 138912.18], [396142.65, 138912.82], [396142.41, 138915.22], [396141.21, 138917.3], [396141.29, 138920.34], [396140.65, 138920.98], [396138.01, 138921.78], [396136.17, 138921.86], [396136.41, 138924.74], [396135.77, 138925.94], [396136.01, 138929.14], [396134.65, 138934.66], [396133.05, 138938.26], [396133.53, 138940.42], [396131.53, 138941.94], [396130.33, 138943.54], [396130.57, 138947.46], [396129.93, 138948.26], [396125.93, 138948.26], [396126.09, 138949.78], [396125.37, 138953.14], [396126.97, 138955.38], [396128.65, 138956.1], [396128.33, 138957.78], [396127.93, 138958.82], [396126.49, 138959.7], [396124.49, 138960.42], [396122.97, 138960.18], [396122.17, 138962.02], [396121.05, 138961.78], [396119.45, 138960.42], [396114.09, 138957.62], [396108.81, 138953.22], [396108.73, 138951.54], [396106.33, 138951.22], [396102.89, 138949.22], [396102.25, 138949.62], [396100.97, 138949.38], [396100.33, 138949.86], [396097.37, 138947.22], [396096.89, 138947.22], [396096.81, 138948.26], [396095.93, 138948.26], [396093.45, 138947.86], [396092.25, 138946.82], [396089.05, 138940.98], [396088.09, 138940.1], [396086.41, 138934.18], [396084.57, 138932.26], [396083.45, 138930.26], [396083.45, 138929.7], [396084.57, 138928.58], [396086.01, 138927.78], [396085.93, 138926.42], [396084.41, 138922.9], [396082.81, 138921.78], [396080.89, 138922.74], [396079.21, 138922.34], [396075.77, 138914.18], [396074.89, 138913.06], [396074.73, 138911.78], [396073.61, 138911.14], [396073.13, 138909.22], [396071.13, 138906.26], [396070.57, 138902.5], [396071.77, 138899.46], [396071.45, 138897.22], [396074.89, 138896.66], [396075.37, 138895.7], [396075.13, 138894.5], [396066.09, 138893.86], [396064.65, 138892.42], [396064.09, 138890.34], [396062.41, 138887.94], [396062.65, 138887.22], [396066.25, 138886.98], [396067.77, 138886.34], [396067.37, 138878.98], [396064.01, 138878.02], [396063.05, 138876.5], [396059.21, 138876.66], [396058.65, 138875.22], [396057.45, 138874.42], [396056.97, 138873.14], [396054.49, 138872.1], [396054.01, 138871.38], [396051.69, 138870.98], [396050.89, 138872.1]]]}}, {"type": "Feature", "properties": {"poly_type": "sidewalk", "area_m2": 2.7, "segment_id": null}, "geometry": {"type": "Polygon", "coordinates": [[[396053.61, 138866.58], [396053.69, 138867.38], [396054.49, 138867.86], [396056.01, 138867.38], [396055.93, 138866.34], [396053.61, 138866.58]]]}}, {"type": "Feature", "properties": {"poly_type": "sidewalk", "area_m2": 474.65, "segment_id": null}, "geometry": {"type": "MultiPolygon", "coordinates": [[[[396012.81, 138910.26], [396014.33, 138912.5], [396015.05, 138914.66], [396018.41, 138915.7], [396019.13, 138916.58], [396023.53, 138918.66], [396024.49, 138920.18], [396027.37, 138920.18], [396028.97, 138919.7], [396031.69, 138921.06], [396032.97, 138921.22], [396034.09, 138920.58], [396035.29, 138917.06], [396037.69, 138917.46], [396037.77, 138916.5], [396036.81, 138915.38], [396036.97, 138913.22], [396038.81, 138907.62], [396040.33, 138904.74], [396042.81, 138902.66], [396042.81, 138902.18], [396043.37, 138902.18], [396043.21, 138900.98], [396042.17, 138899.22], [396044.01, 138895.94], [396044.65, 138892.74], [396043.05, 138890.58], [396040.41, 138884.02], [396034.41, 138872.1], [396034.25, 138869.86], [396034.65, 138868.82], [396033.85, 138866.34], [396029.05, 138866.34], [396029.61, 138870.82], [396030.25, 138872.26], [396030.25, 138873.3], [396029.29, 138874.98], [396031.77, 138875.78], [396033.21, 138877.14], [396033.53, 138879.14], [396032.25, 138880.18], [396032.25, 138880.66], [396033.77, 138880.34], [396034.09, 138881.46], [396035.77, 138882.26], [396036.73, 138884.1], [396036.57, 138885.54], [396034.65, 138887.46], [396032.97, 138887.54], [396031.53, 138888.58], [396031.37, 138891.06], [396032.41, 138891.3], [396033.61, 138889.54], [396038.57, 138887.38], [396041.13, 138892.9], [396041.21, 138894.18], [396037.61, 138902.58], [396036.33, 138903.94], [396034.57, 138904.42], [396033.29, 138906.74], [396033.21, 138907.46], [396034.01, 138907.94], [396034.33, 138909.14], [396034.41, 138911.3], [396032.49, 138916.1], [396031.13, 138917.38], [396029.45, 138917.14], [396027.29, 138914.58], [396024.73, 138914.26], [396018.81, 138911.54], [396018.89, 138909.86], [396017.21, 138909.06], [396016.57, 138909.06], [396016.25, 138909.7], [396013.85, 138909.78], [396012.81, 138910.26]]], [[[395990.17, 138902.58], [395990.73, 138904.98], [395993.53, 138905.86], [395993.77, 138904.74], [395994.81, 138904.82], [395996.97, 138905.86], [395996.97, 138907.46], [396003.13, 138909.86], [396005.05, 138911.3], [396006.41, 138911.22], [396007.93, 138912.18], [396009.61, 138912.26], [396011.37, 138911.7], [396012.09, 138910.34], [396011.45, 138909.94], [396011.13, 138908.66], [396012.49, 138907.7], [396014.89, 138907.62], [396016.41, 138908.26], [396016.17, 138906.98], [396012.97, 138905.3], [396007.05, 138903.54], [396006.33, 138902.18], [396004.97, 138901.62], [396004.01, 138901.62], [396003.53, 138902.5], [396001.29, 138903.46], [395998.57, 138903.62], [395997.29, 138903.06], [395997.13, 138901.38], [395991.77, 138899.62], [395990.17, 138902.58]]]]}}, {"type": "Feature", "properties": {"poly_type": "midblock", "area_m2": 26.72, "segment_id": null}, "geometry": {"type": "Polygon", "coordinates": [[[395978.25, 139085.78], [395977.29, 139088.66], [395979.21, 139088.58], [395980.73, 139089.06], [395981.85, 139086.02], [395982.73, 139085.46], [395983.29, 139082.58], [395982.25, 139082.42], [395981.69, 139081.7], [395979.37, 139082.34], [395978.49, 139083.38], [395978.25, 139085.78]]]}}, {"type": "Feature", "properties": {"poly_type": "midblock", "area_m2": 9.22, "segment_id": null}, "geometry": {"type": "Polygon", "coordinates": [[[396059.44999999995, 139051.94], [396060.32999999996, 139056.58000000005], [396061.61, 139056.58000000005], [396062.32999999996, 139052.34], [396059.44999999995, 139051.94]]]}}, {"type": "Feature", "properties": {"poly_type": "midblock", "area_m2": 43.6, "segment_id": null}, "geometry": {"type": "Polygon", "coordinates": [[[396131.29, 139033.78], [396131.61, 139035.62], [396135.77, 139042.66], [396136.33, 139042.58], [396137.13, 139041.22], [396139.29, 139041.3], [396138.41, 139039.06], [396138.17, 139035.86], [396137.69, 139035.3], [396135.61, 139035.06], [396134.89, 139032.02], [396133.85, 139032.02], [396132.97, 139033.06], [396131.29, 139033.78]]]}}, {"type": "Feature", "properties": {"poly_type": "midblock", "area_m2": 13.27, "segment_id": null}, "geometry": {"type": "Polygon", "coordinates": [[[396126.49, 139004.18], [396128.01, 139004.26], [396128.57, 139005.22], [396130.01, 139005.3], [396130.57, 139004.5], [396131.21, 139001.3], [396129.53, 139001.7], [396127.21, 139001.3], [396126.49, 139004.18]]]}}, {"type": "Feature", "properties": {"poly_type": "midblock", "area_m2": 22.84, "segment_id": null}, "geometry": {"type": "Polygon", "coordinates": [[[396018.81, 138983.14], [396016.89, 138988.34], [396017.77, 138988.5], [396019.29, 138989.86], [396021.69, 138989.38], [396022.25, 138986.26], [396020.81, 138984.26], [396018.81, 138983.14]]]}}, {"type": "Feature", "properties": {"poly_type": "midblock", "area_m2": 23.96, "segment_id": null}, "geometry": {"type": "Polygon", "coordinates": [[[396020.49, 138979.78], [396022.41, 138979.94], [396023.29, 138980.66], [396024.89, 138980.66], [396025.69, 138977.94], [396025.77, 138975.14], [396022.41, 138974.18], [396020.49, 138979.78]]]}}, {"type": "Feature", "properties": {"poly_type": "midblock", "area_m2": 25.39, "segment_id": null}, "geometry": {"type": "Polygon", "coordinates": [[[396011.45, 138968.5], [396009.85, 138973.62], [396011.85, 138974.34], [396012.09, 138975.62], [396012.97, 138975.7], [396016.25, 138966.18], [396015.37, 138966.58], [396014.97, 138968.02], [396013.93, 138968.98], [396013.13, 138968.74], [396013.13, 138967.78], [396011.45, 138968.5]]]}}, {"type": "Feature", "properties": {"poly_type": "midblock", "area_m2": 13.05, "segment_id": null}, "geometry": {"type": "Polygon", "coordinates": [[[396072.73, 138956.18], [396074.41, 138959.46], [396077.29, 138959.06], [396075.21, 138954.5], [396073.21, 138955.38], [396072.73, 138956.18]]]}}, {"type": "Feature", "properties": {"poly_type": "midblock", "area_m2": 16.37, "segment_id": null}, "geometry": {"type": "Polygon", "coordinates": [[[396033.53, 138946.42], [396037.05, 138946.9], [396038.25, 138945.46], [396038.49, 138943.46], [396035.13, 138941.86], [396033.53, 138946.42]]]}}, {"type": "Feature", "properties": {"poly_type": "midblock", "area_m2": 26.16, "segment_id": null}, "geometry": {"type": "Polygon", "coordinates": [[[396148.73, 138938.74], [396149.93, 138938.98], [396150.65, 138938.34], [396152.49, 138938.5], [396153.53, 138936.1], [396154.25, 138935.46], [396154.49, 138933.62], [396152.97, 138932.66], [396152.09, 138931.46], [396150.73, 138931.62], [396148.73, 138938.74]]]}}, {"type": "Feature", "properties": {"poly_type": "midblock", "area_m2": 10.11, "segment_id": null}, "geometry": {"type": "Polygon", "coordinates": [[[396009.61, 138912.18], [396012.01, 138913.7], [396014.89, 138914.5], [396014.33, 138912.5], [396013.05, 138910.74], [396011.85, 138910.82], [396011.37, 138911.7], [396010.41, 138911.7], [396009.61, 138912.18]]]}}, {"type": "Feature", "properties": {"poly_type": "midblock", "area_m2": 26.71, "segment_id": null}, "geometry": {"type": "Polygon", "coordinates": [[[395966.97, 138905.22], [395966.97, 138905.86], [395968.25, 138906.58], [395967.93, 138908.26], [395966.97, 138908.66], [395966.97, 138909.06], [395969.05, 138909.7], [395969.77, 138910.58], [395973.85, 138911.46], [395974.57, 138909.14], [395975.13, 138908.74], [395974.97, 138908.18], [395966.97, 138905.22]]]}}, {"type": "Feature", "properties": {"poly_type": "midblock", "area_m2": 0.01, "segment_id": null}, "geometry": {"type": "Polygon", "coordinates": [[[395966.57, 138904.98000000004], [395966.41, 138904.90000000005], [395966.57, 138904.90000000005], [395966.57, 138904.98000000004]]]}}, {"type": "Feature", "properties": {"poly_type": "midblock", "area_m2": 20.38, "segment_id": null}, "geometry": {"type": "Polygon", "coordinates": [[[395955.77, 138902.34], [395955.53, 138904.26], [395956.49, 138904.82], [395961.45, 138906.42], [395961.61, 138904.5], [395962.41, 138903.14], [395957.13, 138901.54], [395955.77, 138902.34]]]}}, {"type": "Feature", "properties": {"poly_type": "midblock", "area_m2": 19.02, "segment_id": null}, "geometry": {"type": "Polygon", "coordinates": [[[395984.49, 138902.1], [395985.13, 138902.9], [395990.33, 138904.74], [395990.09, 138902.98], [395990.65, 138901.3], [395990.17, 138901.14], [395990.09, 138900.34], [395986.25, 138899.62], [395985.85, 138900.9], [395984.49, 138902.1]]]}}, {"type": "Feature", "properties": {"poly_type": "midblock", "area_m2": 10.63, "segment_id": null}, "geometry": {"type": "Polygon", "coordinates": [[[395976.49, 138899.46000000008], [395979.61, 138900.5000000001], [395980.25, 138897.22000000003], [395977.37, 138896.18000000002], [395976.49, 138899.46000000008]]]}}, {"type": "Feature", "properties": {"poly_type": "midblock", "area_m2": 16.96, "segment_id": null}, "geometry": {"type": "Polygon", "coordinates": [[[396049.61, 138869.14], [396050.49, 138871.86], [396051.69, 138870.98], [396054.09, 138871.3], [396053.77, 138868.5], [396054.41, 138867.78], [396053.69, 138867.38], [396053.61, 138866.34], [396051.53, 138866.34], [396051.21, 138867.54], [396049.61, 138869.14]]]}}, {"type": "Feature", "properties": {"poly_type": "crosswalk", "area_m2": 94.4, "segment_id": 1}, "geometry": {"type": "Polygon", "coordinates": [[[396142.41, 139091.78], [396146.25, 139097.78], [396159.53, 139098.66], [396163.13, 139099.46], [396162.01, 139094.82], [396160.81, 139093.62], [396155.05, 139093.3], [396155.05, 139092.9], [396152.81, 139092.26], [396152.17, 139092.26], [396151.85, 139092.98], [396150.57, 139092.98], [396145.45, 139092.58], [396142.41, 139091.78]]]}}, {"type": "Feature", "properties": {"poly_type": "crosswalk", "area_m2": 52.36, "segment_id": 2}, "geometry": {"type": "Polygon", "coordinates": [[[396157.45, 139084.66], [396158.09, 139084.82], [396158.65, 139085.94], [396160.65, 139093.06], [396161.93, 139094.5], [396163.53, 139093.62], [396167.77, 139093.38], [396167.77, 139092.9], [396165.85, 139092.34], [396163.77, 139086.02], [396163.69, 139084.82], [396164.17, 139084.82], [396164.17, 139084.34], [396157.37, 139084.18], [396157.45, 139084.66]]]}}, {"type": "Feature", "properties": {"poly_type": "crosswalk", "area_m2": 58.12, "segment_id": 3}, "geometry": {"type": "Polygon", "coordinates": [[[396130.89, 139080.82], [396131.29, 139081.22], [396131.29, 139082.18], [396134.57, 139088.42], [396134.73, 139089.62], [396135.53, 139089.7], [396135.85, 139090.82], [396142.17, 139091.86], [396140.49, 139089.54], [396137.13, 139081.78], [396136.33, 139081.3], [396131.69, 139080.82], [396130.89, 139080.82]]]}}, {"type": "Feature", "properties": {"poly_type": "crosswalk", "area_m2": 77.51, "segment_id": 4}, "geometry": {"type": "Polygon", "coordinates": [[[396134.89, 139074.82], [396136.57, 139079.3], [396136.41, 139081.14], [396136.97, 139081.62], [396154.81, 139083.54], [396154.81, 139083.06], [396152.81, 139082.66], [396151.29, 139081.7], [396151.21, 139079.62], [396149.53, 139078.82], [396149.05, 139077.78], [396136.81, 139076.66], [396135.37, 139074.82], [396134.89, 139074.82]]]}}, {"type": "Feature", "properties": {"poly_type": "crosswalk", "area_m2": 0.0, "segment_id": 4}, "geometry": {"type": "Polygon", "coordinates": [[[396134.64999999997, 139074.1], [396134.56999999995, 139074.02000000002], [396134.64999999997, 139074.02000000002], [396134.64999999997, 139074.1]]]}}, {"type": "Feature", "properties": {"poly_type": "crosswalk", "area_m2": 50.23, "segment_id": 5}, "geometry": {"type": "Polygon", "coordinates": [[[396089.61, 139083.54], [396091.53, 139083.86], [396098.49, 139086.66], [396099.45, 139083.78], [396101.85, 139082.34], [396101.85, 139081.86], [396099.45, 139081.78], [396090.89, 139078.26], [396090.41, 139078.66], [396090.57, 139080.58], [396089.61, 139083.54]]]}}, {"type": "Feature", "properties": {"poly_type": "crosswalk", "area_m2": 50.17, "segment_id": 6}, "geometry": {"type": "Polygon", "coordinates": [[[396086.33, 139074.74], [396086.49, 139075.62], [396088.73, 139076.5], [396090.01, 139078.26], [396090.73, 139078.18], [396090.97, 139076.66], [396094.73, 139067.78], [396094.33, 139067.38], [396092.17, 139067.62], [396089.13, 139066.74], [396089.05, 139068.82], [396086.33, 139074.74]]]}}, {"type": "Feature", "properties": {"poly_type": "crosswalk", "area_m2": 49.31, "segment_id": 7}, "geometry": {"type": "MultiPolygon", "coordinates": [[[[396105.37, 139073.62], [396105.93, 139073.62], [396105.93, 139073.22], [396105.37, 139073.22], [396105.37, 139073.62]]], [[[396094.65, 139067.46], [396095.29, 139068.1], [396103.93, 139071.86], [396104.41, 139071.86], [396104.81, 139069.38], [396105.69, 139068.18], [396105.45, 139067.06], [396101.13, 139064.98], [396098.33, 139064.18], [396098.01, 139063.38], [396097.45, 139063.46], [396096.33, 139065.86], [396094.73, 139066.9], [396094.65, 139067.46]]]]}}, {"type": "Feature", "properties": {"poly_type": "crosswalk", "area_m2": 119.39, "segment_id": 8}, "geometry": {"type": "Polygon", "coordinates": [[[396116.57, 139041.3], [396117.53, 139042.26], [396117.53, 139042.98], [396118.49, 139043.3], [396119.69, 139045.06], [396120.97, 139044.66], [396125.45, 139029.94], [396126.33, 139028.42], [396126.41, 139027.14], [396127.21, 139026.98], [396128.09, 139027.62], [396126.89, 139024.26], [396123.93, 139018.5], [396123.45, 139018.5], [396123.05, 139021.06], [396116.57, 139041.3]]]}}, {"type": "Feature", "properties": {"poly_type": "crosswalk", "area_m2": 0.01, "segment_id": 8}, "geometry": {"type": "Polygon", "coordinates": [[[396122.73, 139016.90000000002], [396122.64999999997, 139016.74000000002], [396122.73, 139016.74000000002], [396122.73, 139016.90000000002]]]}}, {"type": "Feature", "properties": {"poly_type": "crosswalk", "area_m2": 0.01, "segment_id": 8}, "geometry": {"type": "Polygon", "coordinates": [[[396122.64999999997, 139016.74000000002], [396122.56999999995, 139016.58000000002], [396122.64999999997, 139016.58000000002], [396122.64999999997, 139016.74000000002]]]}}, {"type": "Feature", "properties": {"poly_type": "crosswalk", "area_m2": 0.01, "segment_id": 9}, "geometry": {"type": "Polygon", "coordinates": [[[396113.68999999994, 139046.1], [396113.61, 139045.86000000002], [396113.68999999994, 139045.86000000002], [396113.68999999994, 139046.1]]]}}, {"type": "Feature", "properties": {"poly_type": "crosswalk", "area_m2": 0.0, "segment_id": 9}, "geometry": {"type": "Polygon", "coordinates": [[[396113.61, 139045.86000000002], [396113.52999999997, 139045.78], [396113.61, 139045.78], [396113.61, 139045.86000000002]]]}}, {"type": "Feature", "properties": {"poly_type": "crosswalk", "area_m2": 0.0, "segment_id": 9}, "geometry": {"type": "Polygon", "coordinates": [[[396110.08999999997, 139035.7], [396110.00999999995, 139035.62], [396110.08999999997, 139035.62], [396110.08999999997, 139035.7]]]}}, {"type": "Feature", "properties": {"poly_type": "crosswalk", "area_m2": 0.01, "segment_id": 9}, "geometry": {"type": "Polygon", "coordinates": [[[396110.00999999995, 139035.46000000002], [396109.92999999993, 139035.30000000002], [396110.00999999995, 139035.30000000002], [396110.00999999995, 139035.46000000002]]]}}, {"type": "Feature", "properties": {"poly_type": "crosswalk", "area_m2": 48.82, "segment_id": 9}, "geometry": {"type": "Polygon", "coordinates": [[[396109.53, 139035.3], [396110.09, 139035.38], [396110.81, 139037.14], [396113.29, 139045.22], [396114.01, 139045.46], [396114.97, 139043.94], [396117.37, 139042.98], [396117.37, 139042.42], [396115.29, 139039.86], [396111.29, 139027.7], [396110.81, 139027.7], [396110.81, 139028.34], [396111.45, 139030.02], [396111.45, 139032.26], [396109.61, 139034.02], [396109.53, 139035.3]]]}}, {"type": "Feature", "properties": {"poly_type": "crosswalk", "area_m2": 0.01, "segment_id": 10}, "geometry": {"type": "Polygon", "coordinates": [[[396109.44999999995, 139008.82], [396109.36999999994, 139008.66], [396109.44999999995, 139008.66], [396109.44999999995, 139008.82]]]}}, {"type": "Feature", "properties": {"poly_type": "crosswalk", "area_m2": 123.23, "segment_id": 10}, "geometry": {"type": "MultiPolygon", "coordinates": [[[[396107.21, 139019.14], [396108.81, 139023.3], [396110.33, 139025.94], [396110.81, 139025.94], [396110.41, 139024.58], [396110.73, 139022.1], [396115.77, 139005.54], [396116.25, 139004.74], [396117.05, 139004.74], [396117.05, 139003.22], [396116.17, 139002.34], [396116.17, 139001.38], [396115.05, 139000.74], [396112.49, 138995.86], [396112.01, 138995.86], [396112.09, 138997.94], [396111.21, 138999.62], [396109.45, 139006.5], [396109.69, 139008.34], [396109.13, 139008.98], [396108.89, 139010.9], [396107.93, 139011.22], [396108.25, 139013.06], [396107.53, 139013.38], [396107.53, 139013.86], [396108.73, 139014.58], [396109.05, 139016.18], [396107.21, 139019.14]]], [[[396110.57, 139026.1], [396110.57, 139026.5], [396111.05, 139026.5], [396111.05, 139026.1], [396110.57, 139026.1]]]]}}, {"type": "Feature", "properties": {"poly_type": "crosswalk", "area_m2": 54.92, "segment_id": 11}, "geometry": {"type": "MultiPolygon", "coordinates": [[[[396125.05, 139007.14], [396125.53, 139007.14], [396125.53, 139006.66], [396125.05, 139006.66], [396125.05, 139007.14]]], [[[396116.33, 139002.18], [396117.21, 139003.06], [396117.53, 139005.14], [396118.25, 139005.78], [396122.33, 139013.54], [396123.21, 139014.1], [396125.21, 139007.54], [396123.61, 139007.46], [396120.89, 139001.86], [396119.45, 138999.94], [396119.29, 138998.42], [396118.81, 138998.42], [396117.77, 139000.66], [396116.33, 139001.38], [396116.33, 139002.18]]]]}}, {"type": "Feature", "properties": {"poly_type": "crosswalk", "area_m2": 2.54, "segment_id": 12}, "geometry": {"type": "Polygon", "coordinates": [[[395992.17, 139042.02], [395991.29, 139043.46], [395992.01, 139043.7], [395993.53, 139043.62], [395993.05, 139042.1], [395992.17, 139042.02]]]}}, {"type": "Feature", "properties": {"poly_type": "crosswalk", "area_m2": 19.39, "segment_id": 13}, "geometry": {"type": "Polygon", "coordinates": [[[395989.53, 139036.98], [395989.53, 139037.7], [395990.49, 139038.18], [395992.65, 139041.78], [395994.89, 139041.78], [395996.41, 139042.34], [395997.45, 139041.3], [395996.81, 139039.54], [395989.53, 139036.98]]]}}, {"type": "Feature", "properties": {"poly_type": "crosswalk", "area_m2": 45.55, "segment_id": 14}, "geometry": {"type": "Polygon", "coordinates": [[[395997.13, 139040.18], [395997.85, 139040.98], [395999.13, 139040.98], [396000.33, 139041.94], [396001.45, 139041.54], [396004.57, 139033.7], [396003.85, 139032.26], [396002.49, 139032.18], [396001.37, 139031.3], [396000.17, 139031.62], [395997.13, 139040.18]]]}}, {"type": "Feature", "properties": {"poly_type": "crosswalk", "area_m2": 53.5, "segment_id": 15}, "geometry": {"type": "Polygon", "coordinates": [[[395982.97, 139032.58], [395982.41, 139033.94], [395985.29, 139035.46], [395988.17, 139035.46], [395991.21, 139027.7], [395990.49, 139026.9], [395984.17, 139025.3], [395984.41, 139027.38], [395985.37, 139028.58], [395984.41, 139030.98], [395983.77, 139031.38], [395983.77, 139032.34], [395982.97, 139032.58]]]}}, {"type": "Feature", "properties": {"poly_type": "crosswalk", "area_m2": 50.04, "segment_id": 16}, "geometry": {"type": "Polygon", "coordinates": [[[395990.97, 139026.66], [395991.45, 139027.7], [396000.65, 139031.22], [396001.05, 139030.9], [396000.97, 139029.38], [396002.09, 139025.94], [396000.41, 139025.78], [395993.69, 139022.74], [395992.17, 139025.94], [395990.97, 139026.66]]]}}, {"type": "Feature", "properties": {"poly_type": "crosswalk", "area_m2": 0.0, "segment_id": 17}, "geometry": {"type": "Polygon", "coordinates": [[[396035.37, 139015.94000000003], [396035.29, 139015.86000000002], [396035.37, 139015.86000000002], [396035.37, 139015.94000000003]]]}}, {"type": "Feature", "properties": {"poly_type": "crosswalk", "area_m2": 0.0, "segment_id": 17}, "geometry": {"type": "Polygon", "coordinates": [[[396035.44999999995, 139015.86000000002], [396035.37, 139015.78000000003], [396035.44999999995, 139015.78000000003], [396035.44999999995, 139015.86000000002]]]}}, {"type": "Feature", "properties": {"poly_type": "crosswalk", "area_m2": 0.01, "segment_id": 17}, "geometry": {"type": "Polygon", "coordinates": [[[396031.76999999996, 139015.30000000002], [396031.61, 139015.22000000003], [396031.76999999996, 139015.22000000003], [396031.76999999996, 139015.30000000002]]]}}, {"type": "Feature", "properties": {"poly_type": "crosswalk", "area_m2": 0.01, "segment_id": 17}, "geometry": {"type": "Polygon", "coordinates": [[[396037.12999999995, 139009.86000000002], [396037.05, 139009.70000000004], [396037.12999999995, 139009.70000000004], [396037.12999999995, 139009.86000000002]]]}}, {"type": "Feature", "properties": {"poly_type": "crosswalk", "area_m2": 0.01, "segment_id": 17}, "geometry": {"type": "Polygon", "coordinates": [[[396037.29, 139009.46000000002], [396037.20999999996, 139009.30000000002], [396037.29, 139009.30000000002], [396037.29, 139009.46000000002]]]}}, {"type": "Feature", "properties": {"poly_type": "crosswalk", "area_m2": 0.01, "segment_id": 17}, "geometry": {"type": "Polygon", "coordinates": [[[396037.93, 139008.02000000002], [396037.85, 139007.86000000002], [396037.93, 139007.86000000002], [396037.93, 139008.02000000002]]]}}, {"type": "Feature", "properties": {"poly_type": "crosswalk", "area_m2": 102.78, "segment_id": 17}, "geometry": {"type": "Polygon", "coordinates": [[[396032.97, 139012.34], [396031.13, 139016.66], [396031.69, 139016.66], [396031.69, 139017.14], [396031.13, 139017.14], [396031.37, 139018.5], [396032.01, 139018.5], [396033.21, 139019.62], [396035.77, 139019.22], [396036.09, 139017.7], [396035.45, 139016.02], [396035.45, 139013.22], [396038.41, 139012.1], [396039.45, 139014.02], [396040.17, 139013.94], [396038.81, 139009.86], [396037.77, 139008.74], [396037.85, 139006.74], [396039.29, 139006.82], [396039.77, 139005.22], [396040.89, 139005.38], [396041.77, 139004.58], [396041.53, 139002.66], [396042.49, 139001.06], [396042.97, 139001.06], [396043.45, 139003.46], [396043.93, 139003.46], [396044.81, 139001.62], [396045.93, 139001.38], [396046.49, 139002.34], [396046.97, 139002.34], [396047.69, 139000.98], [396039.45, 138997.54], [396037.93, 138997.7], [396037.53, 139002.1], [396036.89, 139003.7], [396036.09, 139004.34], [396033.53, 139012.18], [396032.97, 139012.34]], [[396037.53, 139009.3], [396037.45, 139009.86], [396036.81, 139009.86], [396036.89, 139009.3], [396037.53, 139009.3]], [[396035.85, 139012.34], [396036.25, 139010.98], [396036.73, 139010.98], [396036.41, 139012.34], [396035.85, 139012.34]]]}}, {"type": "Feature", "properties": {"poly_type": "crosswalk", "area_m2": 47.62, "segment_id": 18}, "geometry": {"type": "Polygon", "coordinates": [[[396121.85, 138987.14], [396121.77, 138989.7], [396123.29, 138990.58], [396128.09, 138995.86], [396128.65, 138995.78], [396129.69, 138993.86], [396130.73, 138993.78], [396131.29, 138992.98], [396131.37, 138991.86], [396130.49, 138991.86], [396129.69, 138991.22], [396124.01, 138984.82], [396123.05, 138984.82], [396122.81, 138986.42], [396121.85, 138987.14]]]}}, {"type": "Feature", "properties": {"poly_type": "crosswalk", "area_m2": 41.38, "segment_id": 19}, "geometry": {"type": "Polygon", "coordinates": [[[396135.45, 138979.78], [396131.85, 138990.74], [396132.33, 138990.74], [396132.65, 138989.62], [396136.01, 138989.14], [396136.49, 138987.22], [396138.41, 138987.54], [396139.77, 138982.26], [396137.77, 138981.54], [396136.33, 138979.62], [396135.45, 138979.78]]]}}, {"type": "Feature", "properties": {"poly_type": "crosswalk", "area_m2": 51.41, "segment_id": 20}, "geometry": {"type": "Polygon", "coordinates": [[[396118.73, 138980.34], [396123.29, 138983.78], [396123.45, 138981.3], [396126.01, 138973.14], [396125.53, 138971.86], [396123.45, 138971.94], [396120.73, 138970.82], [396121.05, 138973.3], [396118.73, 138980.34]]]}}, {"type": "Feature", "properties": {"poly_type": "crosswalk", "area_m2": 44.1, "segment_id": 21}, "geometry": {"type": "Polygon", "coordinates": [[[396126.09, 138971.7], [396126.49, 138972.74], [396127.93, 138973.38], [396134.97, 138979.3], [396135.93, 138979.38], [396135.85, 138977.38], [396136.89, 138973.06], [396136.25, 138973.14], [396135.53, 138974.42], [396134.97, 138974.42], [396129.69, 138970.02], [396129.37, 138968.9], [396128.81, 138968.9], [396128.01, 138970.18], [396126.09, 138971.7]]]}}, {"type": "Feature", "properties": {"poly_type": "crosswalk", "area_m2": 82.41, "segment_id": 22}, "geometry": {"type": "Polygon", "coordinates": [[[396081.05, 138967.14], [396082.25, 138970.1], [396086.97, 138969.7], [396087.93, 138970.98], [396087.37, 138972.5], [396090.49, 138971.62], [396090.81, 138972.1], [396096.57, 138972.98], [396101.77, 138974.66], [396100.65, 138970.9], [396099.13, 138969.54], [396082.49, 138965.54], [396081.21, 138965.7], [396081.05, 138967.14]]]}}, {"type": "Feature", "properties": {"poly_type": "crosswalk", "area_m2": 75.79, "segment_id": 23}, "geometry": {"type": "Polygon", "coordinates": [[[396090.09, 138949.7], [396098.49, 138967.14], [396099.29, 138968.02], [396098.41, 138969.3], [396099.29, 138969.38], [396100.41, 138970.5], [396102.01, 138969.54], [396104.89, 138970.42], [396098.89, 138958.5], [396094.33, 138954.66], [396093.21, 138951.46], [396090.65, 138949.7], [396090.09, 138949.7]]]}}, {"type": "Feature", "properties": {"poly_type": "crosswalk", "area_m2": 0.0, "segment_id": 24}, "geometry": {"type": "Polygon", "coordinates": [[[396088.32999999996, 138947.46000000005], [396088.24999999994, 138947.38000000003], [396088.32999999996, 138947.38000000003], [396088.32999999996, 138947.46000000005]]]}}, {"type": "Feature", "properties": {"poly_type": "crosswalk", "area_m2": 79.86, "segment_id": 24}, "geometry": {"type": "Polygon", "coordinates": [[[396070.09, 138946.1], [396073.05, 138950.42], [396075.21, 138949.22], [396084.73, 138946.66], [396087.93, 138946.5], [396087.77, 138945.3], [396085.29, 138940.9], [396084.73, 138940.9], [396084.49, 138941.78], [396070.49, 138945.46], [396070.09, 138946.1]]]}}, {"type": "Feature", "properties": {"poly_type": "crosswalk", "area_m2": 63.86, "segment_id": 25}, "geometry": {"type": "Polygon", "coordinates": [[[396057.77, 138931.38], [396059.61, 138932.66], [396059.77, 138933.62], [396064.09, 138940.74], [396064.17, 138941.62], [396064.81, 138942.1], [396064.81, 138942.82], [396063.29, 138943.06], [396063.29, 138943.46], [396069.85, 138946.02], [396070.25, 138944.98], [396065.93, 138937.38], [396062.17, 138929.38], [396061.37, 138929.14], [396060.09, 138930.9], [396057.77, 138931.38]]]}}, {"type": "Feature", "properties": {"poly_type": "crosswalk", "area_m2": 0.01, "segment_id": 26}, "geometry": {"type": "Polygon", "coordinates": [[[396030.08999999997, 138936.26000000004], [396029.93, 138936.18000000005], [396030.08999999997, 138936.18000000005], [396030.08999999997, 138936.26000000004]]]}}, {"type": "Feature", "properties": {"poly_type": "crosswalk", "area_m2": 0.0, "segment_id": 26}, "geometry": {"type": "Polygon", "coordinates": [[[396029.93, 138936.18000000005], [396029.85, 138936.10000000003], [396029.93, 138936.10000000003], [396029.93, 138936.18000000005]]]}}, {"type": "Feature", "properties": {"poly_type": "crosswalk", "area_m2": 0.0, "segment_id": 26}, "geometry": {"type": "Polygon", "coordinates": [[[396040.57, 138926.98000000004], [396040.49, 138926.90000000005], [396040.57, 138926.90000000005], [396040.57, 138926.98000000004]]]}}, {"type": "Feature", "properties": {"poly_type": "crosswalk", "area_m2": 0.01, "segment_id": 26}, "geometry": {"type": "Polygon", "coordinates": [[[396040.32999999996, 138922.90000000005], [396040.17, 138922.82000000004], [396040.32999999996, 138922.82000000004], [396040.32999999996, 138922.90000000005]]]}}, {"type": "Feature", "properties": {"poly_type": "crosswalk", "area_m2": 0.0, "segment_id": 26}, "geometry": {"type": "Polygon", "coordinates": [[[396041.45, 138922.10000000003], [396041.37, 138922.02000000005], [396041.45, 138922.02000000005], [396041.45, 138922.10000000003]]]}}, {"type": "Feature", "properties": {"poly_type": "crosswalk", "area_m2": 256.33, "segment_id": 26}, "geometry": {"type": "Polygon", "coordinates": [[[396022.65, 138922.42], [396022.65, 138924.58], [396024.09, 138926.26], [396024.09, 138926.74], [396022.81, 138926.82], [396022.81, 138927.22], [396029.13, 138930.34], [396029.53, 138931.3], [396029.37, 138935.7], [396030.01, 138936.1], [396030.01, 138936.82], [396031.69, 138937.62], [396031.85, 138938.42], [396032.49, 138938.34], [396032.57, 138937.62], [396033.85, 138937.86], [396037.85, 138936.82], [396038.17, 138935.62], [396039.29, 138934.82], [396043.29, 138935.22], [396042.81, 138934.18], [396041.77, 138933.94], [396043.13, 138930.02], [396043.13, 138927.54], [396040.97, 138926.42], [396039.29, 138928.34], [396035.37, 138928.98], [396034.73, 138926.98], [396035.61, 138925.7], [396037.45, 138925.14], [396038.09, 138924.26], [396041.45, 138924.9], [396041.45, 138924.5], [396040.73, 138924.34], [396040.17, 138922.74], [396041.21, 138922.02], [396041.53, 138920.98], [396040.89, 138918.26], [396041.61, 138918.18], [396041.61, 138917.7], [396040.17, 138917.14], [396037.45, 138917.7], [396035.29, 138917.06], [396034.09, 138920.58], [396033.21, 138921.14], [396032.17, 138921.22], [396028.97, 138919.7], [396028.09, 138919.7], [396028.01, 138920.1], [396024.97, 138920.18], [396022.65, 138922.42]]]}}, {"type": "Feature", "properties": {"poly_type": "crosswalk", "area_m2": 67.12, "segment_id": 27}, "geometry": {"type": "Polygon", "coordinates": [[[396042.17, 138899.78], [396043.21, 138900.98], [396045.29, 138906.1], [396045.85, 138906.5], [396046.17, 138907.46], [396045.85, 138909.3], [396047.61, 138909.22], [396049.05, 138907.06], [396050.89, 138906.66], [396051.45, 138905.06], [396050.65, 138904.98], [396046.01, 138895.38], [396045.93, 138893.78], [396045.21, 138893.14], [396044.65, 138893.14], [396044.01, 138895.94], [396042.33, 138898.58], [396042.17, 138899.78]]]}}, {"type": "Feature", "properties": {"poly_type": "crosswalk", "area_m2": 0.0, "segment_id": 28}, "geometry": {"type": "Polygon", "coordinates": [[[396041.29, 138886.10000000006], [396041.20999999996, 138886.02000000005], [396041.29, 138886.02000000005], [396041.29, 138886.10000000006]]]}}, {"type": "Feature", "properties": {"poly_type": "crosswalk", "area_m2": 78.26, "segment_id": 28}, "geometry": {"type": "Polygon", "coordinates": [[[396041.45, 138886.26], [396043.13, 138890.74], [396044.09, 138892.02], [396044.57, 138892.02], [396044.89, 138890.9], [396055.61, 138884.98], [396057.29, 138884.82], [396057.29, 138884.26], [396055.13, 138879.86], [396054.01, 138879.38], [396053.29, 138880.82], [396050.97, 138881.7], [396050.73, 138882.26], [396048.01, 138883.38], [396043.13, 138886.42], [396041.45, 138886.26]]]}}, {"type": "Feature", "properties": {"poly_type": "crosswalk", "area_m2": 25.8, "segment_id": 29}, "geometry": {"type": "MultiPolygon", "coordinates": [[[[396156.33, 138887.3], [396154.89, 138892.1], [396160.49, 138893.06], [396160.25, 138891.38], [396162.17, 138890.18], [396162.73, 138889.14], [396157.61, 138888.1], [396156.33, 138887.3]]], [[[396155.13, 138892.66], [396154.57, 138893.22], [396155.05, 138893.22], [396155.13, 138892.66]]]]}}, {"type": "Feature", "properties": {"poly_type": "crosswalk", "area_m2": 44.24, "segment_id": 30}, "geometry": {"type": "Polygon", "coordinates": [[[396169.05, 138880.42], [396165.93, 138889.46], [396166.57, 138889.62], [396171.53, 138889.06], [396170.81, 138888.1], [396170.81, 138887.3], [396173.61, 138880.1], [396171.13, 138879.38], [396170.09, 138878.5], [396169.29, 138878.58], [396169.05, 138880.42]]]}}, {"type": "Feature", "properties": {"poly_type": "crosswalk", "area_m2": 49.77, "segment_id": 31}, "geometry": {"type": "Polygon", "coordinates": [[[396160.17, 138875.86000000002], [396169.76999999996, 138878.18000000002], [396170.89, 138872.65999999997], [396167.93, 138872.49999999997], [396161.69, 138870.97999999998], [396160.17, 138875.86000000002]]]}}], "crs": {"type": "name", "properties": {"name": "EPSG:26985"}}}