{"type": "FeatureCollection", "crs": {"type": "name", "properties": {"name": "urn:ogc:def:crs:EPSG::32619"}}, "features": [{"type": "Feature", "properties": {"line_a": 2385, "end_a": 0, "line_b": 2386, "end_b": 1, "type": "BikeOnly", "path_m": 4.37, "direct_m": 4.37, "detour_ratio": 1.0, "start_ang": 0.9, "end_ang": 1.0, "branch_nodes": 0, "virtual_edges": 1, "virtual_total_m": 4.37, "snap_a_m": 0.0, "snap_b_m": 0.0, "score": 14.03, "source": "centerline_bridge_candidate", "id": 0, "length_m": 4.4}, "geometry": {"type": "LineString", "coordinates": [[328851.3125, 4692020.5], [328855.65625, 4692020.0]]}}, {"type": "Feature", "properties": {"line_a": 1105, "end_a": 1, "line_b": 1108, "end_b": 0, "type": "BikeOnly", "path_m": 4.64, "direct_m": 4.64, "detour_ratio": 1.0, "start_ang": 0.4, "end_ang": 0.1, "branch_nodes": 0, "virtual_edges": 1, "virtual_total_m": 4.64, "snap_a_m": 0.0, "snap_b_m": 0.0, "score": 14.18, "source": "centerline_bridge_candidate", "id": 1, "length_m": 4.6}, "geometry": {"type": "LineString", "coordinates": [[324504.3125, 4691518.5], [324508.5, 4691520.5]]}}, {"type": "Feature", "properties": {"line_a": 2586, "end_a": 1, "line_b": 2661, "end_b": 1, "type": "BikeOnly", "path_m": 1.56, "direct_m": 1.56, "detour_ratio": 1.0, "start_ang": 15.3, "end_ang": 12.3, "branch_nodes": 0, "virtual_edges": 1, "virtual_total_m": 1.56, "snap_a_m": 0.0, "snap_b_m": 0.0, "score": 18.5, "source": "centerline_bridge_candidate", "id": 2, "length_m": 1.6}, "geometry": {"type": "LineString", "coordinates": [[329681.5625, 4688154.5], [329682.0, 4688153.0]]}}, {"type": "Feature", "properties": {"line_a": 703, "end_a": 1, "line_b": 706, "end_b": 1, "type": "BikeOnly", "path_m": 2.57, "direct_m": 2.57, "detour_ratio": 1.0, "start_ang": 12.8, "end_ang": 12.7, "branch_nodes": 0, "virtual_edges": 1, "virtual_total_m": 2.57, "snap_a_m": 0.0, "snap_b_m": 0.0, "score": 20.44, "source": "centerline_bridge_candidate", "id": 3, "length_m": 2.6}, "geometry": {"type": "LineString", "coordinates": [[322825.34375, 4691200.0], [322824.75, 4691197.5]]}}, {"type": "Feature", "properties": {"line_a": 2726, "end_a": 0, "line_b": 2732, "end_b": 0, "type": "Sharrow", "path_m": 2.97, "direct_m": 2.97, "detour_ratio": 1.0, "start_ang": 13.1, "end_ang": 13.0, "branch_nodes": 0, "virtual_edges": 1, "virtual_total_m": 2.97, "snap_a_m": 0.0, "snap_b_m": 0.0, "score": 21.98, "source": "centerline_bridge_candidate", "id": 4, "length_m": 3.0}, "geometry": {"type": "LineString", "coordinates": [[330540.15625, 4692604.0], [330537.59375, 4692602.5]]}}, {"type": "Feature", "properties": {"line_a": 1469, "end_a": 1, "line_b": 1470, "end_b": 1, "type": "BikeOnly", "path_m": 4.54, "direct_m": 4.54, "detour_ratio": 1.0, "start_ang": 1.6, "end_ang": 15.2, "branch_nodes": 0, "virtual_edges": 1, "virtual_total_m": 4.54, "snap_a_m": 0.0, "snap_b_m": 0.0, "score": 22.02, "source": "centerline_bridge_candidate", "id": 5, "length_m": 4.5}, "geometry": {"type": "LineString", "coordinates": [[325760.5625, 4697008.0], [325761.15625, 4697012.5]]}}, {"type": "Feature", "properties": {"line_a": 2025, "end_a": 1, "line_b": 2213, "end_b": 0, "type": "Sharrow", "path_m": 3.01, "direct_m": 3.01, "detour_ratio": 1.0, "start_ang": 15.0, "end_ang": 15.1, "branch_nodes": 0, "virtual_edges": 1, "virtual_total_m": 3.01, "snap_a_m": 0.0, "snap_b_m": 0.0, "score": 24.07, "source": "centerline_bridge_candidate", "id": 6, "length_m": 3.0}, "geometry": {"type": "LineString", "coordinates": [[328016.5625, 4689715.5], [328018.8125, 4689717.5]]}}, {"type": "Feature", "properties": {"line_a": 2993, "end_a": 1, "line_b": 2997, "end_b": 0, "type": "BikeOnly", "path_m": 2.61, "direct_m": 2.61, "detour_ratio": 1.0, "start_ang": 16.6, "end_ang": 16.4, "branch_nodes": 0, "virtual_edges": 1, "virtual_total_m": 2.61, "snap_a_m": 0.0, "snap_b_m": 0.0, "score": 24.3, "source": "centerline_bridge_candidate", "id": 7, "length_m": 2.6}, "geometry": {"type": "LineString", "coordinates": [[332121.75, 4692975.5], [332122.5, 4692978.0]]}}, {"type": "Feature", "properties": {"line_a": 2853, "end_a": 1, "line_b": 2854, "end_b": 1, "type": "BikeOnly", "path_m": 3.09, "direct_m": 3.09, "detour_ratio": 1.0, "start_ang": 15.2, "end_ang": 15.8, "branch_nodes": 0, "virtual_edges": 1, "virtual_total_m": 3.09, "snap_a_m": 0.0, "snap_b_m": 0.0, "score": 24.75, "source": "centerline_bridge_candidate", "id": 8, "length_m": 3.1}, "geometry": {"type": "LineString", "coordinates": [[331069.9375, 4684118.0], [331070.6875, 4684115.0]]}}, {"type": "Feature", "properties": {"line_a": 2066, "end_a": 0, "line_b": 2072, "end_b": 1, "type": "BikeOnly", "path_m": 4.02, "direct_m": 4.02, "detour_ratio": 1.0, "start_ang": 13.2, "end_ang": 13.6, "branch_nodes": 0, "virtual_edges": 1, "virtual_total_m": 4.02, "snap_a_m": 0.0, "snap_b_m": 0.0, "score": 25.43, "source": "centerline_bridge_candidate", "id": 9, "length_m": 4.0}, "geometry": {"type": "LineString", "coordinates": [[327798.3125, 4686079.5], [327796.34375, 4686083.0]]}}, {"type": "Feature", "properties": {"line_a": 97, "end_a": 1, "line_b": 102, "end_b": 1, "type": "BikeOnly", "path_m": 8.49, "direct_m": 8.49, "detour_ratio": 1.0, "start_ang": 1.0, "end_ang": 0.8, "branch_nodes": 0, "virtual_edges": 1, "virtual_total_m": 8.49, "snap_a_m": 0.0, "snap_b_m": 0.0, "score": 26.35, "source": "centerline_bridge_candidate", "id": 10, "length_m": 8.5}, "geometry": {"type": "LineString", "coordinates": [[335001.0, 4679553.5], [334993.0625, 4679556.5]]}}, {"type": "Feature", "properties": {"line_a": 2091, "end_a": 0, "line_b": 2098, "end_b": 1, "type": "BikeOnly", "path_m": 3.23, "direct_m": 3.23, "detour_ratio": 1.0, "start_ang": 16.6, "end_ang": 17.0, "branch_nodes": 0, "virtual_edges": 1, "virtual_total_m": 3.23, "snap_a_m": 0.0, "snap_b_m": 0.0, "score": 26.51, "source": "centerline_bridge_candidate", "id": 11, "length_m": 3.2}, "geometry": {"type": "LineString", "coordinates": [[327841.0625, 4683050.0], [327842.25, 4683053.0]]}}, {"type": "Feature", "properties": {"line_a": 233, "end_a": 1, "line_b": 235, "end_b": 0, "type": "BikeOnly", "path_m": 4.22, "direct_m": 4.22, "detour_ratio": 1.0, "start_ang": 14.2, "end_ang": 14.1, "branch_nodes": 0, "virtual_edges": 1, "virtual_total_m": 4.22, "snap_a_m": 0.0, "snap_b_m": 0.0, "score": 26.8, "source": "centerline_bridge_candidate", "id": 12, "length_m": 4.2}, "geometry": {"type": "LineString", "coordinates": [[337500.15625, 4678877.5], [337495.9375, 4678877.5]]}}, {"type": "Feature", "properties": {"line_a": 959, "end_a": 1, "line_b": 963, "end_b": 1, "type": "Sharrow", "path_m": 8.45, "direct_m": 8.45, "detour_ratio": 1.0, "start_ang": 2.7, "end_ang": 0.6, "branch_nodes": 0, "virtual_edges": 1, "virtual_total_m": 8.45, "snap_a_m": 0.0, "snap_b_m": 0.0, "score": 27.04, "source": "centerline_bridge_candidate", "id": 13, "length_m": 8.5}, "geometry": {"type": "LineString", "coordinates": [[324339.75, 4688666.0], [324334.34375, 4688659.5]]}}, {"type": "Feature", "properties": {"line_a": 2110, "end_a": 1, "line_b": 2114, "end_b": 0, "type": "BikeOnly", "path_m": 4.51, "direct_m": 4.51, "detour_ratio": 1.0, "start_ang": 16.7, "end_ang": 14.1, "branch_nodes": 0, "virtual_edges": 1, "virtual_total_m": 4.51, "snap_a_m": 0.0, "snap_b_m": 0.0, "score": 28.93, "source": "centerline_bridge_candidate", "id": 14, "length_m": 4.5}, "geometry": {"type": "LineString", "coordinates": [[328498.5, 4697924.5], [328498.1875, 4697929.0]]}}, {"type": "Feature", "properties": {"line_a": 1558, "end_a": 0, "line_b": 1560, "end_b": 0, "type": "Sharrow", "path_m": 4.13, "direct_m": 4.13, "detour_ratio": 1.0, "start_ang": 18.3, "end_ang": 16.6, "branch_nodes": 0, "virtual_edges": 1, "virtual_total_m": 4.13, "snap_a_m": 0.0, "snap_b_m": 0.0, "score": 29.86, "source": "centerline_bridge_candidate", "id": 15, "length_m": 4.1}, "geometry": {"type": "LineString", "coordinates": [[325702.9375, 4685812.0], [325701.90625, 4685816.0]]}}, {"type": "Feature", "properties": {"line_a": 2984, "end_a": 1, "line_b": 2986, "end_b": 0, "type": "Sharrow", "path_m": 7.57, "direct_m": 7.57, "detour_ratio": 1.0, "start_ang": 7.8, "end_ang": 8.1, "branch_nodes": 0, "virtual_edges": 1, "virtual_total_m": 7.57, "snap_a_m": 0.0, "snap_b_m": 0.0, "score": 30.66, "source": "centerline_bridge_candidate", "id": 16, "length_m": 7.6}, "geometry": {"type": "LineString", "coordinates": [[332116.1875, 4693619.5], [332117.25, 4693627.0]]}}, {"type": "Feature", "properties": {"line_a": 1169, "end_a": 0, "line_b": 1173, "end_b": 0, "type": "BikeOnly", "path_m": 30.28, "direct_m": 30.05, "detour_ratio": 1.008, "start_ang": 1.3, "end_ang": 1.9, "branch_nodes": 0, "virtual_edges": 2, "virtual_total_m": 5.42, "snap_a_m": 0.0, "snap_b_m": 0.0, "score": 42.87, "source": "centerline_bridge_candidate", "id": 17, "length_m": 30.3}, "geometry": {"type": "LineString", "coordinates": [[325014.59375, 4684332.0], [325015.65625, 4684334.5], [325031.6875, 4684353.5], [325033.9375, 4684355.0]]}}, {"type": "Feature", "properties": {"line_a": 2384, "end_a": 1, "line_b": 2530, "end_b": 1, "type": "BikeOnly", "path_m": 40.07, "direct_m": 40.06, "detour_ratio": 1.0, "start_ang": 0.0, "end_ang": 0.9, "branch_nodes": 0, "virtual_edges": 1, "virtual_total_m": 3.94, "snap_a_m": 0.0, "snap_b_m": 0.0, "score": 48.4, "source": "centerline_bridge_candidate", "id": 18, "length_m": 40.1}, "geometry": {"type": "LineString", "coordinates": [[329313.75, 4691984.5], [329317.65625, 4691984.0], [329352.15625, 4691981.0], [329353.65625, 4691981.0]]}}, {"type": "Feature", "properties": {"line_a": 1021, "end_a": 0, "line_b": 1029, "end_b": 1, "type": "BikeOnly", "path_m": 28.1, "direct_m": 28.1, "detour_ratio": 1.0, "start_ang": 0.5, "end_ang": 0.8, "branch_nodes": 0, "virtual_edges": 2, "virtual_total_m": 10.04, "snap_a_m": 0.0, "snap_b_m": 0.0, "score": 48.83, "source": "centerline_bridge_candidate", "id": 19, "length_m": 28.1}, "geometry": {"type": "LineString", "coordinates": [[319215.4375, 4688064.0], [319215.3125, 4688062.0], [319213.8125, 4688044.0], [319213.0625, 4688036.0]]}}, {"type": "Feature", "properties": {"line_a": 260, "end_a": 0, "line_b": 261, "end_b": 0, "type": "BikeOnly", "path_m": 33.21, "direct_m": 33.2, "detour_ratio": 1.0, "start_ang": 1.7, "end_ang": 3.3, "branch_nodes": 0, "virtual_edges": 2, "virtual_total_m": 9.9, "snap_a_m": 0.0, "snap_b_m": 0.0, "score": 55.52, "source": "centerline_bridge_candidate", "id": 20, "length_m": 33.2}, "geometry": {"type": "LineString", "coordinates": [[337832.6875, 4678780.5], [337834.5, 4678780.0], [337856.5625, 4678772.5], [337864.1875, 4678770.0]]}}, {"type": "Feature", "properties": {"line_a": 2106, "end_a": 0, "line_b": 2109, "end_b": 1, "type": "BikeOnly", "path_m": 35.68, "direct_m": 35.6, "detour_ratio": 1.002, "start_ang": 0.2, "end_ang": 0.3, "branch_nodes": 0, "virtual_edges": 2, "virtual_total_m": 11.05, "snap_a_m": 0.0, "snap_b_m": 0.0, "score": 58.09, "source": "centerline_bridge_candidate", "id": 21, "length_m": 35.7}, "geometry": {"type": "LineString", "coordinates": [[328434.0, 4697629.5], [328434.75, 4697635.5], [328434.59375, 4697644.0], [328435.5, 4697655.5], [328436.40625, 4697660.0], [328436.6875, 4697665.0]]}}, {"type": "Feature", "properties": {"line_a": 825, "end_a": 0, "line_b": 827, "end_b": 0, "type": "BikeOnly", "path_m": 40.0, "direct_m": 40.0, "detour_ratio": 1.0, "start_ang": 0.5, "end_ang": 0.1, "branch_nodes": 0, "virtual_edges": 2, "virtual_total_m": 9.31, "snap_a_m": 0.0, "snap_b_m": 0.0, "score": 58.9, "source": "centerline_bridge_candidate", "id": 22, "length_m": 40.0}, "geometry": {"type": "LineString", "coordinates": [[323589.3125, 4691072.0], [323593.8125, 4691074.0], [323621.84375, 4691086.5], [323625.75, 4691088.5]]}}, {"type": "Feature", "properties": {"line_a": 2007, "end_a": 1, "line_b": 2013, "end_b": 0, "type": "Sharrow", "path_m": 34.5, "direct_m": 34.5, "detour_ratio": 1.0, "start_ang": 0.0, "end_ang": 0.0, "branch_nodes": 0, "virtual_edges": 2, "virtual_total_m": 12.31, "snap_a_m": 0.0, "snap_b_m": 0.0, "score": 59.12, "source": "centerline_bridge_candidate", "id": 23, "length_m": 34.5}, "geometry": {"type": "LineString", "coordinates": [[327757.5, 4690538.0], [327765.75, 4690538.0], [327787.9375, 4690538.0], [327792.0, 4690538.0]]}}, {"type": "Feature", "properties": {"line_a": 1934, "end_a": 0, "line_b": 1938, "end_b": 0, "type": "BikeOnly", "path_m": 37.06, "direct_m": 37.01, "detour_ratio": 1.001, "start_ang": 5.6, "end_ang": 5.7, "branch_nodes": 0, "virtual_edges": 2, "virtual_total_m": 9.07, "snap_a_m": 0.0, "snap_b_m": 0.0, "score": 60.86, "source": "centerline_bridge_candidate", "id": 24, "length_m": 37.1}, "geometry": {"type": "LineString", "coordinates": [[327753.90625, 4695588.5], [327754.34375, 4695590.0], [327768.75, 4695614.0], [327772.5, 4695620.5]]}}, {"type": "Feature", "properties": {"line_a": 111, "end_a": 0, "line_b": 112, "end_b": 0, "type": "BikeOnly", "path_m": 35.21, "direct_m": 35.14, "detour_ratio": 1.002, "start_ang": 2.0, "end_ang": 1.8, "branch_nodes": 0, "virtual_edges": 2, "virtual_total_m": 12.77, "snap_a_m": 0.0, "snap_b_m": 0.0, "score": 62.69, "source": "centerline_bridge_candidate", "id": 25, "length_m": 35.2}, "geometry": {"type": "LineString", "coordinates": [[335276.09375, 4694415.5], [335280.0, 4694412.5], [335281.34375, 4694412.0], [335299.8125, 4694402.0], [335306.5625, 4694398.0]]}}, {"type": "Feature", "properties": {"line_a": 1454, "end_a": 0, "line_b": 1455, "end_b": 1, "type": "BikeOnly", "path_m": 36.42, "direct_m": 36.41, "detour_ratio": 1.0, "start_ang": 1.6, "end_ang": 0.6, "branch_nodes": 0, "virtual_edges": 2, "virtual_total_m": 13.41, "snap_a_m": 0.0, "snap_b_m": 0.0, "score": 64.33, "source": "centerline_bridge_candidate", "id": 26, "length_m": 36.4}, "geometry": {"type": "LineString", "coordinates": [[325885.0625, 4693422.0], [325886.84375, 4693428.5], [325891.65625, 4693451.0], [325893.15625, 4693457.5]]}}]}