{"type": "FeatureCollection", "crs": {"type": "name", "properties": {"name": "urn:ogc:def:crs:EPSG::32619"}}, "features": [{"type": "Feature", "properties": {"id": 0, "source": "intersection", "node_kind": "midpoint", "node_snap_m": 0.0, "line": 1997, "gap_m": 0.8, "length_m": 0.4}, "geometry": {"type": "LineString", "coordinates": [[327855.0, 4690969.0], [327855.296875, 4690968.75]]}}, {"type": "Feature", "properties": {"id": 1, "source": "intersection", "node_kind": "midpoint", "node_snap_m": 0.0, "line": 2003, "gap_m": 0.8, "length_m": 0.4}, "geometry": {"type": "LineString", "coordinates": [[327855.59375, 4690968.5], [327855.296875, 4690968.75]]}}, {"type": "Feature", "properties": {"id": 2, "source": "intersection", "node_kind": "midpoint", "node_snap_m": 0.0, "line": 925, "gap_m": 2.3, "length_m": 1.2}, "geometry": {"type": "LineString", "coordinates": [[324451.0625, 4692295.5], [324452.1875, 4692295.75]]}}, {"type": "Feature", "properties": {"id": 3, "source": "intersection", "node_kind": "midpoint", "node_snap_m": 0.0, "line": 931, "gap_m": 2.3, "length_m": 1.2}, "geometry": {"type": "LineString", "coordinates": [[324453.3125, 4692296.0], [324452.1875, 4692295.75]]}}, {"type": "Feature", "properties": {"id": 4, "source": "intersection", "node_kind": "midpoint", "node_snap_m": 0.0, "line": 2847, "gap_m": 2.7, "length_m": 1.3}, "geometry": {"type": "LineString", "coordinates": [[331333.5, 4687281.0], [331332.15625, 4687281.0]]}}, {"type": "Feature", "properties": {"id": 5, "source": "intersection", "node_kind": "midpoint", "node_snap_m": 0.0, "line": 2848, "gap_m": 2.7, "length_m": 1.3}, "geometry": {"type": "LineString", "coordinates": [[331330.8125, 4687281.0], [331332.15625, 4687281.0]]}}, {"type": "Feature", "properties": {"id": 6, "source": "intersection", "node_kind": "midpoint", "node_snap_m": 0.0, "line": 1932, "gap_m": 3.0, "length_m": 1.5}, "geometry": {"type": "LineString", "coordinates": [[327974.5625, 4695798.0], [327975.984375, 4695797.5]]}}, {"type": "Feature", "properties": {"id": 7, "source": "intersection", "node_kind": "midpoint", "node_snap_m": 0.0, "line": 2134, "gap_m": 3.0, "length_m": 1.5}, "geometry": {"type": "LineString", "coordinates": [[327977.40625, 4695797.0], [327975.984375, 4695797.5]]}}, {"type": "Feature", "properties": {"id": 8, "source": "intersection", "node_kind": "midpoint", "node_snap_m": 0.0, "line": 2105, "gap_m": 3.1, "length_m": 1.5}, "geometry": {"type": "LineString", "coordinates": [[328465.0625, 4697804.5], [328464.6875, 4697806.0]]}}, {"type": "Feature", "properties": {"id": 9, "source": "intersection", "node_kind": "midpoint", "node_snap_m": 0.0, "line": 2116, "gap_m": 3.1, "length_m": 1.5}, "geometry": {"type": "LineString", "coordinates": [[328464.3125, 4697807.5], [328464.6875, 4697806.0]]}}, {"type": "Feature", "properties": {"id": 10, "source": "intersection", "node_kind": "midpoint", "node_snap_m": 0.0, "line": 2385, "gap_m": 4.4, "length_m": 2.2}, "geometry": {"type": "LineString", "coordinates": [[328851.3125, 4692020.5], [328853.484375, 4692020.25]]}}, {"type": "Feature", "properties": {"id": 11, "source": "intersection", "node_kind": "midpoint", "node_snap_m": 0.0, "line": 2386, "gap_m": 4.4, "length_m": 2.2}, "geometry": {"type": "LineString", "coordinates": [[328855.65625, 4692020.0], [328853.484375, 4692020.25]]}}, {"type": "Feature", "properties": {"id": 12, "source": "intersection", "node_kind": "midpoint", "node_snap_m": 0.0, "line": 1105, "gap_m": 4.6, "length_m": 2.3}, "geometry": {"type": "LineString", "coordinates": [[324504.3125, 4691518.5], [324506.40625, 4691519.5]]}}, {"type": "Feature", "properties": {"id": 13, "source": "intersection", "node_kind": "midpoint", "node_snap_m": 0.0, "line": 1108, "gap_m": 4.6, "length_m": 2.3}, "geometry": {"type": "LineString", "coordinates": [[324508.5, 4691520.5], [324506.40625, 4691519.5]]}}, {"type": "Feature", "properties": {"id": 14, "source": "intersection", "node_kind": "midpoint", "node_snap_m": 0.0, "line": 1603, "gap_m": 4.9, "length_m": 2.5}, "geometry": {"type": "LineString", "coordinates": [[326300.25, 4680781.0], [326298.828125, 4680783.0]]}}, {"type": "Feature", "properties": {"id": 15, "source": "intersection", "node_kind": "midpoint", "node_snap_m": 0.0, "line": 1605, "gap_m": 4.9, "length_m": 2.5}, "geometry": {"type": "LineString", "coordinates": [[326297.40625, 4680785.0], [326298.828125, 4680783.0]]}}, {"type": "Feature", "properties": {"id": 16, "source": "intersection", "node_kind": "osm_junction", "node_snap_m": 8.3, "line": 1932, "gap_m": 7.4, "length_m": 4.8}, "geometry": {"type": "LineString", "coordinates": [[327874.8125, 4695778.0], [327879.4264165021, 4695776.745473649]]}}, {"type": "Feature", "properties": {"id": 17, "source": "intersection", "node_kind": "osm_junction", "node_snap_m": 8.3, "line": 1941, "gap_m": 7.4, "length_m": 12.0}, "geometry": {"type": "LineString", "coordinates": [[327867.4375, 4695777.0], [327879.4264165021, 4695776.745473649]]}}, {"type": "Feature", "properties": {"id": 18, "source": "intersection", "node_kind": "osm_junction", "node_snap_m": 11.8, "line": 117, "gap_m": 7.8, "length_m": 15.5}, "geometry": {"type": "LineString", "coordinates": [[335760.4375, 4695883.5], [335770.53912994405, 4695871.725108796]]}}, {"type": "Feature", "properties": {"id": 19, "source": "intersection", "node_kind": "osm_junction", "node_snap_m": 11.8, "line": 118, "gap_m": 7.8, "length_m": 8.2}, "geometry": {"type": "LineString", "coordinates": [[335763.90625, 4695876.5], [335770.53912994405, 4695871.725108796]]}}, {"type": "Feature", "properties": {"id": 20, "source": "intersection", "node_kind": "osm_junction", "node_snap_m": 9.1, "line": 959, "gap_m": 8.5, "length_m": 13.3}, "geometry": {"type": "LineString", "coordinates": [[324339.75, 4688666.0], [324333.050019905, 4688654.521050118]]}}, {"type": "Feature", "properties": {"id": 21, "source": "intersection", "node_kind": "osm_junction", "node_snap_m": 9.1, "line": 963, "gap_m": 8.5, "length_m": 5.1}, "geometry": {"type": "LineString", "coordinates": [[324334.34375, 4688659.5], [324333.050019905, 4688654.521050118]]}}, {"type": "Feature", "properties": {"id": 22, "source": "intersection", "node_kind": "osm_junction", "node_snap_m": 12.6, "line": 97, "gap_m": 8.5, "length_m": 16.5}, "geometry": {"type": "LineString", "coordinates": [[335001.0, 4679553.5], [334988.52737335523, 4679564.354908446]]}}, {"type": "Feature", "properties": {"id": 23, "source": "intersection", "node_kind": "osm_junction", "node_snap_m": 12.6, "line": 102, "gap_m": 8.5, "length_m": 9.1}, "geometry": {"type": "LineString", "coordinates": [[334993.0625, 4679556.5], [334988.52737335523, 4679564.354908446]]}}, {"type": "Feature", "properties": {"id": 24, "source": "intersection", "node_kind": "midpoint", "node_snap_m": 0.0, "line": 2517, "gap_m": 10.7, "length_m": 5.3}, "geometry": {"type": "LineString", "coordinates": [[329303.6875, 4696751.5], [329309.015625, 4696751.75]]}}, {"type": "Feature", "properties": {"id": 25, "source": "intersection", "node_kind": "midpoint", "node_snap_m": 0.0, "line": 2522, "gap_m": 10.7, "length_m": 5.3}, "geometry": {"type": "LineString", "coordinates": [[329314.34375, 4696752.0], [329309.015625, 4696751.75]]}}, {"type": "Feature", "properties": {"id": 26, "source": "intersection", "node_kind": "osm_junction", "node_snap_m": 10.0, "line": 1935, "gap_m": 11.4, "length_m": 4.4}, "geometry": {"type": "LineString", "coordinates": [[327875.25, 4695775.5], [327879.4264165021, 4695776.745473649]]}}, {"type": "Feature", "properties": {"id": 27, "source": "intersection", "node_kind": "osm_junction", "node_snap_m": 10.0, "line": 1939, "gap_m": 11.4, "length_m": 15.7}, "geometry": {"type": "LineString", "coordinates": [[327864.15625, 4695773.0], [327879.4264165021, 4695776.745473649]]}}, {"type": "Feature", "properties": {"id": 28, "source": "intersection", "node_kind": "osm_junction", "node_snap_m": 23.2, "line": 2004, "gap_m": 12.6, "length_m": 29.3}, "geometry": {"type": "LineString", "coordinates": [[327867.3125, 4690975.5], [327870.17879926786, 4690946.367612808]]}}, {"type": "Feature", "properties": {"id": 29, "source": "intersection", "node_kind": "osm_junction", "node_snap_m": 23.2, "line": 2006, "gap_m": 12.6, "length_m": 17.2}, "geometry": {"type": "LineString", "coordinates": [[327871.1875, 4690963.5], [327870.17879926786, 4690946.367612808]]}}, {"type": "Feature", "properties": {"id": 30, "source": "intersection", "node_kind": "osm_junction", "node_snap_m": 8.3, "line": 1822, "gap_m": 12.7, "length_m": 14.2}, "geometry": {"type": "LineString", "coordinates": [[326808.15625, 4692467.5], [326815.987823859, 4692455.603744203]]}}, {"type": "Feature", "properties": {"id": 31, "source": "intersection", "node_kind": "osm_junction", "node_snap_m": 8.3, "line": 1833, "gap_m": 12.7, "length_m": 3.8}, "geometry": {"type": "LineString", "coordinates": [[326817.59375, 4692459.0], [326815.987823859, 4692455.603744203]]}}, {"type": "Feature", "properties": {"id": 32, "source": "intersection", "node_kind": "osm_junction", "node_snap_m": 12.7, "line": 1231, "gap_m": 13.2, "length_m": 19.2}, "geometry": {"type": "LineString", "coordinates": [[325545.75, 4695089.0], [325537.7834596657, 4695106.46882411]]}}, {"type": "Feature", "properties": {"id": 33, "source": "intersection", "node_kind": "osm_junction", "node_snap_m": 12.7, "line": 1238, "gap_m": 13.2, "length_m": 6.2}, "geometry": {"type": "LineString", "coordinates": [[325541.5625, 4695101.5], [325537.7834596657, 4695106.46882411]]}}, {"type": "Feature", "properties": {"id": 34, "source": "intersection", "node_kind": "osm_junction", "node_snap_m": 12.1, "line": 2660, "gap_m": 13.3, "length_m": 18.0}, "geometry": {"type": "LineString", "coordinates": [[329708.5625, 4688107.0], [329705.92089983553, 4688124.802956932]]}}, {"type": "Feature", "properties": {"id": 35, "source": "intersection", "node_kind": "osm_junction", "node_snap_m": 12.1, "line": 2661, "gap_m": 13.3, "length_m": 7.5}, "geometry": {"type": "LineString", "coordinates": [[329701.9375, 4688118.5], [329705.92089983553, 4688124.802956932]]}}, {"type": "Feature", "properties": {"id": 36, "source": "intersection", "node_kind": "osm_junction", "node_snap_m": 8.6, "line": 1250, "gap_m": 13.4, "length_m": 3.8}, "geometry": {"type": "LineString", "coordinates": [[325231.5, 4693855.0], [325229.3390836667, 4693851.841916032]]}}, {"type": "Feature", "properties": {"id": 37, "source": "intersection", "node_kind": "osm_junction", "node_snap_m": 8.6, "line": 1255, "gap_m": 13.4, "length_m": 15.0}, "geometry": {"type": "LineString", "coordinates": [[325223.25, 4693865.5], [325229.3390836667, 4693851.841916032]]}}, {"type": "Feature", "properties": {"id": 38, "source": "intersection", "node_kind": "midpoint", "node_snap_m": 0.0, "line": 3011, "gap_m": 15.0, "length_m": 7.5}, "geometry": {"type": "LineString", "coordinates": [[332326.34375, 4689629.5], [332326.71875, 4689637.0]]}}, {"type": "Feature", "properties": {"id": 39, "source": "intersection", "node_kind": "midpoint", "node_snap_m": 0.0, "line": 3012, "gap_m": 15.0, "length_m": 7.5}, "geometry": {"type": "LineString", "coordinates": [[332327.09375, 4689644.5], [332326.71875, 4689637.0]]}}, {"type": "Feature", "properties": {"id": 40, "source": "intersection", "node_kind": "osm_junction", "node_snap_m": 22.5, "line": 2530, "gap_m": 15.1, "length_m": 30.0}, "geometry": {"type": "LineString", "coordinates": [[329410.0625, 4691978.0], [329440.06951109716, 4691978.9796779975]]}}, {"type": "Feature", "properties": {"id": 41, "source": "intersection", "node_kind": "osm_junction", "node_snap_m": 22.5, "line": 2533, "gap_m": 15.1, "length_m": 15.0}, "geometry": {"type": "LineString", "coordinates": [[329425.0625, 4691979.5], [329440.06951109716, 4691978.9796779975]]}}, {"type": "Feature", "properties": {"id": 42, "source": "intersection", "node_kind": "osm_junction", "node_snap_m": 2.9, "line": 847, "gap_m": 16.1, "length_m": 10.8}, "geometry": {"type": "LineString", "coordinates": [[323645.40625, 4689116.5], [323652.75412824226, 4689108.606092718]]}}, {"type": "Feature", "properties": {"id": 43, "source": "intersection", "node_kind": "osm_junction", "node_snap_m": 2.9, "line": 850, "gap_m": 16.1, "length_m": 5.5}, "geometry": {"type": "LineString", "coordinates": [[323657.5625, 4689106.0], [323652.75412824226, 4689108.606092718]]}}, {"type": "Feature", "properties": {"id": 44, "source": "intersection", "node_kind": "midpoint", "node_snap_m": 0.0, "line": 1413, "gap_m": 16.9, "length_m": 8.5}, "geometry": {"type": "LineString", "coordinates": [[325631.25, 4682755.0], [325636.953125, 4682748.75]]}}, {"type": "Feature", "properties": {"id": 45, "source": "intersection", "node_kind": "midpoint", "node_snap_m": 0.0, "line": 1590, "gap_m": 16.9, "length_m": 8.5}, "geometry": {"type": "LineString", "coordinates": [[325642.65625, 4682742.5], [325636.953125, 4682748.75]]}}, {"type": "Feature", "properties": {"id": 46, "source": "intersection", "node_kind": "osm_junction", "node_snap_m": 8.6, "line": 1992, "gap_m": 17.2, "length_m": 15.2}, "geometry": {"type": "LineString", "coordinates": [[327681.15625, 4691528.0], [327670.52531691873, 4691538.839424916]]}}, {"type": "Feature", "properties": {"id": 47, "source": "intersection", "node_kind": "osm_junction", "node_snap_m": 8.6, "line": 1995, "gap_m": 17.2, "length_m": 8.1}, "geometry": {"type": "LineString", "coordinates": [[327676.34375, 4691544.5], [327670.52531691873, 4691538.839424916]]}}, {"type": "Feature", "properties": {"id": 48, "source": "intersection", "node_kind": "osm_junction", "node_snap_m": 17.8, "line": 1977, "gap_m": 17.4, "length_m": 26.0}, "geometry": {"type": "LineString", "coordinates": [[327704.84375, 4692192.5], [327729.5976941923, 4692184.468138089]]}}, {"type": "Feature", "properties": {"id": 49, "source": "intersection", "node_kind": "osm_junction", "node_snap_m": 17.8, "line": 1982, "gap_m": 17.4, "length_m": 10.5}, "geometry": {"type": "LineString", "coordinates": [[327722.25, 4692192.0], [327729.5976941923, 4692184.468138089]]}}, {"type": "Feature", "properties": {"id": 50, "source": "intersection", "node_kind": "osm_junction", "node_snap_m": 5.6, "line": 1994, "gap_m": 18.7, "length_m": 5.9}, "geometry": {"type": "LineString", "coordinates": [[327660.3125, 4691594.5], [327658.85771220183, 4691588.770627439]]}}, {"type": "Feature", "properties": {"id": 51, "source": "intersection", "node_kind": "osm_junction", "node_snap_m": 5.6, "line": 1995, "gap_m": 18.7, "length_m": 14.3}, "geometry": {"type": "LineString", "coordinates": [[327666.90625, 4691577.0], [327658.85771220183, 4691588.770627439]]}}, {"type": "Feature", "properties": {"id": 52, "source": "intersection", "node_kind": "osm_junction", "node_snap_m": 2.5, "line": 1799, "gap_m": 18.9, "length_m": 10.4}, "geometry": {"type": "LineString", "coordinates": [[326935.5, 4678886.0], [326944.8396633657, 4678890.557191541]]}}, {"type": "Feature", "properties": {"id": 53, "source": "intersection", "node_kind": "osm_junction", "node_snap_m": 2.5, "line": 1801, "gap_m": 18.9, "length_m": 9.1}, "geometry": {"type": "LineString", "coordinates": [[326950.0625, 4678898.0], [326944.8396633657, 4678890.557191541]]}}, {"type": "Feature", "properties": {"id": 54, "source": "intersection", "node_kind": "midpoint", "node_snap_m": 0.0, "line": 760, "gap_m": 19.5, "length_m": 9.8}, "geometry": {"type": "LineString", "coordinates": [[323501.25, 4695819.5], [323511.0, 4695819.25]]}}, {"type": "Feature", "properties": {"id": 55, "source": "intersection", "node_kind": "midpoint", "node_snap_m": 0.0, "line": 766, "gap_m": 19.5, "length_m": 9.8}, "geometry": {"type": "LineString", "coordinates": [[323520.75, 4695819.0], [323511.0, 4695819.25]]}}, {"type": "Feature", "properties": {"id": 56, "source": "intersection", "node_kind": "osm_junction", "node_snap_m": 13.4, "line": 611, "gap_m": 20.1, "length_m": 17.7}, "geometry": {"type": "LineString", "coordinates": [[322682.25, 4690415.0], [322664.9066800113, 4690411.341835464]]}}, {"type": "Feature", "properties": {"id": 57, "source": "intersection", "node_kind": "osm_junction", "node_snap_m": 13.4, "line": 626, "gap_m": 20.1, "length_m": 15.7}, "geometry": {"type": "LineString", "coordinates": [[322672.34375, 4690397.5], [322664.9066800113, 4690411.341835464]]}}, {"type": "Feature", "properties": {"id": 58, "source": "intersection", "node_kind": "osm_junction", "node_snap_m": 5.1, "line": 1783, "gap_m": 22.5, "length_m": 9.5}, "geometry": {"type": "LineString", "coordinates": [[327292.8125, 4680353.5], [327296.94848482526, 4680344.966501995]]}}, {"type": "Feature", "properties": {"id": 59, "source": "intersection", "node_kind": "osm_junction", "node_snap_m": 5.1, "line": 1788, "gap_m": 22.5, "length_m": 14.7}, "geometry": {"type": "LineString", "coordinates": [[327292.5, 4680331.0], [327296.94848482526, 4680344.966501995]]}}, {"type": "Feature", "properties": {"id": 60, "source": "intersection", "node_kind": "osm_junction", "node_snap_m": 4.9, "line": 2233, "gap_m": 23.2, "length_m": 10.7}, "geometry": {"type": "LineString", "coordinates": [[328360.5, 4688131.5], [328357.0972924192, 4688141.643636748]]}}, {"type": "Feature", "properties": {"id": 61, "source": "intersection", "node_kind": "osm_junction", "node_snap_m": 4.9, "line": 2237, "gap_m": 23.2, "length_m": 14.2}, "geometry": {"type": "LineString", "coordinates": [[328363.1875, 4688154.5], [328357.0972924192, 4688141.643636748]]}}, {"type": "Feature", "properties": {"id": 62, "source": "intersection", "node_kind": "osm_junction", "node_snap_m": 4.0, "line": 225, "gap_m": 23.8, "length_m": 8.1}, "geometry": {"type": "LineString", "coordinates": [[336396.59375, 4694113.0], [336404.3710477012, 4694110.6734556975]]}}, {"type": "Feature", "properties": {"id": 63, "source": "intersection", "node_kind": "osm_junction", "node_snap_m": 4.0, "line": 226, "gap_m": 23.8, "length_m": 15.8}, "geometry": {"type": "LineString", "coordinates": [[336420.15625, 4694109.5], [336404.3710477012, 4694110.6734556975]]}}, {"type": "Feature", "properties": {"id": 64, "source": "intersection", "node_kind": "osm_junction", "node_snap_m": 8.7, "line": 878, "gap_m": 24.0, "length_m": 6.4}, "geometry": {"type": "LineString", "coordinates": [[323766.75, 4683776.0], [323771.141021945, 4683771.298307227]]}}, {"type": "Feature", "properties": {"id": 65, "source": "intersection", "node_kind": "osm_junction", "node_snap_m": 8.7, "line": 883, "gap_m": 24.0, "length_m": 20.0}, "geometry": {"type": "LineString", "coordinates": [[323790.75, 4683775.0], [323771.141021945, 4683771.298307227]]}}, {"type": "Feature", "properties": {"id": 66, "source": "intersection", "node_kind": "osm_junction", "node_snap_m": 4.4, "line": 2369, "gap_m": 24.6, "length_m": 15.7}, "geometry": {"type": "LineString", "coordinates": [[329070.4375, 4693181.0], [329080.1098876116, 4693168.604989658]]}}, {"type": "Feature", "properties": {"id": 67, "source": "intersection", "node_kind": "osm_junction", "node_snap_m": 4.4, "line": 2502, "gap_m": 24.6, "length_m": 9.8}, "geometry": {"type": "LineString", "coordinates": [[329089.1875, 4693165.0], [329080.1098876116, 4693168.604989658]]}}, {"type": "Feature", "properties": {"id": 68, "source": "intersection", "node_kind": "osm_junction", "node_snap_m": 5.4, "line": 1088, "gap_m": 24.7, "length_m": 10.4}, "geometry": {"type": "LineString", "coordinates": [[325123.9375, 4694051.0], [325124.1509589992, 4694040.617843415]]}}, {"type": "Feature", "properties": {"id": 69, "source": "intersection", "node_kind": "osm_junction", "node_snap_m": 5.4, "line": 1258, "gap_m": 24.7, "length_m": 16.0}, "geometry": {"type": "LineString", "coordinates": [[325135.1875, 4694029.0], [325124.1509589992, 4694040.617843415]]}}, {"type": "Feature", "properties": {"id": 70, "source": "intersection", "node_kind": "osm_junction", "node_snap_m": 5.4, "line": 846, "gap_m": 25.1, "length_m": 17.6}, "geometry": {"type": "LineString", "coordinates": [[323638.5, 4689119.0], [323652.75412824226, 4689108.606092718]]}}, {"type": "Feature", "properties": {"id": 71, "source": "intersection", "node_kind": "osm_junction", "node_snap_m": 5.4, "line": 849, "gap_m": 25.1, "length_m": 7.8}, "geometry": {"type": "LineString", "coordinates": [[323656.9375, 4689102.0], [323652.75412824226, 4689108.606092718]]}}, {"type": "Feature", "properties": {"id": 72, "source": "intersection", "node_kind": "osm_junction", "node_snap_m": 6.7, "line": 1869, "gap_m": 25.1, "length_m": 14.9}, "geometry": {"type": "LineString", "coordinates": [[327231.59375, 4688735.0], [327220.48824702424, 4688744.879254213]]}}, {"type": "Feature", "properties": {"id": 73, "source": "intersection", "node_kind": "osm_junction", "node_snap_m": 6.7, "line": 1874, "gap_m": 25.1, "length_m": 13.6}, "geometry": {"type": "LineString", "coordinates": [[327207.3125, 4688741.5], [327220.48824702424, 4688744.879254213]]}}, {"type": "Feature", "properties": {"id": 74, "source": "intersection", "node_kind": "osm_junction", "node_snap_m": 3.5, "line": 2195, "gap_m": 25.4, "length_m": 11.7}, "geometry": {"type": "LineString", "coordinates": [[328318.9375, 4690746.5], [328309.2088574673, 4690739.946855134]]}}, {"type": "Feature", "properties": {"id": 75, "source": "intersection", "node_kind": "osm_junction", "node_snap_m": 3.5, "line": 2197, "gap_m": 25.4, "length_m": 14.5}, "geometry": {"type": "LineString", "coordinates": [[328294.8125, 4690738.5], [328309.2088574673, 4690739.946855134]]}}, {"type": "Feature", "properties": {"id": 76, "source": "intersection", "node_kind": "osm_junction", "node_snap_m": 21.8, "line": 1005, "gap_m": 26.2, "length_m": 9.1}, "geometry": {"type": "LineString", "coordinates": [[324469.8125, 4683682.5], [324471.9971017886, 4683691.333023173]]}}, {"type": "Feature", "properties": {"id": 77, "source": "intersection", "node_kind": "osm_junction", "node_snap_m": 21.8, "line": 1009, "gap_m": 26.2, "length_m": 34.9}, "geometry": {"type": "LineString", "coordinates": [[324454.8125, 4683661.0], [324471.9971017886, 4683691.333023173]]}}, {"type": "Feature", "properties": {"id": 78, "source": "intersection", "node_kind": "osm_junction", "node_snap_m": 7.7, "line": 2181, "gap_m": 26.8, "length_m": 11.1}, "geometry": {"type": "LineString", "coordinates": [[328124.25, 4691765.5], [328115.0063102208, 4691771.641807013]]}}, {"type": "Feature", "properties": {"id": 79, "source": "intersection", "node_kind": "osm_junction", "node_snap_m": 7.7, "line": 2182, "gap_m": 26.8, "length_m": 18.9}, "geometry": {"type": "LineString", "coordinates": [[328114.5, 4691790.5], [328115.0063102208, 4691771.641807013]]}}, {"type": "Feature", "properties": {"id": 80, "source": "intersection", "node_kind": "osm_junction", "node_snap_m": 3.5, "line": 2502, "gap_m": 27.1, "length_m": 14.0}, "geometry": {"type": "LineString", "coordinates": [[329126.40625, 4693130.0], [329134.22244147933, 4693118.3508616965]]}}, {"type": "Feature", "properties": {"id": 81, "source": "intersection", "node_kind": "osm_junction", "node_snap_m": 3.5, "line": 2507, "gap_m": 27.1, "length_m": 14.0}, "geometry": {"type": "LineString", "coordinates": [[329146.65625, 4693112.0], [329134.22244147933, 4693118.3508616965]]}}, {"type": "Feature", "properties": {"id": 82, "source": "intersection", "node_kind": "osm_junction", "node_snap_m": 4.8, "line": 909, "gap_m": 27.2, "length_m": 14.9}, "geometry": {"type": "LineString", "coordinates": [[324188.6875, 4694341.0], [324174.9167880796, 4694335.208601999]]}}, {"type": "Feature", "properties": {"id": 83, "source": "intersection", "node_kind": "osm_junction", "node_snap_m": 4.8, "line": 918, "gap_m": 27.2, "length_m": 13.9}, "geometry": {"type": "LineString", "coordinates": [[324161.5625, 4694339.0], [324174.9167880796, 4694335.208601999]]}}, {"type": "Feature", "properties": {"id": 84, "source": "intersection", "node_kind": "osm_junction", "node_snap_m": 5.8, "line": 2192, "gap_m": 27.5, "length_m": 16.5}, "geometry": {"type": "LineString", "coordinates": [[328353.3125, 4690559.5], [328369.79283427075, 4690559.6868082555]]}}, {"type": "Feature", "properties": {"id": 85, "source": "intersection", "node_kind": "osm_junction", "node_snap_m": 5.8, "line": 2193, "gap_m": 27.5, "length_m": 13.2}, "geometry": {"type": "LineString", "coordinates": [[328379.09375, 4690569.0], [328369.79283427075, 4690559.6868082555]]}}, {"type": "Feature", "properties": {"id": 86, "source": "intersection", "node_kind": "osm_junction", "node_snap_m": 1.3, "line": 94, "gap_m": 27.6, "length_m": 14.4}, "geometry": {"type": "LineString", "coordinates": [[334521.0, 4694542.5], [334508.310103568, 4694535.7453068765]]}}, {"type": "Feature", "properties": {"id": 87, "source": "intersection", "node_kind": "osm_junction", "node_snap_m": 1.3, "line": 95, "gap_m": 27.6, "length_m": 13.3}, "geometry": {"type": "LineString", "coordinates": [[334495.65625, 4694531.5], [334508.310103568, 4694535.7453068765]]}}, {"type": "Feature", "properties": {"id": 88, "source": "intersection", "node_kind": "midpoint", "node_snap_m": 0.0, "line": 758, "gap_m": 27.8, "length_m": 13.9}, "geometry": {"type": "LineString", "coordinates": [[323497.9375, 4695831.5], [323511.671875, 4695829.5]]}}, {"type": "Feature", "properties": {"id": 89, "source": "intersection", "node_kind": "midpoint", "node_snap_m": 0.0, "line": 762, "gap_m": 27.8, "length_m": 13.9}, "geometry": {"type": "LineString", "coordinates": [[323525.40625, 4695827.5], [323511.671875, 4695829.5]]}}, {"type": "Feature", "properties": {"id": 90, "source": "intersection", "node_kind": "osm_junction", "node_snap_m": 5.1, "line": 2535, "gap_m": 28.0, "length_m": 12.1}, "geometry": {"type": "LineString", "coordinates": [[329228.5625, 4690960.5], [329228.1765909553, 4690948.4022316]]}}, {"type": "Feature", "properties": {"id": 91, "source": "intersection", "node_kind": "osm_junction", "node_snap_m": 5.1, "line": 2548, "gap_m": 28.0, "length_m": 17.3}, "geometry": {"type": "LineString", "coordinates": [[329237.6875, 4690934.0], [329228.1765909553, 4690948.4022316]]}}, {"type": "Feature", "properties": {"id": 92, "source": "intersection", "node_kind": "osm_junction", "node_snap_m": 5.2, "line": 999, "gap_m": 28.3, "length_m": 12.2}, "geometry": {"type": "LineString", "coordinates": [[324486.75, 4683832.0], [324496.7397589492, 4683824.93658531]]}}, {"type": "Feature", "properties": {"id": 93, "source": "intersection", "node_kind": "osm_junction", "node_snap_m": 5.2, "line": 1175, "gap_m": 28.3, "length_m": 17.4}, "geometry": {"type": "LineString", "coordinates": [[324514.1875, 4683825.0], [324496.7397589492, 4683824.93658531]]}}, {"type": "Feature", "properties": {"id": 94, "source": "intersection", "node_kind": "osm_junction", "node_snap_m": 3.8, "line": 2388, "gap_m": 28.7, "length_m": 12.6}, "geometry": {"type": "LineString", "coordinates": [[328851.4375, 4690925.5], [328840.7890398649, 4690918.673358662]]}}, {"type": "Feature", "properties": {"id": 95, "source": "intersection", "node_kind": "osm_junction", "node_snap_m": 3.8, "line": 2398, "gap_m": 28.7, "length_m": 16.8}, "geometry": {"type": "LineString", "coordinates": [[328824.15625, 4690916.5], [328840.7890398649, 4690918.673358662]]}}, {"type": "Feature", "properties": {"id": 96, "source": "intersection", "node_kind": "osm_junction", "node_snap_m": 5.3, "line": 1018, "gap_m": 29.0, "length_m": 18.7}, "geometry": {"type": "LineString", "coordinates": [[318817.9375, 4688807.0], [318836.4393341092, 4688809.774271243]]}}, {"type": "Feature", "properties": {"id": 97, "source": "intersection", "node_kind": "osm_junction", "node_snap_m": 5.3, "line": 1020, "gap_m": 29.0, "length_m": 11.3}, "geometry": {"type": "LineString", "coordinates": [[318846.90625, 4688805.5], [318836.4393341092, 4688809.774271243]]}}, {"type": "Feature", "properties": {"id": 98, "source": "intersection", "node_kind": "osm_junction", "node_snap_m": 6.3, "line": 2233, "gap_m": 29.1, "length_m": 11.5}, "geometry": {"type": "LineString", "coordinates": [[328351.0625, 4688078.0], [328345.4975106383, 4688067.951534612]]}}, {"type": "Feature", "properties": {"id": 99, "source": "intersection", "node_kind": "osm_junction", "node_snap_m": 6.3, "line": 2246, "gap_m": 29.1, "length_m": 19.3}, "geometry": {"type": "LineString", "coordinates": [[328348.9375, 4688049.0], [328345.4975106383, 4688067.951534612]]}}, {"type": "Feature", "properties": {"id": 100, "source": "intersection", "node_kind": "osm_junction", "node_snap_m": 2.2, "line": 2314, "gap_m": 29.2, "length_m": 13.8}, "geometry": {"type": "LineString", "coordinates": [[328835.6875, 4697277.5], [328829.97375110164, 4697264.970213342]]}}, {"type": "Feature", "properties": {"id": 101, "source": "intersection", "node_kind": "osm_junction", "node_snap_m": 2.2, "line": 2383, "gap_m": 29.2, "length_m": 15.7}, "geometry": {"type": "LineString", "coordinates": [[328827.4375, 4697249.5], [328829.97375110164, 4697264.970213342]]}}, {"type": "Feature", "properties": {"id": 102, "source": "intersection", "node_kind": "osm_junction", "node_snap_m": 2.3, "line": 1049, "gap_m": 29.2, "length_m": 14.9}, "geometry": {"type": "LineString", "coordinates": [[325079.25, 4697965.5], [325088.408115013, 4697953.7051011445]]}}, {"type": "Feature", "properties": {"id": 103, "source": "intersection", "node_kind": "osm_junction", "node_snap_m": 2.3, "line": 1200, "gap_m": 29.2, "length_m": 14.7}, "geometry": {"type": "LineString", "coordinates": [[325100.5625, 4697945.5], [325088.408115013, 4697953.7051011445]]}}, {"type": "Feature", "properties": {"id": 104, "source": "intersection", "node_kind": "osm_junction", "node_snap_m": 4.0, "line": 2270, "gap_m": 29.3, "length_m": 16.5}, "geometry": {"type": "LineString", "coordinates": [[328500.59375, 4685779.0], [328515.57743588847, 4685785.932047281]]}}, {"type": "Feature", "properties": {"id": 105, "source": "intersection", "node_kind": "osm_junction", "node_snap_m": 4.0, "line": 2427, "gap_m": 29.3, "length_m": 13.7}, "geometry": {"type": "LineString", "coordinates": [[328523.6875, 4685797.0], [328515.57743588847, 4685785.932047281]]}}, {"type": "Feature", "properties": {"id": 106, "source": "intersection", "node_kind": "osm_junction", "node_snap_m": 1.9, "line": 3072, "gap_m": 29.5, "length_m": 14.1}, "geometry": {"type": "LineString", "coordinates": [[333403.65625, 4677747.5], [333404.85800089897, 4677733.454215217]]}}, {"type": "Feature", "properties": {"id": 107, "source": "intersection", "node_kind": "osm_junction", "node_snap_m": 1.9, "line": 3074, "gap_m": 29.5, "length_m": 15.6}, "geometry": {"type": "LineString", "coordinates": [[333402.4375, 4677718.0], [333404.85800089897, 4677733.454215217]]}}, {"type": "Feature", "properties": {"id": 108, "source": "intersection", "node_kind": "osm_junction", "node_snap_m": 5.9, "line": 779, "gap_m": 29.9, "length_m": 17.9}, "geometry": {"type": "LineString", "coordinates": [[323810.25, 4694281.5], [323825.4614763404, 4694290.867460285]]}}, {"type": "Feature", "properties": {"id": 109, "source": "intersection", "node_kind": "osm_junction", "node_snap_m": 5.9, "line": 780, "gap_m": 29.9, "length_m": 14.1}, "geometry": {"type": "LineString", "coordinates": [[323839.34375, 4694288.5], [323825.4614763404, 4694290.867460285]]}}, {"type": "Feature", "properties": {"id": 110, "source": "intersection", "node_kind": "osm_junction", "node_snap_m": 3.1, "line": 781, "gap_m": 30.0, "length_m": 13.4}, "geometry": {"type": "LineString", "coordinates": [[323812.0625, 4694290.5], [323825.4614763404, 4694290.867460285]]}}, {"type": "Feature", "properties": {"id": 111, "source": "intersection", "node_kind": "osm_junction", "node_snap_m": 3.1, "line": 912, "gap_m": 30.0, "length_m": 17.0}, "geometry": {"type": "LineString", "coordinates": [[323841.3125, 4694297.0], [323825.4614763404, 4694290.867460285]]}}, {"type": "Feature", "properties": {"id": 112, "source": "intersection", "node_kind": "osm_junction", "node_snap_m": 2.9, "line": 837, "gap_m": 30.2, "length_m": 12.7}, "geometry": {"type": "LineString", "coordinates": [[323673.59375, 4690021.0], [323683.4755804937, 4690013.004585812]]}}, {"type": "Feature", "properties": {"id": 113, "source": "intersection", "node_kind": "osm_junction", "node_snap_m": 2.9, "line": 838, "gap_m": 30.2, "length_m": 17.7}, "geometry": {"type": "LineString", "coordinates": [[323699.25, 4690005.0], [323683.4755804937, 4690013.004585812]]}}, {"type": "Feature", "properties": {"id": 114, "source": "intersection", "node_kind": "osm_junction", "node_snap_m": 7.2, "line": 1523, "gap_m": 31.0, "length_m": 20.7}, "geometry": {"type": "LineString", "coordinates": [[325957.8125, 4687625.5], [325962.45797353075, 4687645.695550615]]}}, {"type": "Feature", "properties": {"id": 115, "source": "intersection", "node_kind": "osm_junction", "node_snap_m": 7.2, "line": 1530, "gap_m": 31.0, "length_m": 12.5}, "geometry": {"type": "LineString", "coordinates": [[325956.15625, 4687656.5], [325962.45797353075, 4687645.695550615]]}}, {"type": "Feature", "properties": {"id": 116, "source": "intersection", "node_kind": "osm_junction", "node_snap_m": 7.4, "line": 2564, "gap_m": 31.1, "length_m": 19.8}, "geometry": {"type": "LineString", "coordinates": [[329335.5, 4690649.5], [329323.1472841598, 4690664.959841403]]}}, {"type": "Feature", "properties": {"id": 117, "source": "intersection", "node_kind": "osm_junction", "node_snap_m": 7.4, "line": 2566, "gap_m": 31.1, "length_m": 14.3}, "geometry": {"type": "LineString", "coordinates": [[329325.59375, 4690679.0], [329323.1472841598, 4690664.959841403]]}}, {"type": "Feature", "properties": {"id": 118, "source": "intersection", "node_kind": "osm_junction", "node_snap_m": 4.8, "line": 2607, "gap_m": 31.2, "length_m": 20.1}, "geometry": {"type": "LineString", "coordinates": [[329245.9375, 4683845.0], [329242.1794670122, 4683825.268101389]]}}, {"type": "Feature", "properties": {"id": 119, "source": "intersection", "node_kind": "osm_junction", "node_snap_m": 4.8, "line": 2608, "gap_m": 31.2, "length_m": 11.3}, "geometry": {"type": "LineString", "coordinates": [[329242.8125, 4683814.0], [329242.1794670122, 4683825.268101389]]}}, {"type": "Feature", "properties": {"id": 120, "source": "intersection", "node_kind": "osm_junction", "node_snap_m": 6.9, "line": 1669, "gap_m": 31.2, "length_m": 13.4}, "geometry": {"type": "LineString", "coordinates": [[326474.6875, 4690378.5], [326465.01586214, 4690369.254702001]]}}, {"type": "Feature", "properties": {"id": 121, "source": "intersection", "node_kind": "osm_junction", "node_snap_m": 6.9, "line": 1673, "gap_m": 31.2, "length_m": 20.0}, "geometry": {"type": "LineString", "coordinates": [[326445.0, 4690369.0], [326465.01586214, 4690369.254702001]]}}, {"type": "Feature", "properties": {"id": 122, "source": "intersection", "node_kind": "osm_junction", "node_snap_m": 3.5, "line": 784, "gap_m": 31.5, "length_m": 15.3}, "geometry": {"type": "LineString", "coordinates": [[323764.65625, 4693768.0], [323751.090828546, 4693760.927675747]]}}, {"type": "Feature", "properties": {"id": 123, "source": "intersection", "node_kind": "osm_junction", "node_snap_m": 3.5, "line": 787, "gap_m": 31.5, "length_m": 16.9}, "geometry": {"type": "LineString", "coordinates": [[323734.1875, 4693760.0], [323751.090828546, 4693760.927675747]]}}, {"type": "Feature", "properties": {"id": 124, "source": "intersection", "node_kind": "osm_junction", "node_snap_m": 3.4, "line": 1326, "gap_m": 31.8, "length_m": 17.8}, "geometry": {"type": "LineString", "coordinates": [[325827.4375, 4690122.5], [325843.08599335945, 4690131.071159956]]}}, {"type": "Feature", "properties": {"id": 125, "source": "intersection", "node_kind": "osm_junction", "node_snap_m": 3.4, "line": 1499, "gap_m": 31.8, "length_m": 14.5}, "geometry": {"type": "LineString", "coordinates": [[325857.4375, 4690133.0], [325843.08599335945, 4690131.071159956]]}}, {"type": "Feature", "properties": {"id": 126, "source": "intersection", "node_kind": "osm_junction", "node_snap_m": 6.4, "line": 2017, "gap_m": 32.6, "length_m": 17.7}, "geometry": {"type": "LineString", "coordinates": [[327918.3125, 4690857.0], [327904.74115028034, 4690845.6748316325]]}}, {"type": "Feature", "properties": {"id": 127, "source": "intersection", "node_kind": "osm_junction", "node_snap_m": 6.4, "line": 2018, "gap_m": 32.6, "length_m": 17.4}, "geometry": {"type": "LineString", "coordinates": [[327887.40625, 4690846.5], [327904.74115028034, 4690845.6748316325]]}}, {"type": "Feature", "properties": {"id": 128, "source": "intersection", "node_kind": "osm_junction", "node_snap_m": 8.1, "line": 1241, "gap_m": 33.5, "length_m": 24.1}, "geometry": {"type": "LineString", "coordinates": [[325563.0, 4694877.5], [325563.1009495689, 4694901.645708053]]}}, {"type": "Feature", "properties": {"id": 129, "source": "intersection", "node_kind": "osm_junction", "node_snap_m": 8.1, "line": 1246, "gap_m": 33.5, "length_m": 10.5}, "geometry": {"type": "LineString", "coordinates": [[325568.6875, 4694910.5], [325563.1009495689, 4694901.645708053]]}}, {"type": "Feature", "properties": {"id": 130, "source": "intersection", "node_kind": "osm_junction", "node_snap_m": 6.4, "line": 2556, "gap_m": 33.5, "length_m": 17.9}, "geometry": {"type": "LineString", "coordinates": [[329239.9375, 4690859.0], [329257.8081187305, 4690857.648312421]]}}, {"type": "Feature", "properties": {"id": 131, "source": "intersection", "node_kind": "osm_junction", "node_snap_m": 6.4, "line": 2565, "gap_m": 33.5, "length_m": 17.9}, "geometry": {"type": "LineString", "coordinates": [[329272.0625, 4690868.5], [329257.8081187305, 4690857.648312421]]}}, {"type": "Feature", "properties": {"id": 132, "source": "intersection", "node_kind": "osm_junction", "node_snap_m": 2.1, "line": 724, "gap_m": 34.2, "length_m": 16.3}, "geometry": {"type": "LineString", "coordinates": [[323531.6875, 4689482.5], [323546.87711467873, 4689488.312297469]]}}, {"type": "Feature", "properties": {"id": 133, "source": "intersection", "node_kind": "osm_junction", "node_snap_m": 2.1, "line": 840, "gap_m": 34.2, "length_m": 18.2}, "geometry": {"type": "LineString", "coordinates": [[323564.84375, 4689491.0], [323546.87711467873, 4689488.312297469]]}}, {"type": "Feature", "properties": {"id": 134, "source": "intersection", "node_kind": "osm_junction", "node_snap_m": 9.7, "line": 539, "gap_m": 35.0, "length_m": 26.6}, "geometry": {"type": "LineString", "coordinates": [[322112.5625, 4689792.0], [322085.9722327757, 4689793.006184839]]}}, {"type": "Feature", "properties": {"id": 135, "source": "intersection", "node_kind": "osm_junction", "node_snap_m": 9.7, "line": 543, "gap_m": 35.0, "length_m": 9.5}, "geometry": {"type": "LineString", "coordinates": [[322078.1875, 4689798.5], [322085.9722327757, 4689793.006184839]]}}, {"type": "Feature", "properties": {"id": 136, "source": "intersection", "node_kind": "osm_junction", "node_snap_m": 4.9, "line": 1176, "gap_m": 35.1, "length_m": 21.3}, "geometry": {"type": "LineString", "coordinates": [[324558.3125, 4683787.5], [324541.6570389995, 4683774.257767297]]}}, {"type": "Feature", "properties": {"id": 137, "source": "intersection", "node_kind": "osm_junction", "node_snap_m": 4.9, "line": 1182, "gap_m": 35.1, "length_m": 14.5}, "geometry": {"type": "LineString", "coordinates": [[324534.75, 4683761.5], [324541.6570389995, 4683774.257767297]]}}, {"type": "Feature", "properties": {"id": 138, "source": "intersection", "node_kind": "osm_junction", "node_snap_m": 6.8, "line": 702, "gap_m": 35.2, "length_m": 23.9}, "geometry": {"type": "LineString", "coordinates": [[323258.84375, 4691470.0], [323235.3225849358, 4691474.501720927]]}}, {"type": "Feature", "properties": {"id": 139, "source": "intersection", "node_kind": "osm_junction", "node_snap_m": 6.8, "line": 705, "gap_m": 35.2, "length_m": 11.7}, "geometry": {"type": "LineString", "coordinates": [[323225.25, 4691480.5], [323235.3225849358, 4691474.501720927]]}}, {"type": "Feature", "properties": {"id": 140, "source": "intersection", "node_kind": "midpoint", "node_snap_m": 0.0, "line": 2180, "gap_m": 35.8, "length_m": 17.9}, "geometry": {"type": "LineString", "coordinates": [[328080.15625, 4691870.5], [328087.046875, 4691854.0]]}}, {"type": "Feature", "properties": {"id": 141, "source": "intersection", "node_kind": "midpoint", "node_snap_m": 0.0, "line": 2182, "gap_m": 35.8, "length_m": 17.9}, "geometry": {"type": "LineString", "coordinates": [[328093.9375, 4691837.5], [328087.046875, 4691854.0]]}}, {"type": "Feature", "properties": {"id": 142, "source": "intersection", "node_kind": "osm_junction", "node_snap_m": 16.3, "line": 2903, "gap_m": 36.8, "length_m": 3.5}, "geometry": {"type": "LineString", "coordinates": [[331853.40625, 4690297.5], [331853.0500478932, 4690300.976146925]]}}, {"type": "Feature", "properties": {"id": 143, "source": "intersection", "node_kind": "osm_junction", "node_snap_m": 16.3, "line": 2909, "gap_m": 36.8, "length_m": 34.6}, "geometry": {"type": "LineString", "coordinates": [[331878.90625, 4690324.0], [331853.0500478932, 4690300.976146925]]}}, {"type": "Feature", "properties": {"id": 144, "source": "intersection", "node_kind": "osm_junction", "node_snap_m": 2.6, "line": 2741, "gap_m": 36.8, "length_m": 19.9}, "geometry": {"type": "LineString", "coordinates": [[330808.1875, 4691133.0], [330826.13358561567, 4691141.613061417]]}}, {"type": "Feature", "properties": {"id": 145, "source": "intersection", "node_kind": "osm_junction", "node_snap_m": 2.6, "line": 2811, "gap_m": 36.8, "length_m": 17.2}, "geometry": {"type": "LineString", "coordinates": [[330839.40625, 4691152.5], [330826.13358561567, 4691141.613061417]]}}, {"type": "Feature", "properties": {"id": 146, "source": "intersection", "node_kind": "osm_junction", "node_snap_m": 4.8, "line": 1789, "gap_m": 37.0, "length_m": 16.0}, "geometry": {"type": "LineString", "coordinates": [[327303.59375, 4679815.0], [327299.5305201971, 4679799.573365497]]}}, {"type": "Feature", "properties": {"id": 147, "source": "intersection", "node_kind": "osm_junction", "node_snap_m": 4.8, "line": 1793, "gap_m": 37.0, "length_m": 21.8}, "geometry": {"type": "LineString", "coordinates": [[327302.84375, 4679778.0], [327299.5305201971, 4679799.573365497]]}}, {"type": "Feature", "properties": {"id": 148, "source": "intersection", "node_kind": "osm_junction", "node_snap_m": 11.4, "line": 1538, "gap_m": 37.0, "length_m": 10.6}, "geometry": {"type": "LineString", "coordinates": [[325779.0, 4686727.5], [325772.75945710525, 4686718.977655792]]}}, {"type": "Feature", "properties": {"id": 149, "source": "intersection", "node_kind": "osm_junction", "node_snap_m": 11.4, "line": 1544, "gap_m": 37.0, "length_m": 28.8}, "geometry": {"type": "LineString", "coordinates": [[325777.34375, 4686690.5], [325772.75945710525, 4686718.977655792]]}}, {"type": "Feature", "properties": {"id": 150, "source": "intersection", "node_kind": "osm_junction", "node_snap_m": 6.7, "line": 2645, "gap_m": 37.6, "length_m": 19.3}, "geometry": {"type": "LineString", "coordinates": [[329867.09375, 4690570.5], [329870.60439098935, 4690551.517814543]]}}, {"type": "Feature", "properties": {"id": 151, "source": "intersection", "node_kind": "osm_junction", "node_snap_m": 6.7, "line": 2654, "gap_m": 37.6, "length_m": 20.6}, "geometry": {"type": "LineString", "coordinates": [[329860.65625, 4690533.5], [329870.60439098935, 4690551.517814543]]}}, {"type": "Feature", "properties": {"id": 152, "source": "intersection", "node_kind": "osm_junction", "node_snap_m": 6.2, "line": 867, "gap_m": 37.6, "length_m": 16.9}, "geometry": {"type": "LineString", "coordinates": [[323904.90625, 4684887.5], [323915.0638289008, 4684900.95988003]]}}, {"type": "Feature", "properties": {"id": 153, "source": "intersection", "node_kind": "osm_junction", "node_snap_m": 6.2, "line": 985, "gap_m": 37.6, "length_m": 22.3}, "geometry": {"type": "LineString", "coordinates": [[323936.09375, 4684908.5], [323915.0638289008, 4684900.95988003]]}}, {"type": "Feature", "properties": {"id": 154, "source": "intersection", "node_kind": "osm_junction", "node_snap_m": 5.6, "line": 2542, "gap_m": 38.0, "length_m": 20.7}, "geometry": {"type": "LineString", "coordinates": [[329453.09375, 4690946.0], [329454.25935491186, 4690925.3031907]]}}, {"type": "Feature", "properties": {"id": 155, "source": "intersection", "node_kind": "osm_junction", "node_snap_m": 5.6, "line": 2551, "gap_m": 38.0, "length_m": 18.8}, "geometry": {"type": "LineString", "coordinates": [[329465.25, 4690910.0], [329454.25935491186, 4690925.3031907]]}}, {"type": "Feature", "properties": {"id": 156, "source": "intersection", "node_kind": "osm_junction", "node_snap_m": 17.9, "line": 239, "gap_m": 38.0, "length_m": 1.6}, "geometry": {"type": "LineString", "coordinates": [[337616.09375, 4694194.5], [337615.01669867925, 4694195.6310769925]]}}, {"type": "Feature", "properties": {"id": 157, "source": "intersection", "node_kind": "osm_junction", "node_snap_m": 17.9, "line": 242, "gap_m": 38.0, "length_m": 36.9}, "geometry": {"type": "LineString", "coordinates": [[337615.8125, 4694232.5], [337615.01669867925, 4694195.6310769925]]}}, {"type": "Feature", "properties": {"id": 158, "source": "intersection", "node_kind": "osm_junction", "node_snap_m": 7.4, "line": 881, "gap_m": 38.5, "length_m": 26.1}, "geometry": {"type": "LineString", "coordinates": [[323745.59375, 4683766.0], [323771.141021945, 4683771.298307227]]}}, {"type": "Feature", "properties": {"id": 159, "source": "intersection", "node_kind": "osm_junction", "node_snap_m": 7.4, "line": 885, "gap_m": 38.5, "length_m": 13.1}, "geometry": {"type": "LineString", "coordinates": [[323784.0, 4683769.0], [323771.141021945, 4683771.298307227]]}}, {"type": "Feature", "properties": {"id": 160, "source": "intersection", "node_kind": "osm_junction", "node_snap_m": 14.9, "line": 679, "gap_m": 38.8, "length_m": 7.2}, "geometry": {"type": "LineString", "coordinates": [[322963.5, 4693628.0], [322967.10140793974, 4693621.774540251]]}}, {"type": "Feature", "properties": {"id": 161, "source": "intersection", "node_kind": "osm_junction", "node_snap_m": 14.9, "line": 681, "gap_m": 38.8, "length_m": 33.9}, "geometry": {"type": "LineString", "coordinates": [[323000.5625, 4693616.5], [322967.10140793974, 4693621.774540251]]}}, {"type": "Feature", "properties": {"id": 162, "source": "intersection", "node_kind": "osm_junction", "node_snap_m": 6.2, "line": 2393, "gap_m": 39.1, "length_m": 18.8}, "geometry": {"type": "LineString", "coordinates": [[328883.09375, 4690737.5], [328901.92399967427, 4690737.560607636]]}}, {"type": "Feature", "properties": {"id": 163, "source": "intersection", "node_kind": "osm_junction", "node_snap_m": 6.2, "line": 2394, "gap_m": 39.1, "length_m": 22.1}, "geometry": {"type": "LineString", "coordinates": [[328920.15625, 4690750.0], [328901.92399967427, 4690737.560607636]]}}, {"type": "Feature", "properties": {"id": 164, "source": "intersection", "node_kind": "osm_junction", "node_snap_m": 5.3, "line": 1983, "gap_m": 39.5, "length_m": 20.5}, "geometry": {"type": "LineString", "coordinates": [[327774.15625, 4692555.0], [327756.98235453985, 4692566.257404053]]}}, {"type": "Feature", "properties": {"id": 165, "source": "intersection", "node_kind": "osm_junction", "node_snap_m": 5.3, "line": 1984, "gap_m": 39.5, "length_m": 20.4}, "geometry": {"type": "LineString", "coordinates": [[327747.90625, 4692584.5], [327756.98235453985, 4692566.257404053]]}}, {"type": "Feature", "properties": {"id": 166, "source": "intersection", "node_kind": "osm_junction", "node_snap_m": 9.5, "line": 2195, "gap_m": 39.8, "length_m": 29.1}, "geometry": {"type": "LineString", "coordinates": [[328442.5625, 4690788.5], [328470.9795904132, 4690794.569998071]]}}, {"type": "Feature", "properties": {"id": 167, "source": "intersection", "node_kind": "osm_junction", "node_snap_m": 9.5, "line": 2392, "gap_m": 39.8, "length_m": 11.4}, "geometry": {"type": "LineString", "coordinates": [[328480.34375, 4690801.0], [328470.9795904132, 4690794.569998071]]}}, {"type": "Feature", "properties": {"id": 168, "source": "intersection", "node_kind": "midpoint", "node_snap_m": 0.0, "line": 2384, "gap_m": 40.1, "length_m": 20.0}, "geometry": {"type": "LineString", "coordinates": [[329313.75, 4691984.5], [329333.703125, 4691982.75]]}}, {"type": "Feature", "properties": {"id": 169, "source": "intersection", "node_kind": "midpoint", "node_snap_m": 0.0, "line": 2530, "gap_m": 40.1, "length_m": 20.0}, "geometry": {"type": "LineString", "coordinates": [[329353.65625, 4691981.0], [329333.703125, 4691982.75]]}}, {"type": "Feature", "properties": {"id": 170, "source": "intersection", "node_kind": "osm_junction", "node_snap_m": 2.7, "line": 2647, "gap_m": 40.1, "length_m": 22.5}, "geometry": {"type": "LineString", "coordinates": [[329942.5625, 4690413.5], [329962.89839295106, 4690403.980324149]]}}, {"type": "Feature", "properties": {"id": 171, "source": "intersection", "node_kind": "osm_junction", "node_snap_m": 2.7, "line": 2649, "gap_m": 40.1, "length_m": 17.7}, "geometry": {"type": "LineString", "coordinates": [[329979.75, 4690398.5], [329962.89839295106, 4690403.980324149]]}}, {"type": "Feature", "properties": {"id": 172, "source": "intersection", "node_kind": "osm_junction", "node_snap_m": 2.1, "line": 2906, "gap_m": 41.3, "length_m": 19.3}, "geometry": {"type": "LineString", "coordinates": [[331702.8125, 4690153.5], [331715.9574003542, 4690167.6750383405]]}}, {"type": "Feature", "properties": {"id": 173, "source": "intersection", "node_kind": "osm_junction", "node_snap_m": 2.1, "line": 2907, "gap_m": 41.3, "length_m": 22.1}, "geometry": {"type": "LineString", "coordinates": [[331728.3125, 4690186.0], [331715.9574003542, 4690167.6750383405]]}}, {"type": "Feature", "properties": {"id": 174, "source": "intersection", "node_kind": "osm_junction", "node_snap_m": 7.0, "line": 1730, "gap_m": 42.0, "length_m": 25.8}, "geometry": {"type": "LineString", "coordinates": [[326298.59375, 4683845.5], [326315.2134376975, 4683865.269871461]]}}, {"type": "Feature", "properties": {"id": 175, "source": "intersection", "node_kind": "osm_junction", "node_snap_m": 7.0, "line": 1731, "gap_m": 42.0, "length_m": 17.6}, "geometry": {"type": "LineString", "coordinates": [[326331.90625, 4683871.0], [326315.2134376975, 4683865.269871461]]}}, {"type": "Feature", "properties": {"id": 176, "source": "intersection", "node_kind": "osm_junction", "node_snap_m": 8.9, "line": 2669, "gap_m": 42.0, "length_m": 17.2}, "geometry": {"type": "LineString", "coordinates": [[329821.0625, 4687915.5], [329834.9309726024, 4687905.376171996]]}}, {"type": "Feature", "properties": {"id": 177, "source": "intersection", "node_kind": "osm_junction", "node_snap_m": 8.9, "line": 2672, "gap_m": 42.0, "length_m": 27.2}, "geometry": {"type": "LineString", "coordinates": [[329841.75, 4687879.0], [329834.9309726024, 4687905.376171996]]}}, {"type": "Feature", "properties": {"id": 178, "source": "intersection", "node_kind": "osm_junction", "node_snap_m": 6.8, "line": 2555, "gap_m": 42.7, "length_m": 21.5}, "geometry": {"type": "LineString", "coordinates": [[329335.9375, 4690558.5], [329355.4754528074, 4690567.396502945]]}}, {"type": "Feature", "properties": {"id": 179, "source": "intersection", "node_kind": "osm_junction", "node_snap_m": 6.8, "line": 2558, "gap_m": 42.7, "length_m": 23.3}, "geometry": {"type": "LineString", "coordinates": [[329367.3125, 4690587.5], [329355.4754528074, 4690567.396502945]]}}, {"type": "Feature", "properties": {"id": 180, "source": "intersection", "node_kind": "osm_junction", "node_snap_m": 9.6, "line": 1211, "gap_m": 43.5, "length_m": 13.2}, "geometry": {"type": "LineString", "coordinates": [[325220.6875, 4695415.5], [325232.8999340289, 4695410.420286524]]}}, {"type": "Feature", "properties": {"id": 181, "source": "intersection", "node_kind": "osm_junction", "node_snap_m": 9.6, "line": 1239, "gap_m": 43.5, "length_m": 30.9}, "geometry": {"type": "LineString", "coordinates": [[325255.1875, 4695389.0], [325232.8999340289, 4695410.420286524]]}}, {"type": "Feature", "properties": {"id": 182, "source": "intersection", "node_kind": "osm_junction", "node_snap_m": 6.7, "line": 720, "gap_m": 43.9, "length_m": 18.0}, "geometry": {"type": "LineString", "coordinates": [[323145.4375, 4690876.0], [323158.324938289, 4690888.52058475]]}}, {"type": "Feature", "properties": {"id": 183, "source": "intersection", "node_kind": "osm_junction", "node_snap_m": 6.7, "line": 832, "gap_m": 43.9, "length_m": 27.0}, "geometry": {"type": "LineString", "coordinates": [[323184.0, 4690897.0], [323158.324938289, 4690888.52058475]]}}, {"type": "Feature", "properties": {"id": 184, "source": "intersection", "node_kind": "osm_junction", "node_snap_m": 7.1, "line": 813, "gap_m": 44.1, "length_m": 20.6}, "geometry": {"type": "LineString", "coordinates": [[323519.84375, 4691362.5], [323540.4612672101, 4691361.567938536]]}}, {"type": "Feature", "properties": {"id": 185, "source": "intersection", "node_kind": "osm_junction", "node_snap_m": 7.1, "line": 821, "gap_m": 44.1, "length_m": 25.4}, "geometry": {"type": "LineString", "coordinates": [[323560.9375, 4691346.5], [323540.4612672101, 4691361.567938536]]}}, {"type": "Feature", "properties": {"id": 186, "source": "intersection", "node_kind": "osm_junction", "node_snap_m": 7.8, "line": 895, "gap_m": 45.5, "length_m": 30.2}, "geometry": {"type": "LineString", "coordinates": [[324067.5, 4678514.0], [324082.1269512703, 4678540.374243503]]}}, {"type": "Feature", "properties": {"id": 187, "source": "intersection", "node_kind": "osm_junction", "node_snap_m": 7.8, "line": 898, "gap_m": 45.5, "length_m": 15.8}, "geometry": {"type": "LineString", "coordinates": [[324093.3125, 4678551.5], [324082.1269512703, 4678540.374243503]]}}, {"type": "Feature", "properties": {"id": 188, "source": "intersection", "node_kind": "osm_junction", "node_snap_m": 15.7, "line": 2882, "gap_m": 46.0, "length_m": 17.9}, "geometry": {"type": "LineString", "coordinates": [[331531.65625, 4690419.5], [331529.1582489263, 4690437.255222296]]}}, {"type": "Feature", "properties": {"id": 189, "source": "intersection", "node_kind": "osm_junction", "node_snap_m": 15.7, "line": 2893, "gap_m": 46.0, "length_m": 35.1}, "geometry": {"type": "LineString", "coordinates": [[331495.9375, 4690448.5], [331529.1582489263, 4690437.255222296]]}}, {"type": "Feature", "properties": {"id": 190, "source": "intersection", "node_kind": "osm_junction", "node_snap_m": 5.6, "line": 1741, "gap_m": 47.9, "length_m": 29.0}, "geometry": {"type": "LineString", "coordinates": [[326858.5625, 4683278.0], [326880.50913042563, 4683259.033827573]]}}, {"type": "Feature", "properties": {"id": 191, "source": "intersection", "node_kind": "osm_junction", "node_snap_m": 5.6, "line": 1913, "gap_m": 47.9, "length_m": 19.2}, "geometry": {"type": "LineString", "coordinates": [[326891.84375, 4683243.5], [326880.50913042563, 4683259.033827573]]}}, {"type": "Feature", "properties": {"id": 192, "source": "intersection", "node_kind": "osm_junction", "node_snap_m": 4.2, "line": 2096, "gap_m": 48.3, "length_m": 23.5}, "geometry": {"type": "LineString", "coordinates": [[327899.40625, 4683132.5], [327916.59424055205, 4683148.534696183]]}}, {"type": "Feature", "properties": {"id": 193, "source": "intersection", "node_kind": "osm_junction", "node_snap_m": 4.2, "line": 2304, "gap_m": 48.3, "length_m": 25.4}, "geometry": {"type": "LineString", "coordinates": [[327928.5, 4683171.0], [327916.59424055205, 4683148.534696183]]}}, {"type": "Feature", "properties": {"id": 194, "source": "intersection", "node_kind": "osm_junction", "node_snap_m": 6.0, "line": 2156, "gap_m": 48.7, "length_m": 29.7}, "geometry": {"type": "LineString", "coordinates": [[327991.1875, 4693807.0], [327997.26076830854, 4693777.947281583]]}}, {"type": "Feature", "properties": {"id": 195, "source": "intersection", "node_kind": "osm_junction", "node_snap_m": 6.0, "line": 2163, "gap_m": 48.7, "length_m": 19.5}, "geometry": {"type": "LineString", "coordinates": [[327996.0, 4693758.5], [327997.26076830854, 4693777.947281583]]}}, {"type": "Feature", "properties": {"id": 196, "source": "intersection", "node_kind": "osm_junction", "node_snap_m": 4.9, "line": 508, "gap_m": 49.6, "length_m": 28.3}, "geometry": {"type": "LineString", "coordinates": [[322135.1875, 4692343.0], [322163.4690880204, 4692341.876841539]]}}, {"type": "Feature", "properties": {"id": 197, "source": "intersection", "node_kind": "osm_junction", "node_snap_m": 4.9, "line": 592, "gap_m": 49.6, "length_m": 21.9}, "geometry": {"type": "LineString", "coordinates": [[322184.09375, 4692334.5], [322163.4690880204, 4692341.876841539]]}}, {"type": "Feature", "properties": {"id": 198, "source": "intersection", "node_kind": "osm_junction", "node_snap_m": 8.8, "line": 897, "gap_m": 49.7, "length_m": 33.6}, "geometry": {"type": "LineString", "coordinates": [[324062.6875, 4678513.0], [324082.1269512703, 4678540.374243503]]}}, {"type": "Feature", "properties": {"id": 199, "source": "intersection", "node_kind": "osm_junction", "node_snap_m": 8.8, "line": 900, "gap_m": 49.7, "length_m": 16.2}, "geometry": {"type": "LineString", "coordinates": [[324090.0, 4678554.5], [324082.1269512703, 4678540.374243503]]}}, {"type": "Feature", "properties": {"id": 200, "source": "intersection", "node_kind": "midpoint", "node_snap_m": 0.0, "line": 804, "gap_m": 51.1, "length_m": 25.5}, "geometry": {"type": "LineString", "coordinates": [[323917.65625, 4691661.5], [323924.859375, 4691686.0]]}}, {"type": "Feature", "properties": {"id": 201, "source": "intersection", "node_kind": "midpoint", "node_snap_m": 0.0, "line": 933, "gap_m": 51.1, "length_m": 25.5}, "geometry": {"type": "LineString", "coordinates": [[323932.0625, 4691710.5], [323924.859375, 4691686.0]]}}, {"type": "Feature", "properties": {"id": 202, "source": "intersection", "node_kind": "osm_junction", "node_snap_m": 5.1, "line": 2058, "gap_m": 52.2, "length_m": 29.0}, "geometry": {"type": "LineString", "coordinates": [[327558.15625, 4686334.5], [327574.92237392673, 4686310.875837801]]}}, {"type": "Feature", "properties": {"id": 203, "source": "intersection", "node_kind": "osm_junction", "node_snap_m": 5.1, "line": 2068, "gap_m": 52.2, "length_m": 23.9}, "geometry": {"type": "LineString", "coordinates": [[327594.4375, 4686297.0], [327574.92237392673, 4686310.875837801]]}}, {"type": "Feature", "properties": {"id": 204, "source": "intersection", "node_kind": "osm_junction", "node_snap_m": 5.0, "line": 2835, "gap_m": 52.7, "length_m": 30.7}, "geometry": {"type": "LineString", "coordinates": [[331358.5625, 4688320.5], [331338.72308676527, 4688297.117289106]]}}, {"type": "Feature", "properties": {"id": 205, "source": "intersection", "node_kind": "osm_junction", "node_snap_m": 5.0, "line": 2836, "gap_m": 52.7, "length_m": 22.3}, "geometry": {"type": "LineString", "coordinates": [[331321.0625, 4688283.5], [331338.72308676527, 4688297.117289106]]}}, {"type": "Feature", "properties": {"id": 206, "source": "intersection", "node_kind": "osm_junction", "node_snap_m": 8.6, "line": 1008, "gap_m": 53.6, "length_m": 34.8}, "geometry": {"type": "LineString", "coordinates": [[324453.3125, 4683662.0], [324471.9971017886, 4683691.333023173]]}}, {"type": "Feature", "properties": {"id": 207, "source": "intersection", "node_kind": "osm_junction", "node_snap_m": 8.6, "line": 1182, "gap_m": 53.6, "length_m": 19.3}, "geometry": {"type": "LineString", "coordinates": [[324486.59375, 4683704.0], [324471.9971017886, 4683691.333023173]]}}, {"type": "Feature", "properties": {"id": 208, "source": "intersection", "node_kind": "osm_junction", "node_snap_m": 7.9, "line": 2730, "gap_m": 54.3, "length_m": 19.2}, "geometry": {"type": "LineString", "coordinates": [[330722.40625, 4692091.0], [330708.7930630456, 4692077.40767745]]}}, {"type": "Feature", "properties": {"id": 209, "source": "intersection", "node_kind": "osm_junction", "node_snap_m": 7.9, "line": 2737, "gap_m": 54.3, "length_m": 35.1}, "geometry": {"type": "LineString", "coordinates": [[330684.59375, 4692052.0], [330708.7930630456, 4692077.40767745]]}}, {"type": "Feature", "properties": {"id": 210, "source": "intersection", "node_kind": "osm_junction", "node_snap_m": 12.2, "line": 2513, "gap_m": 54.4, "length_m": 39.3}, "geometry": {"type": "LineString", "coordinates": [[329379.75, 4693090.0], [329345.5275193382, 4693109.40507632]]}}, {"type": "Feature", "properties": {"id": 211, "source": "intersection", "node_kind": "osm_junction", "node_snap_m": 12.2, "line": 2514, "gap_m": 54.4, "length_m": 15.2}, "geometry": {"type": "LineString", "coordinates": [[329333.6875, 4693119.0], [329345.5275193382, 4693109.40507632]]}}, {"type": "Feature", "properties": {"id": 212, "source": "intersection", "node_kind": "osm_junction", "node_snap_m": 6.8, "line": 1633, "gap_m": 54.6, "length_m": 33.6}, "geometry": {"type": "LineString", "coordinates": [[326568.4375, 4693953.5], [326589.15785792994, 4693927.078508257]]}}, {"type": "Feature", "properties": {"id": 213, "source": "intersection", "node_kind": "osm_junction", "node_snap_m": 6.8, "line": 1634, "gap_m": 54.6, "length_m": 21.4}, "geometry": {"type": "LineString", "coordinates": [[326605.65625, 4693913.5], [326589.15785792994, 4693927.078508257]]}}, {"type": "Feature", "properties": {"id": 214, "source": "intersection", "node_kind": "osm_junction", "node_snap_m": 14.9, "line": 1407, "gap_m": 54.9, "length_m": 41.8}, "geometry": {"type": "LineString", "coordinates": [[325549.65625, 4682848.5], [325573.2702217986, 4682813.959135583]]}}, {"type": "Feature", "properties": {"id": 215, "source": "intersection", "node_kind": "osm_junction", "node_snap_m": 14.9, "line": 1413, "gap_m": 54.9, "length_m": 14.2}, "geometry": {"type": "LineString", "coordinates": [[325585.65625, 4682807.0], [325573.2702217986, 4682813.959135583]]}}, {"type": "Feature", "properties": {"id": 216, "source": "intersection", "node_kind": "osm_junction", "node_snap_m": 7.1, "line": 2035, "gap_m": 55.0, "length_m": 33.1}, "geometry": {"type": "LineString", "coordinates": [[327636.75, 4687620.0], [327609.6024387543, 4687601.000726794]]}}, {"type": "Feature", "properties": {"id": 217, "source": "intersection", "node_kind": "osm_junction", "node_snap_m": 7.1, "line": 2042, "gap_m": 55.0, "length_m": 22.6}, "geometry": {"type": "LineString", "coordinates": [[327596.5625, 4687582.5], [327609.6024387543, 4687601.000726794]]}}, {"type": "Feature", "properties": {"id": 218, "source": "intersection", "node_kind": "midpoint", "node_snap_m": 0.0, "line": 2847, "gap_m": 55.5, "length_m": 27.7}, "geometry": {"type": "LineString", "coordinates": [[331354.34375, 4687270.5], [331379.09375, 4687258.0]]}}, {"type": "Feature", "properties": {"id": 219, "source": "intersection", "node_kind": "midpoint", "node_snap_m": 0.0, "line": 2925, "gap_m": 55.5, "length_m": 27.7}, "geometry": {"type": "LineString", "coordinates": [[331403.84375, 4687245.5], [331379.09375, 4687258.0]]}}, {"type": "Feature", "properties": {"id": 220, "source": "intersection", "node_kind": "osm_junction", "node_snap_m": 11.8, "line": 749, "gap_m": 56.8, "length_m": 40.1}, "geometry": {"type": "LineString", "coordinates": [[323731.1875, 4697679.5], [323707.7767191413, 4697646.98569828]]}}, {"type": "Feature", "properties": {"id": 221, "source": "intersection", "node_kind": "osm_junction", "node_snap_m": 11.8, "line": 752, "gap_m": 56.8, "length_m": 16.9}, "geometry": {"type": "LineString", "coordinates": [[323695.8125, 4697635.0], [323707.7767191413, 4697646.98569828]]}}, {"type": "Feature", "properties": {"id": 222, "source": "intersection", "node_kind": "osm_junction", "node_snap_m": 11.7, "line": 1296, "gap_m": 57.0, "length_m": 38.8}, "geometry": {"type": "LineString", "coordinates": [[325552.34375, 4690981.0], [325513.58442797547, 4690982.099364409]]}}, {"type": "Feature", "properties": {"id": 223, "source": "intersection", "node_kind": "osm_junction", "node_snap_m": 11.7, "line": 1304, "gap_m": 57.0, "length_m": 19.8}, "geometry": {"type": "LineString", "coordinates": [[325496.40625, 4690992.0], [325513.58442797547, 4690982.099364409]]}}, {"type": "Feature", "properties": {"id": 224, "source": "intersection", "node_kind": "osm_junction", "node_snap_m": 11.0, "line": 747, "gap_m": 57.3, "length_m": 39.5}, "geometry": {"type": "LineString", "coordinates": [[323733.4375, 4697677.0], [323707.7767191413, 4697646.98569828]]}}, {"type": "Feature", "properties": {"id": 225, "source": "intersection", "node_kind": "osm_junction", "node_snap_m": 11.0, "line": 755, "gap_m": 57.3, "length_m": 18.0}, "geometry": {"type": "LineString", "coordinates": [[323698.65625, 4697631.5], [323707.7767191413, 4697646.98569828]]}}, {"type": "Feature", "properties": {"id": 226, "source": "intersection", "node_kind": "osm_junction", "node_snap_m": 8.9, "line": 1356, "gap_m": 57.5, "length_m": 20.8}, "geometry": {"type": "LineString", "coordinates": [[325505.6875, 4688753.0], [325525.1834146216, 4688760.20149422]]}}, {"type": "Feature", "properties": {"id": 227, "source": "intersection", "node_kind": "osm_junction", "node_snap_m": 8.9, "line": 1360, "gap_m": 57.5, "length_m": 37.1}, "geometry": {"type": "LineString", "coordinates": [[325562.09375, 4688764.0], [325525.1834146216, 4688760.20149422]]}}, {"type": "Feature", "properties": {"id": 228, "source": "intersection", "node_kind": "osm_junction", "node_snap_m": 1.9, "line": 591, "gap_m": 57.7, "length_m": 28.4}, "geometry": {"type": "LineString", "coordinates": [[322632.15625, 4692274.0], [322659.4866519124, 4692266.310908097]]}}, {"type": "Feature", "properties": {"id": 229, "source": "intersection", "node_kind": "osm_junction", "node_snap_m": 1.9, "line": 685, "gap_m": 57.7, "length_m": 29.4}, "geometry": {"type": "LineString", "coordinates": [[322688.5625, 4692262.0], [322659.4866519124, 4692266.310908097]]}}, {"type": "Feature", "properties": {"id": 230, "source": "intersection", "node_kind": "osm_junction", "node_snap_m": 15.4, "line": 2803, "gap_m": 58.4, "length_m": 19.2}, "geometry": {"type": "LineString", "coordinates": [[331283.6875, 4691034.0], [331293.4622732622, 4691017.462819108]]}}, {"type": "Feature", "properties": {"id": 231, "source": "intersection", "node_kind": "osm_junction", "node_snap_m": 15.4, "line": 2812, "gap_m": 58.4, "length_m": 42.5}, "geometry": {"type": "LineString", "coordinates": [[331333.8125, 4691004.0], [331293.4622732622, 4691017.462819108]]}}]}