{"type": "FeatureCollection", "crs": {"type": "name", "properties": {"name": "urn:ogc:def:crs:EPSG::32619"}}, "features": [{"type": "Feature", "properties": {"id": 0, "gap_m": 4.4, "facing": 0.1, "along": 0.9, "lat_m": 0.07, "line_a": 2915, "line_b": 2919, "type_a": "BikeOnly", "type_b": "BikeOnly", "crossing": 1}, "geometry": {"type": "LineString", "coordinates": [[328851.3125, 4692020.5], [328855.65625, 4692020.0]]}}, {"type": "Feature", "properties": {"id": 1, "gap_m": 4.6, "facing": 0.4, "along": 0.4, "lat_m": 0.04, "line_a": 1358, "line_b": 1361, "type_a": "BikeOnly", "type_b": "BikeOnly", "crossing": 1}, "geometry": {"type": "LineString", "coordinates": [[324504.3125, 4691518.5], [324508.5, 4691520.5]]}}, {"type": "Feature", "properties": {"id": 2, "gap_m": 8.5, "facing": 3.3, "along": 2.7, "lat_m": 0.4, "line_a": 1183, "line_b": 1187, "type_a": "Sharrow", "type_b": "Sharrow", "crossing": 1}, "geometry": {"type": "LineString", "coordinates": [[324339.75, 4688666.0], [324334.34375, 4688659.5]]}}, {"type": "Feature", "properties": {"id": 3, "gap_m": 8.5, "facing": 0.2, "along": 1.0, "lat_m": 0.15, "line_a": 127, "line_b": 133, "type_a": "BikeOnly", "type_b": "BikeOnly", "crossing": 1}, "geometry": {"type": "LineString", "coordinates": [[335001.0, 4679553.5], [334993.0625, 4679556.5]]}}, {"type": "Feature", "properties": {"id": 4, "gap_m": 12.6, "facing": 0.6, "along": 1.9, "lat_m": 0.42, "line_a": 2450, "line_b": 2453, "type_a": "BikeOnly", "type_b": "BikeOnly", "crossing": 1}, "geometry": {"type": "LineString", "coordinates": [[327867.3125, 4690975.5], [327871.1875, 4690963.5]]}}, {"type": "Feature", "properties": {"id": 5, "gap_m": 12.7, "facing": 0.3, "along": 1.7, "lat_m": 0.38, "line_a": 2225, "line_b": 2236, "type_a": "BikeOnly", "type_b": "BikeOnly", "crossing": 1}, "geometry": {"type": "LineString", "coordinates": [[326808.15625, 4692467.5], [326817.59375, 4692459.0]]}}, {"type": "Feature", "properties": {"id": 6, "gap_m": 13.3, "facing": 2.4, "along": 0.1, "lat_m": 0.02, "line_a": 3227, "line_b": 3228, "type_a": "BikeOnly", "type_b": "BikeOnly", "crossing": 1}, "geometry": {"type": "LineString", "coordinates": [[329708.5625, 4688107.0], [329701.9375, 4688118.5]]}}, {"type": "Feature", "properties": {"id": 7, "gap_m": 13.4, "facing": 8.7, "along": 2.4, "lat_m": 0.57, "line_a": 1526, "line_b": 1531, "type_a": "BikeOnly", "type_b": "BikeOnly", "crossing": 1}, "geometry": {"type": "LineString", "coordinates": [[325231.5, 4693855.0], [325223.25, 4693865.5]]}}, {"type": "Feature", "properties": {"id": 8, "gap_m": 15.0, "facing": 2.9, "along": 2.3, "lat_m": 0.61, "line_a": 3619, "line_b": 3621, "type_a": "BikeOnly", "type_b": "BikeOnly", "crossing": 1}, "geometry": {"type": "LineString", "coordinates": [[332326.34375, 4689629.5], [332327.09375, 4689644.5]]}}, {"type": "Feature", "properties": {"id": 9, "gap_m": 16.9, "facing": 0.6, "along": 1.1, "lat_m": 0.34, "line_a": 1728, "line_b": 1946, "type_a": "BikeOnly", "type_b": "BikeOnly", "crossing": 1}, "geometry": {"type": "LineString", "coordinates": [[325631.25, 4682755.0], [325642.65625, 4682742.5]]}}, {"type": "Feature", "properties": {"id": 10, "gap_m": 17.2, "facing": 7.2, "along": 2.5, "lat_m": 0.74, "line_a": 2432, "line_b": 2436, "type_a": "BikeOnly", "type_b": "BikeOnly", "crossing": 1}, "geometry": {"type": "LineString", "coordinates": [[327681.15625, 4691528.0], [327676.34375, 4691544.5]]}}, {"type": "Feature", "properties": {"id": 11, "gap_m": 18.9, "facing": 4.0, "along": 2.7, "lat_m": 0.89, "line_a": 2197, "line_b": 2200, "type_a": "Sharrow", "type_b": "Sharrow", "crossing": 1}, "geometry": {"type": "LineString", "coordinates": [[326935.5, 4678886.0], [326950.0625, 4678898.0]]}}, {"type": "Feature", "properties": {"id": 12, "gap_m": 22.5, "facing": 0.0, "along": 0.6, "lat_m": 0.25, "line_a": 2179, "line_b": 2185, "type_a": "BikeOnly", "type_b": "BikeOnly", "crossing": 1}, "geometry": {"type": "LineString", "coordinates": [[327292.8125, 4680353.5], [327292.5, 4680331.0]]}}, {"type": "Feature", "properties": {"id": 13, "gap_m": 23.8, "facing": 0.6, "along": 0.1, "lat_m": 0.03, "line_a": 290, "line_b": 292, "type_a": "Sharrow", "type_b": "Sharrow", "crossing": 1}, "geometry": {"type": "LineString", "coordinates": [[336396.59375, 4694113.0], [336420.15625, 4694109.5]]}}, {"type": "Feature", "properties": {"id": 14, "gap_m": 24.6, "facing": 1.7, "along": 0.6, "lat_m": 0.25, "line_a": 1082, "line_b": 1228, "type_a": "BikeOnly", "type_b": "BikeOnly", "crossing": 1}, "geometry": {"type": "LineString", "coordinates": [[323766.75, 4683776.0], [323791.34375, 4683777.0]]}}, {"type": "Feature", "properties": {"id": 15, "gap_m": 24.6, "facing": 3.8, "along": 1.0, "lat_m": 0.43, "line_a": 2893, "line_b": 3046, "type_a": "BikeOnly", "type_b": "BikeOnly", "crossing": 1}, "geometry": {"type": "LineString", "coordinates": [[329070.4375, 4693181.0], [329089.1875, 4693165.0]]}}, {"type": "Feature", "properties": {"id": 16, "gap_m": 24.7, "facing": 0.5, "along": 1.4, "lat_m": 0.61, "line_a": 1534, "line_b": 1540, "type_a": "BikeOnly", "type_b": "BikeOnly", "crossing": 1}, "geometry": {"type": "LineString", "coordinates": [[325135.1875, 4694029.0], [325123.9375, 4694051.0]]}}]}