{"type": "FeatureCollection", "crs": {"type": "name", "properties": {"name": "urn:ogc:def:crs:EPSG::32619"}}, "features": [{"type": "Feature", "properties": {"node_id": 0, "degree": 1, "node_type": "endpoint", "node_kind": null}, "geometry": {"type": "Point", "coordinates": [312703.0625, 4706605.0]}}, {"type": "Feature", "properties": {"node_id": 1, "degree": 1, "node_type": "endpoint", "node_kind": null}, "geometry": {"type": "Point", "coordinates": [312781.1875, 4706311.5]}}, {"type": "Feature", "properties": {"node_id": 2, "degree": 1, "node_type": "endpoint", "node_kind": null}, "geometry": {"type": "Point", "coordinates": [312691.34375, 4706683.5]}}, {"type": "Feature", "properties": {"node_id": 3, "degree": 1, "node_type": "endpoint", "node_kind": null}, "geometry": {"type": "Point", "coordinates": [312678.75, 4706799.5]}}, {"type": "Feature", "properties": {"node_id": 4, "degree": 1, "node_type": "endpoint", "node_kind": null}, "geometry": {"type": "Point", "coordinates": [312690.4375, 4706838.0]}}, {"type": "Feature", "properties": {"node_id": 5, "degree": 1, "node_type": "endpoint", "node_kind": null}, "geometry": {"type": "Point", "coordinates": [312741.59375, 4706424.5]}}, {"type": "Feature", "properties": {"node_id": 6, "degree": 1, "node_type": "endpoint", "node_kind": null}, "geometry": {"type": "Point", "coordinates": [312439.1875, 4703757.0]}}, {"type": "Feature", "properties": {"node_id": 7, "degree": 1, "node_type": "endpoint", "node_kind": null}, "geometry": {"type": "Point", "coordinates": [312500.5625, 4703748.0]}}, {"type": "Feature", "properties": {"node_id": 8, "degree": 1, "node_type": "endpoint", "node_kind": null}, "geometry": {"type": "Point", "coordinates": [312496.5, 4706235.5]}}, {"type": "Feature", "properties": {"node_id": 9, "degree": 1, "node_type": "endpoint", "node_kind": null}, "geometry": {"type": "Point", "coordinates": [312365.40625, 4706223.5]}}, {"type": "Feature", "properties": {"node_id": 10, "degree": 1, "node_type": "endpoint", "node_kind": null}, "geometry": {"type": "Point", "coordinates": [312788.5625, 4706262.5]}}, {"type": "Feature", "properties": {"node_id": 11, "degree": 1, "node_type": "endpoint", "node_kind": null}, "geometry": {"type": "Point", "coordinates": [312716.6875, 4706255.0]}}, {"type": "Feature", "properties": {"node_id": 12, "degree": 1, "node_type": "endpoint", "node_kind": null}, "geometry": {"type": "Point", "coordinates": [314212.9375, 4706989.5]}}, {"type": "Feature", "properties": {"node_id": 13, "degree": 1, "node_type": "endpoint", "node_kind": null}, "geometry": {"type": "Point", "coordinates": [314277.3125, 4707000.0]}}, {"type": "Feature", "properties": {"node_id": 14, "degree": 1, "node_type": "endpoint", "node_kind": null}, "geometry": {"type": "Point", "coordinates": [314068.5, 4706270.5]}}, {"type": "Feature", "properties": {"node_id": 15, "degree": 2, "node_type": "endpoint", "node_kind": null}, "geometry": {"type": "Point", "coordinates": [314056.9375, 4706277.5]}}, {"type": "Feature", "properties": {"node_id": 16, "degree": 1, "node_type": "endpoint", "node_kind": null}, "geometry": {"type": "Point", "coordinates": [314082.59375, 4706265.0]}}, {"type": "Feature", "properties": {"node_id": 17, "degree": 1, "node_type": "endpoint", "node_kind": null}, "geometry": {"type": "Point", "coordinates": [313793.84375, 4706640.0]}}, {"type": "Feature", "properties": {"node_id": 18, "degree": 1, "node_type": "endpoint", "node_kind": null}, "geometry": {"type": "Point", "coordinates": [314052.75, 4706966.0]}}, {"type": "Feature", "properties": {"node_id": 19, "degree": 1, "node_type": "endpoint", "node_kind": null}, "geometry": {"type": "Point", "coordinates": [314399.25, 4704594.5]}}, {"type": "Feature", "properties": {"node_id": 20, "degree": 1, "node_type": "endpoint", "node_kind": null}, "geometry": {"type": "Point", "coordinates": [314417.5625, 4704616.5]}}, {"type": "Feature", "properties": {"node_id": 21, "degree": 1, "node_type": "endpoint", "node_kind": null}, "geometry": {"type": "Point", "coordinates": [314182.9375, 4704340.0]}}, {"type": "Feature", "properties": {"node_id": 22, "degree": 1, "node_type": "endpoint", "node_kind": null}, "geometry": {"type": "Point", "coordinates": [314110.5, 4704249.5]}}, {"type": "Feature", "properties": {"node_id": 23, "degree": 1, "node_type": "endpoint", "node_kind": null}, "geometry": {"type": "Point", "coordinates": [313720.9375, 4703573.5]}}, {"type": "Feature", "properties": {"node_id": 24, "degree": 1, "node_type": "endpoint", "node_kind": null}, "geometry": {"type": "Point", "coordinates": [313919.25, 4703305.0]}}, {"type": "Feature", "properties": {"node_id": 25, "degree": 1, "node_type": "endpoint", "node_kind": null}, "geometry": {"type": "Point", "coordinates": [313859.25, 4703470.5]}}, {"type": "Feature", "properties": {"node_id": 26, "degree": 1, "node_type": "endpoint", "node_kind": null}, "geometry": {"type": "Point", "coordinates": [313881.15625, 4703447.0]}}, {"type": "Feature", "properties": {"node_id": 27, "degree": 1, "node_type": "endpoint", "node_kind": null}, "geometry": {"type": "Point", "coordinates": [313715.40625, 4703589.5]}}, {"type": "Feature", "properties": {"node_id": 28, "degree": 1, "node_type": "endpoint", "node_kind": null}, "geometry": {"type": "Point", "coordinates": [313816.65625, 4703520.5]}}, {"type": "Feature", "properties": {"node_id": 29, "degree": 1, "node_type": "endpoint", "node_kind": null}, "geometry": {"type": "Point", "coordinates": [313914.15625, 4702965.0]}}, {"type": "Feature", "properties": {"node_id": 30, "degree": 1, "node_type": "endpoint", "node_kind": null}, "geometry": {"type": "Point", "coordinates": [314109.3125, 4702444.5]}}, {"type": "Feature", "properties": {"node_id": 31, "degree": 1, "node_type": "endpoint", "node_kind": null}, "geometry": {"type": "Point", "coordinates": [313874.09375, 4703126.0]}}, {"type": "Feature", "properties": {"node_id": 32, "degree": 1, "node_type": "endpoint", "node_kind": null}, "geometry": {"type": "Point", "coordinates": [313933.34375, 4702891.5]}}, {"type": "Feature", "properties": {"node_id": 33, "degree": 1, "node_type": "endpoint", "node_kind": null}, "geometry": {"type": "Point", "coordinates": [313878.3125, 4703115.0]}}, {"type": "Feature", "properties": {"node_id": 34, "degree": 1, "node_type": "endpoint", "node_kind": null}, "geometry": {"type": "Point", "coordinates": [313903.8125, 4703239.0]}}, {"type": "Feature", "properties": {"node_id": 35, "degree": 1, "node_type": "endpoint", "node_kind": null}, "geometry": {"type": "Point", "coordinates": [313862.84375, 4703471.5]}}, {"type": "Feature", "properties": {"node_id": 36, "degree": 1, "node_type": "endpoint", "node_kind": null}, "geometry": {"type": "Point", "coordinates": [313922.5625, 4703304.5]}}, {"type": "Feature", "properties": {"node_id": 37, "degree": 1, "node_type": "endpoint", "node_kind": null}, "geometry": {"type": "Point", "coordinates": [314293.1875, 4702326.5]}}, {"type": "Feature", "properties": {"node_id": 38, "degree": 2, "node_type": "endpoint", "node_kind": null}, "geometry": {"type": "Point", "coordinates": [314456.40625, 4701963.0]}}, {"type": "Feature", "properties": {"node_id": 39, "degree": 1, "node_type": "endpoint", "node_kind": null}, "geometry": {"type": "Point", "coordinates": [314108.84375, 4702440.5]}}, {"type": "Feature", "properties": {"node_id": 40, "degree": 1, "node_type": "endpoint", "node_kind": null}, "geometry": {"type": "Point", "coordinates": [313919.09375, 4702708.5]}}, {"type": "Feature", "properties": {"node_id": 41, "degree": 1, "node_type": "endpoint", "node_kind": null}, "geometry": {"type": "Point", "coordinates": [313935.90625, 4702890.5]}}, {"type": "Feature", "properties": {"node_id": 42, "degree": 1, "node_type": "endpoint", "node_kind": null}, "geometry": {"type": "Point", "coordinates": [313917.3125, 4702965.5]}}, {"type": "Feature", "properties": {"node_id": 43, "degree": 1, "node_type": "endpoint", "node_kind": null}, "geometry": {"type": "Point", "coordinates": [314327.40625, 4702309.5]}}, {"type": "Feature", "properties": {"node_id": 44, "degree": 1, "node_type": "endpoint", "node_kind": null}, "geometry": {"type": "Point", "coordinates": [314459.09375, 4701960.0]}}, {"type": "Feature", "properties": {"node_id": 45, "degree": 1, "node_type": "endpoint", "node_kind": null}, "geometry": {"type": "Point", "coordinates": [314428.0625, 4701880.0]}}, {"type": "Feature", "properties": {"node_id": 46, "degree": 2, "node_type": "endpoint", "node_kind": null}, "geometry": {"type": "Point", "coordinates": [314448.90625, 4701934.0]}}, {"type": "Feature", "properties": {"node_id": 47, "degree": 1, "node_type": "endpoint", "node_kind": null}, "geometry": {"type": "Point", "coordinates": [314341.9375, 4705911.5]}}, {"type": "Feature", "properties": {"node_id": 48, "degree": 1, "node_type": "endpoint", "node_kind": null}, "geometry": {"type": "Point", "coordinates": [314299.34375, 4705981.0]}}, {"type": "Feature", "properties": {"node_id": 49, "degree": 1, "node_type": "endpoint", "node_kind": null}, "geometry": {"type": "Point", "coordinates": [314306.40625, 4700503.0]}}, {"type": "Feature", "properties": {"node_id": 50, "degree": 1, "node_type": "endpoint", "node_kind": null}, "geometry": {"type": "Point", "coordinates": [314619.15625, 4700247.5]}}, {"type": "Feature", "properties": {"node_id": 51, "degree": 1, "node_type": "endpoint", "node_kind": null}, "geometry": {"type": "Point", "coordinates": [314573.09375, 4706975.5]}}, {"type": "Feature", "properties": {"node_id": 52, "degree": 1, "node_type": "endpoint", "node_kind": null}, "geometry": {"type": "Point", "coordinates": [314476.8125, 4706999.0]}}, {"type": "Feature", "properties": {"node_id": 53, "degree": 1, "node_type": "endpoint", "node_kind": null}, "geometry": {"type": "Point", "coordinates": [314615.40625, 4706893.5]}}, {"type": "Feature", "properties": {"node_id": 54, "degree": 1, "node_type": "endpoint", "node_kind": null}, "geometry": {"type": "Point", "coordinates": [314620.65625, 4706848.5]}}, {"type": "Feature", "properties": {"node_id": 55, "degree": 1, "node_type": "endpoint", "node_kind": null}, "geometry": {"type": "Point", "coordinates": [314568.0, 4706972.0]}}, {"type": "Feature", "properties": {"node_id": 56, "degree": 1, "node_type": "endpoint", "node_kind": null}, "geometry": {"type": "Point", "coordinates": [314460.4375, 4706999.0]}}, {"type": "Feature", "properties": {"node_id": 57, "degree": 1, "node_type": "endpoint", "node_kind": null}, "geometry": {"type": "Point", "coordinates": [314623.0625, 4706868.0]}}, {"type": "Feature", "properties": {"node_id": 58, "degree": 1, "node_type": "endpoint", "node_kind": null}, "geometry": {"type": "Point", "coordinates": [314604.15625, 4706940.5]}}, {"type": "Feature", "properties": {"node_id": 59, "degree": 1, "node_type": "endpoint", "node_kind": null}, "geometry": {"type": "Point", "coordinates": [314517.4375, 4706633.5]}}, {"type": "Feature", "properties": {"node_id": 60, "degree": 1, "node_type": "endpoint", "node_kind": null}, "geometry": {"type": "Point", "coordinates": [314495.09375, 4706593.0]}}, {"type": "Feature", "properties": {"node_id": 61, "degree": 1, "node_type": "endpoint", "node_kind": null}, "geometry": {"type": "Point", "coordinates": [314852.40625, 4705186.0]}}, {"type": "Feature", "properties": {"node_id": 62, "degree": 2, "node_type": "endpoint", "node_kind": null}, "geometry": {"type": "Point", "coordinates": [314796.4375, 4705243.0]}}, {"type": "Feature", "properties": {"node_id": 63, "degree": 1, "node_type": "endpoint", "node_kind": null}, "geometry": {"type": "Point", "coordinates": [314484.59375, 4704676.0]}}, {"type": "Feature", "properties": {"node_id": 64, "degree": 1, "node_type": "endpoint", "node_kind": null}, "geometry": {"type": "Point", "coordinates": [314443.8125, 4704628.0]}}, {"type": "Feature", "properties": {"node_id": 65, "degree": 1, "node_type": "endpoint", "node_kind": null}, "geometry": {"type": "Point", "coordinates": [314549.25, 4704752.0]}}, {"type": "Feature", "properties": {"node_id": 66, "degree": 1, "node_type": "endpoint", "node_kind": null}, "geometry": {"type": "Point", "coordinates": [314535.15625, 4704736.0]}}, {"type": "Feature", "properties": {"node_id": 67, "degree": 2, "node_type": "endpoint", "node_kind": null}, "geometry": {"type": "Point", "coordinates": [314461.65625, 4701958.5]}}, {"type": "Feature", "properties": {"node_id": 68, "degree": 1, "node_type": "endpoint", "node_kind": null}, "geometry": {"type": "Point", "coordinates": [314471.25, 4701997.0]}}, {"type": "Feature", "properties": {"node_id": 69, "degree": 1, "node_type": "endpoint", "node_kind": null}, "geometry": {"type": "Point", "coordinates": [315030.59375, 4701873.0]}}, {"type": "Feature", "properties": {"node_id": 70, "degree": 1, "node_type": "endpoint", "node_kind": null}, "geometry": {"type": "Point", "coordinates": [314759.84375, 4701862.0]}}, {"type": "Feature", "properties": {"node_id": 71, "degree": 2, "node_type": "endpoint", "node_kind": null}, "geometry": {"type": "Point", "coordinates": [314445.90625, 4701935.0]}}, {"type": "Feature", "properties": {"node_id": 72, "degree": 1, "node_type": "endpoint", "node_kind": null}, "geometry": {"type": "Point", "coordinates": [314422.0625, 4701875.0]}}, {"type": "Feature", "properties": {"node_id": 73, "degree": 1, "node_type": "endpoint", "node_kind": null}, "geometry": {"type": "Point", "coordinates": [314881.9375, 4701871.5]}}, {"type": "Feature", "properties": {"node_id": 74, "degree": 1, "node_type": "endpoint", "node_kind": null}, "geometry": {"type": "Point", "coordinates": [315382.0625, 4701934.5]}}, {"type": "Feature", "properties": {"node_id": 75, "degree": 1, "node_type": "endpoint", "node_kind": null}, "geometry": {"type": "Point", "coordinates": [314719.9375, 4701268.5]}}, {"type": "Feature", "properties": {"node_id": 76, "degree": 1, "node_type": "endpoint", "node_kind": null}, "geometry": {"type": "Point", "coordinates": [314825.5625, 4701147.5]}}, {"type": "Feature", "properties": {"node_id": 77, "degree": 1, "node_type": "endpoint", "node_kind": null}, "geometry": {"type": "Point", "coordinates": [314664.4375, 4700114.5]}}, {"type": "Feature", "properties": {"node_id": 78, "degree": 1, "node_type": "endpoint", "node_kind": null}, "geometry": {"type": "Point", "coordinates": [314646.3125, 4700147.0]}}, {"type": "Feature", "properties": {"node_id": 79, "degree": 1, "node_type": "endpoint", "node_kind": null}, "geometry": {"type": "Point", "coordinates": [314999.40625, 4699375.0]}}, {"type": "Feature", "properties": {"node_id": 80, "degree": 1, "node_type": "endpoint", "node_kind": null}, "geometry": {"type": "Point", "coordinates": [314979.4375, 4699384.0]}}, {"type": "Feature", "properties": {"node_id": 81, "degree": 1, "node_type": "endpoint", "node_kind": null}, "geometry": {"type": "Point", "coordinates": [314945.84375, 4699397.0]}}, {"type": "Feature", "properties": {"node_id": 82, "degree": 1, "node_type": "endpoint", "node_kind": null}, "geometry": {"type": "Point", "coordinates": [315054.3125, 4699349.0]}}, {"type": "Feature", "properties": {"node_id": 83, "degree": 1, "node_type": "endpoint", "node_kind": null}, "geometry": {"type": "Point", "coordinates": [314756.6875, 4699358.5]}}, {"type": "Feature", "properties": {"node_id": 84, "degree": 1, "node_type": "endpoint", "node_kind": null}, "geometry": {"type": "Point", "coordinates": [314480.25, 4699563.0]}}, {"type": "Feature", "properties": {"node_id": 85, "degree": 1, "node_type": "endpoint", "node_kind": null}, "geometry": {"type": "Point", "coordinates": [314904.75, 4699489.5]}}, {"type": "Feature", "properties": {"node_id": 86, "degree": 1, "node_type": "endpoint", "node_kind": null}, "geometry": {"type": "Point", "coordinates": [315337.5, 4700022.5]}}, {"type": "Feature", "properties": {"node_id": 87, "degree": 1, "node_type": "endpoint", "node_kind": null}, "geometry": {"type": "Point", "coordinates": [314483.84375, 4699566.5]}}, {"type": "Feature", "properties": {"node_id": 88, "degree": 1, "node_type": "endpoint", "node_kind": null}, "geometry": {"type": "Point", "coordinates": [314763.4375, 4699358.5]}}, {"type": "Feature", "properties": {"node_id": 89, "degree": 1, "node_type": "endpoint", "node_kind": null}, "geometry": {"type": "Point", "coordinates": [315030.4375, 4699836.0]}}, {"type": "Feature", "properties": {"node_id": 90, "degree": 1, "node_type": "endpoint", "node_kind": null}, "geometry": {"type": "Point", "coordinates": [314725.9375, 4700061.5]}}, {"type": "Feature", "properties": {"node_id": 91, "degree": 1, "node_type": "endpoint", "node_kind": null}, "geometry": {"type": "Point", "coordinates": [315030.59375, 4699060.0]}}, {"type": "Feature", "properties": {"node_id": 92, "degree": 1, "node_type": "endpoint", "node_kind": null}, "geometry": {"type": "Point", "coordinates": [314856.75, 4698975.5]}}, {"type": "Feature", "properties": {"node_id": 93, "degree": 1, "node_type": "endpoint", "node_kind": null}, "geometry": {"type": "Point", "coordinates": [314787.4375, 4699199.0]}}, {"type": "Feature", "properties": {"node_id": 94, "degree": 1, "node_type": "endpoint", "node_kind": null}, "geometry": {"type": "Point", "coordinates": [314803.34375, 4699253.0]}}, {"type": "Feature", "properties": {"node_id": 95, "degree": 1, "node_type": "endpoint", "node_kind": null}, "geometry": {"type": "Point", "coordinates": [314776.9375, 4699068.0]}}, {"type": "Feature", "properties": {"node_id": 96, "degree": 1, "node_type": "endpoint", "node_kind": null}, "geometry": {"type": "Point", "coordinates": [314775.3125, 4699092.0]}}, {"type": "Feature", "properties": {"node_id": 97, "degree": 1, "node_type": "endpoint", "node_kind": null}, "geometry": {"type": "Point", "coordinates": [314780.25, 4699093.0]}}, {"type": "Feature", "properties": {"node_id": 98, "degree": 1, "node_type": "endpoint", "node_kind": null}, "geometry": {"type": "Point", "coordinates": [314784.59375, 4699000.5]}}, {"type": "Feature", "properties": {"node_id": 99, "degree": 1, "node_type": "endpoint", "node_kind": null}, "geometry": {"type": "Point", "coordinates": [314802.0, 4699229.5]}}, {"type": "Feature", "properties": {"node_id": 100, "degree": 1, "node_type": "endpoint", "node_kind": null}, "geometry": {"type": "Point", "coordinates": [314808.75, 4699251.5]}}, {"type": "Feature", "properties": {"node_id": 101, "degree": 1, "node_type": "endpoint", "node_kind": null}, "geometry": {"type": "Point", "coordinates": [315001.34375, 4699052.0]}}, {"type": "Feature", "properties": {"node_id": 102, "degree": 1, "node_type": "endpoint", "node_kind": null}, "geometry": {"type": "Point", "coordinates": [315030.0, 4699065.0]}}, {"type": "Feature", "properties": {"node_id": 103, "degree": 1, "node_type": "endpoint", "node_kind": null}, "geometry": {"type": "Point", "coordinates": [314815.0625, 4699323.5]}}, {"type": "Feature", "properties": {"node_id": 104, "degree": 1, "node_type": "endpoint", "node_kind": null}, "geometry": {"type": "Point", "coordinates": [314546.6875, 4699512.0]}}, {"type": "Feature", "properties": {"node_id": 105, "degree": 1, "node_type": "endpoint", "node_kind": null}, "geometry": {"type": "Point", "coordinates": [314796.15625, 4699203.0]}}, {"type": "Feature", "properties": {"node_id": 106, "degree": 1, "node_type": "endpoint", "node_kind": null}, "geometry": {"type": "Point", "coordinates": [314806.5, 4699234.5]}}, {"type": "Feature", "properties": {"node_id": 107, "degree": 1, "node_type": "endpoint", "node_kind": null}, "geometry": {"type": "Point", "coordinates": [314816.6875, 4699326.5]}}, {"type": "Feature", "properties": {"node_id": 108, "degree": 1, "node_type": "endpoint", "node_kind": null}, "geometry": {"type": "Point", "coordinates": [314552.5625, 4699512.0]}}, {"type": "Feature", "properties": {"node_id": 109, "degree": 2, "node_type": "endpoint", "node_kind": null}, "geometry": {"type": "Point", "coordinates": [314782.34375, 4705257.5]}}, {"type": "Feature", "properties": {"node_id": 110, "degree": 1, "node_type": "endpoint", "node_kind": null}, "geometry": {"type": "Point", "coordinates": [314697.90625, 4705371.5]}}, {"type": "Feature", "properties": {"node_id": 111, "degree": 1, "node_type": "endpoint", "node_kind": null}, "geometry": {"type": "Point", "coordinates": [315534.59375, 4702516.5]}}, {"type": "Feature", "properties": {"node_id": 112, "degree": 1, "node_type": "endpoint", "node_kind": null}, "geometry": {"type": "Point", "coordinates": [315549.59375, 4702542.0]}}, {"type": "Feature", "properties": {"node_id": 113, "degree": 1, "node_type": "endpoint", "node_kind": null}, "geometry": {"type": "Point", "coordinates": [315569.6875, 4702566.0]}}, {"type": "Feature", "properties": {"node_id": 114, "degree": 1, "node_type": "endpoint", "node_kind": null}, "geometry": {"type": "Point", "coordinates": [315600.4375, 4702640.0]}}, {"type": "Feature", "properties": {"node_id": 115, "degree": 1, "node_type": "endpoint", "node_kind": null}, "geometry": {"type": "Point", "coordinates": [315447.90625, 4702299.5]}}, {"type": "Feature", "properties": {"node_id": 116, "degree": 1, "node_type": "endpoint", "node_kind": null}, "geometry": {"type": "Point", "coordinates": [315428.5625, 4702280.0]}}, {"type": "Feature", "properties": {"node_id": 117, "degree": 1, "node_type": "endpoint", "node_kind": null}, "geometry": {"type": "Point", "coordinates": [315480.4375, 4702363.0]}}, {"type": "Feature", "properties": {"node_id": 118, "degree": 1, "node_type": "endpoint", "node_kind": null}, "geometry": {"type": "Point", "coordinates": [315504.4375, 4702438.0]}}, {"type": "Feature", "properties": {"node_id": 119, "degree": 1, "node_type": "endpoint", "node_kind": null}, "geometry": {"type": "Point", "coordinates": [315583.9375, 4702603.0]}}, {"type": "Feature", "properties": {"node_id": 120, "degree": 1, "node_type": "endpoint", "node_kind": null}, "geometry": {"type": "Point", "coordinates": [315419.09375, 4702267.5]}}, {"type": "Feature", "properties": {"node_id": 121, "degree": 1, "node_type": "endpoint", "node_kind": null}, "geometry": {"type": "Point", "coordinates": [315609.75, 4701959.0]}}, {"type": "Feature", "properties": {"node_id": 122, "degree": 1, "node_type": "endpoint", "node_kind": null}, "geometry": {"type": "Point", "coordinates": [315451.5, 4701936.5]}}, {"type": "Feature", "properties": {"node_id": 123, "degree": 1, "node_type": "endpoint", "node_kind": null}, "geometry": {"type": "Point", "coordinates": [315547.0625, 4701934.0]}}, {"type": "Feature", "properties": {"node_id": 124, "degree": 1, "node_type": "endpoint", "node_kind": null}, "geometry": {"type": "Point", "coordinates": [315610.65625, 4701956.0]}}, {"type": "Feature", "properties": {"node_id": 125, "degree": 1, "node_type": "endpoint", "node_kind": null}, "geometry": {"type": "Point", "coordinates": [315249.59375, 4701888.5]}}, {"type": "Feature", "properties": {"node_id": 126, "degree": 1, "node_type": "endpoint", "node_kind": null}, "geometry": {"type": "Point", "coordinates": [315195.4375, 4701872.5]}}, {"type": "Feature", "properties": {"node_id": 127, "degree": 1, "node_type": "endpoint", "node_kind": null}, "geometry": {"type": "Point", "coordinates": [315444.59375, 4700182.0]}}, {"type": "Feature", "properties": {"node_id": 128, "degree": 1, "node_type": "endpoint", "node_kind": null}, "geometry": {"type": "Point", "coordinates": [315612.15625, 4700416.0]}}, {"type": "Feature", "properties": {"node_id": 129, "degree": 1, "node_type": "endpoint", "node_kind": null}, "geometry": {"type": "Point", "coordinates": [315127.1875, 4699731.5]}}, {"type": "Feature", "properties": {"node_id": 130, "degree": 1, "node_type": "endpoint", "node_kind": null}, "geometry": {"type": "Point", "coordinates": [314880.0, 4699937.5]}}, {"type": "Feature", "properties": {"node_id": 131, "degree": 1, "node_type": "endpoint", "node_kind": null}, "geometry": {"type": "Point", "coordinates": [315026.25, 4699054.0]}}, {"type": "Feature", "properties": {"node_id": 132, "degree": 1, "node_type": "endpoint", "node_kind": null}, "geometry": {"type": "Point", "coordinates": [315078.90625, 4699070.5]}}, {"type": "Feature", "properties": {"node_id": 133, "degree": 1, "node_type": "endpoint", "node_kind": null}, "geometry": {"type": "Point", "coordinates": [315002.25, 4699052.0]}}, {"type": "Feature", "properties": {"node_id": 134, "degree": 1, "node_type": "endpoint", "node_kind": null}, "geometry": {"type": "Point", "coordinates": [316182.75, 4698686.5]}}, {"type": "Feature", "properties": {"node_id": 135, "degree": 1, "node_type": "endpoint", "node_kind": null}, "geometry": {"type": "Point", "coordinates": [314883.4375, 4698987.5]}}, {"type": "Feature", "properties": {"node_id": 136, "degree": 1, "node_type": "endpoint", "node_kind": null}, "geometry": {"type": "Point", "coordinates": [316182.3125, 4698682.5]}}, {"type": "Feature", "properties": {"node_id": 137, "degree": 1, "node_type": "endpoint", "node_kind": null}, "geometry": {"type": "Point", "coordinates": [315726.59375, 4699112.0]}}, {"type": "Feature", "properties": {"node_id": 138, "degree": 1, "node_type": "endpoint", "node_kind": null}, "geometry": {"type": "Point", "coordinates": [315570.15625, 4699123.5]}}, {"type": "Feature", "properties": {"node_id": 139, "degree": 1, "node_type": "endpoint", "node_kind": null}, "geometry": {"type": "Point", "coordinates": [315196.65625, 4699286.5]}}, {"type": "Feature", "properties": {"node_id": 140, "degree": 1, "node_type": "endpoint", "node_kind": null}, "geometry": {"type": "Point", "coordinates": [315144.15625, 4699309.5]}}, {"type": "Feature", "properties": {"node_id": 141, "degree": 1, "node_type": "endpoint", "node_kind": null}, "geometry": {"type": "Point", "coordinates": [315225.0, 4699261.0]}}, {"type": "Feature", "properties": {"node_id": 142, "degree": 1, "node_type": "endpoint", "node_kind": null}, "geometry": {"type": "Point", "coordinates": [315326.25, 4699185.0]}}, {"type": "Feature", "properties": {"node_id": 143, "degree": 1, "node_type": "endpoint", "node_kind": null}, "geometry": {"type": "Point", "coordinates": [315744.59375, 4706330.5]}}, {"type": "Feature", "properties": {"node_id": 144, "degree": 1, "node_type": "endpoint", "node_kind": null}, "geometry": {"type": "Point", "coordinates": [315760.5, 4706317.0]}}, {"type": "Feature", "properties": {"node_id": 145, "degree": 1, "node_type": "endpoint", "node_kind": null}, "geometry": {"type": "Point", "coordinates": [315759.0, 4706313.5]}}, {"type": "Feature", "properties": {"node_id": 146, "degree": 1, "node_type": "endpoint", "node_kind": null}, "geometry": {"type": "Point", "coordinates": [315723.15625, 4706344.0]}}, {"type": "Feature", "properties": {"node_id": 147, "degree": 1, "node_type": "endpoint", "node_kind": null}, "geometry": {"type": "Point", "coordinates": [315932.6875, 4705050.5]}}, {"type": "Feature", "properties": {"node_id": 148, "degree": 1, "node_type": "endpoint", "node_kind": null}, "geometry": {"type": "Point", "coordinates": [315909.3125, 4705107.0]}}, {"type": "Feature", "properties": {"node_id": 149, "degree": 1, "node_type": "endpoint", "node_kind": null}, "geometry": {"type": "Point", "coordinates": [315916.5, 4705132.0]}}, {"type": "Feature", "properties": {"node_id": 150, "degree": 1, "node_type": "endpoint", "node_kind": null}, "geometry": {"type": "Point", "coordinates": [315943.9375, 4705148.0]}}, {"type": "Feature", "properties": {"node_id": 151, "degree": 1, "node_type": "endpoint", "node_kind": null}, "geometry": {"type": "Point", "coordinates": [316182.90625, 4704611.0]}}, {"type": "Feature", "properties": {"node_id": 152, "degree": 1, "node_type": "endpoint", "node_kind": null}, "geometry": {"type": "Point", "coordinates": [316010.5625, 4704776.5]}}, {"type": "Feature", "properties": {"node_id": 153, "degree": 1, "node_type": "endpoint", "node_kind": null}, "geometry": {"type": "Point", "coordinates": [315957.75, 4704874.0]}}, {"type": "Feature", "properties": {"node_id": 154, "degree": 1, "node_type": "endpoint", "node_kind": null}, "geometry": {"type": "Point", "coordinates": [316185.4375, 4704605.0]}}, {"type": "Feature", "properties": {"node_id": 155, "degree": 1, "node_type": "endpoint", "node_kind": null}, "geometry": {"type": "Point", "coordinates": [315773.5625, 4703702.0]}}, {"type": "Feature", "properties": {"node_id": 156, "degree": 1, "node_type": "endpoint", "node_kind": null}, "geometry": {"type": "Point", "coordinates": [315872.6875, 4703462.5]}}, {"type": "Feature", "properties": {"node_id": 157, "degree": 1, "node_type": "endpoint", "node_kind": null}, "geometry": {"type": "Point", "coordinates": [316184.40625, 4702855.0]}}, {"type": "Feature", "properties": {"node_id": 158, "degree": 1, "node_type": "endpoint", "node_kind": null}, "geometry": {"type": "Point", "coordinates": [316191.59375, 4702844.0]}}, {"type": "Feature", "properties": {"node_id": 159, "degree": 1, "node_type": "endpoint", "node_kind": null}, "geometry": {"type": "Point", "coordinates": [316101.90625, 4702980.5]}}, {"type": "Feature", "properties": {"node_id": 160, "degree": 2, "node_type": "endpoint", "node_kind": null}, "geometry": {"type": "Point", "coordinates": [316161.3125, 4702888.5]}}, {"type": "Feature", "properties": {"node_id": 161, "degree": 2, "node_type": "endpoint", "node_kind": null}, "geometry": {"type": "Point", "coordinates": [316168.34375, 4702895.5]}}, {"type": "Feature", "properties": {"node_id": 162, "degree": 1, "node_type": "endpoint", "node_kind": null}, "geometry": {"type": "Point", "coordinates": [316123.34375, 4702965.5]}}, {"type": "Feature", "properties": {"node_id": 163, "degree": 2, "node_type": "endpoint", "node_kind": null}, "geometry": {"type": "Point", "coordinates": [316163.84375, 4702869.5]}}, {"type": "Feature", "properties": {"node_id": 164, "degree": 1, "node_type": "endpoint", "node_kind": null}, "geometry": {"type": "Point", "coordinates": [316109.25, 4702790.0]}}, {"type": "Feature", "properties": {"node_id": 165, "degree": 2, "node_type": "endpoint", "node_kind": null}, "geometry": {"type": "Point", "coordinates": [316176.4375, 4702871.0]}}, {"type": "Feature", "properties": {"node_id": 166, "degree": 1, "node_type": "endpoint", "node_kind": null}, "geometry": {"type": "Point", "coordinates": [316401.90625, 4702515.5]}}, {"type": "Feature", "properties": {"node_id": 167, "degree": 1, "node_type": "endpoint", "node_kind": null}, "geometry": {"type": "Point", "coordinates": [316040.5625, 4703075.0]}}, {"type": "Feature", "properties": {"node_id": 168, "degree": 1, "node_type": "endpoint", "node_kind": null}, "geometry": {"type": "Point", "coordinates": [316022.6875, 4703103.5]}}, {"type": "Feature", "properties": {"node_id": 169, "degree": 1, "node_type": "endpoint", "node_kind": null}, "geometry": {"type": "Point", "coordinates": [316161.4375, 4702872.0]}}, {"type": "Feature", "properties": {"node_id": 170, "degree": 1, "node_type": "endpoint", "node_kind": null}, "geometry": {"type": "Point", "coordinates": [316086.59375, 4702773.5]}}, {"type": "Feature", "properties": {"node_id": 171, "degree": 1, "node_type": "endpoint", "node_kind": null}, "geometry": {"type": "Point", "coordinates": [315666.90625, 4702743.5]}}, {"type": "Feature", "properties": {"node_id": 172, "degree": 1, "node_type": "endpoint", "node_kind": null}, "geometry": {"type": "Point", "coordinates": [315650.6875, 4702726.0]}}, {"type": "Feature", "properties": {"node_id": 173, "degree": 1, "node_type": "endpoint", "node_kind": null}, "geometry": {"type": "Point", "coordinates": [315652.9375, 4702724.0]}}, {"type": "Feature", "properties": {"node_id": 174, "degree": 1, "node_type": "endpoint", "node_kind": null}, "geometry": {"type": "Point", "coordinates": [315669.3125, 4702741.5]}}, {"type": "Feature", "properties": {"node_id": 175, "degree": 1, "node_type": "endpoint", "node_kind": null}, "geometry": {"type": "Point", "coordinates": [315852.59375, 4702789.0]}}, {"type": "Feature", "properties": {"node_id": 176, "degree": 1, "node_type": "endpoint", "node_kind": null}, "geometry": {"type": "Point", "coordinates": [315802.9375, 4702798.0]}}, {"type": "Feature", "properties": {"node_id": 177, "degree": 1, "node_type": "endpoint", "node_kind": null}, "geometry": {"type": "Point", "coordinates": [315711.0, 4702774.0]}}, {"type": "Feature", "properties": {"node_id": 178, "degree": 1, "node_type": "endpoint", "node_kind": null}, "geometry": {"type": "Point", "coordinates": [315731.09375, 4702781.5]}}, {"type": "Feature", "properties": {"node_id": 179, "degree": 1, "node_type": "endpoint", "node_kind": null}, "geometry": {"type": "Point", "coordinates": [316057.65625, 4702186.5]}}, {"type": "Feature", "properties": {"node_id": 180, "degree": 1, "node_type": "endpoint", "node_kind": null}, "geometry": {"type": "Point", "coordinates": [316276.1875, 4702387.5]}}, {"type": "Feature", "properties": {"node_id": 181, "degree": 1, "node_type": "endpoint", "node_kind": null}, "geometry": {"type": "Point", "coordinates": [316035.59375, 4702122.5]}}, {"type": "Feature", "properties": {"node_id": 182, "degree": 2, "node_type": "endpoint", "node_kind": null}, "geometry": {"type": "Point", "coordinates": [316036.0625, 4702088.5]}}, {"type": "Feature", "properties": {"node_id": 183, "degree": 1, "node_type": "endpoint", "node_kind": null}, "geometry": {"type": "Point", "coordinates": [315934.65625, 4702042.0]}}, {"type": "Feature", "properties": {"node_id": 184, "degree": 1, "node_type": "endpoint", "node_kind": null}, "geometry": {"type": "Point", "coordinates": [315700.9375, 4701988.5]}}, {"type": "Feature", "properties": {"node_id": 185, "degree": 2, "node_type": "endpoint", "node_kind": null}, "geometry": {"type": "Point", "coordinates": [316038.3125, 4702040.5]}}, {"type": "Feature", "properties": {"node_id": 186, "degree": 1, "node_type": "endpoint", "node_kind": null}, "geometry": {"type": "Point", "coordinates": [316038.75, 4702003.5]}}, {"type": "Feature", "properties": {"node_id": 187, "degree": 1, "node_type": "endpoint", "node_kind": null}, "geometry": {"type": "Point", "coordinates": [316000.8125, 4702061.5]}}, {"type": "Feature", "properties": {"node_id": 188, "degree": 1, "node_type": "endpoint", "node_kind": null}, "geometry": {"type": "Point", "coordinates": [315841.1875, 4702023.5]}}, {"type": "Feature", "properties": {"node_id": 189, "degree": 1, "node_type": "endpoint", "node_kind": null}, "geometry": {"type": "Point", "coordinates": [316124.09375, 4702097.5]}}, {"type": "Feature", "properties": {"node_id": 190, "degree": 1, "node_type": "endpoint", "node_kind": null}, "geometry": {"type": "Point", "coordinates": [316056.75, 4702079.0]}}, {"type": "Feature", "properties": {"node_id": 191, "degree": 1, "node_type": "endpoint", "node_kind": null}, "geometry": {"type": "Point", "coordinates": [316037.25, 4702009.0]}}, {"type": "Feature", "properties": {"node_id": 192, "degree": 1, "node_type": "endpoint", "node_kind": null}, "geometry": {"type": "Point", "coordinates": [316036.1875, 4702040.0]}}, {"type": "Feature", "properties": {"node_id": 193, "degree": 1, "node_type": "endpoint", "node_kind": null}, "geometry": {"type": "Point", "coordinates": [315915.90625, 4706050.0]}}, {"type": "Feature", "properties": {"node_id": 194, "degree": 1, "node_type": "endpoint", "node_kind": null}, "geometry": {"type": "Point", "coordinates": [315927.4375, 4705729.0]}}, {"type": "Feature", "properties": {"node_id": 195, "degree": 1, "node_type": "endpoint", "node_kind": null}, "geometry": {"type": "Point", "coordinates": [315924.4375, 4705735.5]}}, {"type": "Feature", "properties": {"node_id": 196, "degree": 1, "node_type": "endpoint", "node_kind": null}, "geometry": {"type": "Point", "coordinates": [315899.40625, 4705624.0]}}, {"type": "Feature", "properties": {"node_id": 197, "degree": 1, "node_type": "endpoint", "node_kind": null}, "geometry": {"type": "Point", "coordinates": [316127.5625, 4699119.5]}}, {"type": "Feature", "properties": {"node_id": 198, "degree": 1, "node_type": "endpoint", "node_kind": null}, "geometry": {"type": "Point", "coordinates": [316213.1875, 4699145.5]}}, {"type": "Feature", "properties": {"node_id": 199, "degree": 1, "node_type": "endpoint", "node_kind": null}, "geometry": {"type": "Point", "coordinates": [315827.25, 4699149.5]}}, {"type": "Feature", "properties": {"node_id": 200, "degree": 1, "node_type": "endpoint", "node_kind": null}, "geometry": {"type": "Point", "coordinates": [315824.40625, 4699112.5]}}, {"type": "Feature", "properties": {"node_id": 201, "degree": 1, "node_type": "endpoint", "node_kind": null}, "geometry": {"type": "Point", "coordinates": [316069.8125, 4699107.5]}}, {"type": "Feature", "properties": {"node_id": 202, "degree": 1, "node_type": "endpoint", "node_kind": null}, "geometry": {"type": "Point", "coordinates": [316346.40625, 4699157.0]}}, {"type": "Feature", "properties": {"node_id": 203, "degree": 1, "node_type": "endpoint", "node_kind": null}, "geometry": {"type": "Point", "coordinates": [315832.34375, 4699113.0]}}, {"type": "Feature", "properties": {"node_id": 204, "degree": 1, "node_type": "endpoint", "node_kind": null}, "geometry": {"type": "Point", "coordinates": [315834.90625, 4699150.5]}}, {"type": "Feature", "properties": {"node_id": 205, "degree": 1, "node_type": "endpoint", "node_kind": null}, "geometry": {"type": "Point", "coordinates": [315840.4375, 4699104.0]}}, {"type": "Feature", "properties": {"node_id": 206, "degree": 1, "node_type": "endpoint", "node_kind": null}, "geometry": {"type": "Point", "coordinates": [316024.8125, 4699097.5]}}, {"type": "Feature", "properties": {"node_id": 207, "degree": 1, "node_type": "endpoint", "node_kind": null}, "geometry": {"type": "Point", "coordinates": [315845.5625, 4705443.5]}}, {"type": "Feature", "properties": {"node_id": 208, "degree": 1, "node_type": "endpoint", "node_kind": null}, "geometry": {"type": "Point", "coordinates": [315877.65625, 4705550.0]}}, {"type": "Feature", "properties": {"node_id": 209, "degree": 1, "node_type": "endpoint", "node_kind": null}, "geometry": {"type": "Point", "coordinates": [315921.3125, 4705697.5]}}, {"type": "Feature", "properties": {"node_id": 210, "degree": 1, "node_type": "endpoint", "node_kind": null}, "geometry": {"type": "Point", "coordinates": [315910.5, 4705650.0]}}, {"type": "Feature", "properties": {"node_id": 211, "degree": 1, "node_type": "endpoint", "node_kind": null}, "geometry": {"type": "Point", "coordinates": [316662.15625, 4706983.0]}}, {"type": "Feature", "properties": {"node_id": 212, "degree": 1, "node_type": "endpoint", "node_kind": null}, "geometry": {"type": "Point", "coordinates": [316802.6875, 4706960.5]}}, {"type": "Feature", "properties": {"node_id": 213, "degree": 1, "node_type": "endpoint", "node_kind": null}, "geometry": {"type": "Point", "coordinates": [316709.84375, 4706791.0]}}, {"type": "Feature", "properties": {"node_id": 214, "degree": 1, "node_type": "endpoint", "node_kind": null}, "geometry": {"type": "Point", "coordinates": [316747.9375, 4706736.0]}}, {"type": "Feature", "properties": {"node_id": 215, "degree": 1, "node_type": "endpoint", "node_kind": null}, "geometry": {"type": "Point", "coordinates": [316298.5625, 4704451.0]}}, {"type": "Feature", "properties": {"node_id": 216, "degree": 1, "node_type": "endpoint", "node_kind": null}, "geometry": {"type": "Point", "coordinates": [316032.0, 4704742.5]}}, {"type": "Feature", "properties": {"node_id": 217, "degree": 1, "node_type": "endpoint", "node_kind": null}, "geometry": {"type": "Point", "coordinates": [316209.75, 4704586.5]}}, {"type": "Feature", "properties": {"node_id": 218, "degree": 1, "node_type": "endpoint", "node_kind": null}, "geometry": {"type": "Point", "coordinates": [316032.0, 4704749.5]}}, {"type": "Feature", "properties": {"node_id": 219, "degree": 1, "node_type": "endpoint", "node_kind": null}, "geometry": {"type": "Point", "coordinates": [316301.25, 4704452.5]}}, {"type": "Feature", "properties": {"node_id": 220, "degree": 1, "node_type": "endpoint", "node_kind": null}, "geometry": {"type": "Point", "coordinates": [316283.09375, 4704485.5]}}, {"type": "Feature", "properties": {"node_id": 221, "degree": 1, "node_type": "endpoint", "node_kind": null}, "geometry": {"type": "Point", "coordinates": [316368.3125, 4704340.0]}}, {"type": "Feature", "properties": {"node_id": 222, "degree": 1, "node_type": "endpoint", "node_kind": null}, "geometry": {"type": "Point", "coordinates": [316345.1875, 4704373.5]}}, {"type": "Feature", "properties": {"node_id": 223, "degree": 1, "node_type": "endpoint", "node_kind": null}, "geometry": {"type": "Point", "coordinates": [316295.6875, 4702981.5]}}, {"type": "Feature", "properties": {"node_id": 224, "degree": 2, "node_type": "endpoint", "node_kind": null}, "geometry": {"type": "Point", "coordinates": [316180.9375, 4702887.0]}}, {"type": "Feature", "properties": {"node_id": 225, "degree": 1, "node_type": "endpoint", "node_kind": null}, "geometry": {"type": "Point", "coordinates": [316520.25, 4703167.5]}}, {"type": "Feature", "properties": {"node_id": 226, "degree": 1, "node_type": "endpoint", "node_kind": null}, "geometry": {"type": "Point", "coordinates": [316602.59375, 4703233.0]}}, {"type": "Feature", "properties": {"node_id": 227, "degree": 1, "node_type": "endpoint", "node_kind": null}, "geometry": {"type": "Point", "coordinates": [316396.65625, 4703064.5]}}, {"type": "Feature", "properties": {"node_id": 228, "degree": 1, "node_type": "endpoint", "node_kind": null}, "geometry": {"type": "Point", "coordinates": [316467.4375, 4703122.0]}}, {"type": "Feature", "properties": {"node_id": 229, "degree": 1, "node_type": "endpoint", "node_kind": null}, "geometry": {"type": "Point", "coordinates": [316225.34375, 4702814.5]}}, {"type": "Feature", "properties": {"node_id": 230, "degree": 2, "node_type": "endpoint", "node_kind": null}, "geometry": {"type": "Point", "coordinates": [316188.4375, 4702865.5]}}, {"type": "Feature", "properties": {"node_id": 231, "degree": 1, "node_type": "endpoint", "node_kind": null}, "geometry": {"type": "Point", "coordinates": [316298.25, 4702988.0]}}, {"type": "Feature", "properties": {"node_id": 232, "degree": 1, "node_type": "endpoint", "node_kind": null}, "geometry": {"type": "Point", "coordinates": [316600.34375, 4703235.5]}}, {"type": "Feature", "properties": {"node_id": 233, "degree": 1, "node_type": "endpoint", "node_kind": null}, "geometry": {"type": "Point", "coordinates": [316399.1875, 4702513.5]}}, {"type": "Feature", "properties": {"node_id": 234, "degree": 1, "node_type": "endpoint", "node_kind": null}, "geometry": {"type": "Point", "coordinates": [316378.9375, 4702551.5]}}, {"type": "Feature", "properties": {"node_id": 235, "degree": 1, "node_type": "endpoint", "node_kind": null}, "geometry": {"type": "Point", "coordinates": [316222.0625, 4702327.5]}}, {"type": "Feature", "properties": {"node_id": 236, "degree": 1, "node_type": "endpoint", "node_kind": null}, "geometry": {"type": "Point", "coordinates": [316278.4375, 4702387.0]}}, {"type": "Feature", "properties": {"node_id": 237, "degree": 1, "node_type": "endpoint", "node_kind": null}, "geometry": {"type": "Point", "coordinates": [316275.4375, 4702744.5]}}, {"type": "Feature", "properties": {"node_id": 238, "degree": 1, "node_type": "endpoint", "node_kind": null}, "geometry": {"type": "Point", "coordinates": [316296.90625, 4702714.0]}}, {"type": "Feature", "properties": {"node_id": 239, "degree": 1, "node_type": "endpoint", "node_kind": null}, "geometry": {"type": "Point", "coordinates": [316308.3125, 4702678.5]}}, {"type": "Feature", "properties": {"node_id": 240, "degree": 1, "node_type": "endpoint", "node_kind": null}, "geometry": {"type": "Point", "coordinates": [316236.3125, 4702781.5]}}, {"type": "Feature", "properties": {"node_id": 241, "degree": 1, "node_type": "endpoint", "node_kind": null}, "geometry": {"type": "Point", "coordinates": [316295.25, 4702420.0]}}, {"type": "Feature", "properties": {"node_id": 242, "degree": 1, "node_type": "endpoint", "node_kind": null}, "geometry": {"type": "Point", "coordinates": [316032.0, 4702163.0]}}, {"type": "Feature", "properties": {"node_id": 243, "degree": 1, "node_type": "endpoint", "node_kind": null}, "geometry": {"type": "Point", "coordinates": [316623.3125, 4702221.5]}}, {"type": "Feature", "properties": {"node_id": 244, "degree": 1, "node_type": "endpoint", "node_kind": null}, "geometry": {"type": "Point", "coordinates": [316649.40625, 4702283.5]}}, {"type": "Feature", "properties": {"node_id": 245, "degree": 1, "node_type": "endpoint", "node_kind": null}, "geometry": {"type": "Point", "coordinates": [316681.5, 4701967.0]}}, {"type": "Feature", "properties": {"node_id": 246, "degree": 1, "node_type": "endpoint", "node_kind": null}, "geometry": {"type": "Point", "coordinates": [316770.59375, 4701900.0]}}, {"type": "Feature", "properties": {"node_id": 247, "degree": 1, "node_type": "endpoint", "node_kind": null}, "geometry": {"type": "Point", "coordinates": [316588.65625, 4702136.0]}}, {"type": "Feature", "properties": {"node_id": 248, "degree": 1, "node_type": "endpoint", "node_kind": null}, "geometry": {"type": "Point", "coordinates": [316594.34375, 4702108.5]}}, {"type": "Feature", "properties": {"node_id": 249, "degree": 1, "node_type": "endpoint", "node_kind": null}, "geometry": {"type": "Point", "coordinates": [316614.0, 4702052.0]}}, {"type": "Feature", "properties": {"node_id": 250, "degree": 1, "node_type": "endpoint", "node_kind": null}, "geometry": {"type": "Point", "coordinates": [316607.6875, 4702074.5]}}, {"type": "Feature", "properties": {"node_id": 251, "degree": 1, "node_type": "endpoint", "node_kind": null}, "geometry": {"type": "Point", "coordinates": [316665.90625, 4701983.0]}}, {"type": "Feature", "properties": {"node_id": 252, "degree": 1, "node_type": "endpoint", "node_kind": null}, "geometry": {"type": "Point", "coordinates": [316631.09375, 4702011.5]}}, {"type": "Feature", "properties": {"node_id": 253, "degree": 1, "node_type": "endpoint", "node_kind": null}, "geometry": {"type": "Point", "coordinates": [316688.25, 4701974.5]}}, {"type": "Feature", "properties": {"node_id": 254, "degree": 1, "node_type": "endpoint", "node_kind": null}, "geometry": {"type": "Point", "coordinates": [316763.09375, 4701918.5]}}, {"type": "Feature", "properties": {"node_id": 255, "degree": 1, "node_type": "endpoint", "node_kind": null}, "geometry": {"type": "Point", "coordinates": [316405.34375, 4699931.0]}}, {"type": "Feature", "properties": {"node_id": 256, "degree": 1, "node_type": "endpoint", "node_kind": null}, "geometry": {"type": "Point", "coordinates": [316462.9375, 4699775.0]}}, {"type": "Feature", "properties": {"node_id": 257, "degree": 1, "node_type": "endpoint", "node_kind": null}, "geometry": {"type": "Point", "coordinates": [316419.0, 4699893.5]}}, {"type": "Feature", "properties": {"node_id": 258, "degree": 1, "node_type": "endpoint", "node_kind": null}, "geometry": {"type": "Point", "coordinates": [316438.34375, 4699360.0]}}, {"type": "Feature", "properties": {"node_id": 259, "degree": 1, "node_type": "endpoint", "node_kind": null}, "geometry": {"type": "Point", "coordinates": [316451.84375, 4699410.0]}}, {"type": "Feature", "properties": {"node_id": 260, "degree": 1, "node_type": "endpoint", "node_kind": null}, "geometry": {"type": "Point", "coordinates": [316448.5625, 4699381.5]}}, {"type": "Feature", "properties": {"node_id": 261, "degree": 1, "node_type": "endpoint", "node_kind": null}, "geometry": {"type": "Point", "coordinates": [316479.4375, 4699656.5]}}, {"type": "Feature", "properties": {"node_id": 262, "degree": 1, "node_type": "endpoint", "node_kind": null}, "geometry": {"type": "Point", "coordinates": [316446.15625, 4699387.5]}}, {"type": "Feature", "properties": {"node_id": 263, "degree": 1, "node_type": "endpoint", "node_kind": null}, "geometry": {"type": "Point", "coordinates": [316392.90625, 4698855.0]}}, {"type": "Feature", "properties": {"node_id": 264, "degree": 1, "node_type": "endpoint", "node_kind": null}, "geometry": {"type": "Point", "coordinates": [316392.3125, 4698908.0]}}, {"type": "Feature", "properties": {"node_id": 265, "degree": 1, "node_type": "endpoint", "node_kind": null}, "geometry": {"type": "Point", "coordinates": [316419.59375, 4699259.5]}}, {"type": "Feature", "properties": {"node_id": 266, "degree": 1, "node_type": "endpoint", "node_kind": null}, "geometry": {"type": "Point", "coordinates": [316403.5625, 4699168.0]}}, {"type": "Feature", "properties": {"node_id": 267, "degree": 1, "node_type": "endpoint", "node_kind": null}, "geometry": {"type": "Point", "coordinates": [316415.84375, 4699211.5]}}, {"type": "Feature", "properties": {"node_id": 268, "degree": 1, "node_type": "endpoint", "node_kind": null}, "geometry": {"type": "Point", "coordinates": [316457.40625, 4699509.5]}}, {"type": "Feature", "properties": {"node_id": 269, "degree": 1, "node_type": "endpoint", "node_kind": null}, "geometry": {"type": "Point", "coordinates": [316410.75, 4699082.0]}}, {"type": "Feature", "properties": {"node_id": 270, "degree": 1, "node_type": "endpoint", "node_kind": null}, "geometry": {"type": "Point", "coordinates": [316414.65625, 4699111.0]}}, {"type": "Feature", "properties": {"node_id": 271, "degree": 2, "node_type": "endpoint", "node_kind": null}, "geometry": {"type": "Point", "coordinates": [316377.15625, 4698646.5]}}, {"type": "Feature", "properties": {"node_id": 272, "degree": 1, "node_type": "endpoint", "node_kind": null}, "geometry": {"type": "Point", "coordinates": [316034.09375, 4698710.0]}}, {"type": "Feature", "properties": {"node_id": 273, "degree": 2, "node_type": "endpoint", "node_kind": null}, "geometry": {"type": "Point", "coordinates": [316417.8125, 4698639.0]}}, {"type": "Feature", "properties": {"node_id": 274, "degree": 1, "node_type": "endpoint", "node_kind": null}, "geometry": {"type": "Point", "coordinates": [316758.90625, 4698550.5]}}, {"type": "Feature", "properties": {"node_id": 275, "degree": 1, "node_type": "endpoint", "node_kind": null}, "geometry": {"type": "Point", "coordinates": [316544.6875, 4698615.5]}}, {"type": "Feature", "properties": {"node_id": 276, "degree": 1, "node_type": "endpoint", "node_kind": null}, "geometry": {"type": "Point", "coordinates": [317306.5625, 4698353.0]}}, {"type": "Feature", "properties": {"node_id": 277, "degree": 1, "node_type": "endpoint", "node_kind": null}, "geometry": {"type": "Point", "coordinates": [316377.75, 4698651.5]}}, {"type": "Feature", "properties": {"node_id": 278, "degree": 1, "node_type": "endpoint", "node_kind": null}, "geometry": {"type": "Point", "coordinates": [316034.5625, 4698714.0]}}, {"type": "Feature", "properties": {"node_id": 279, "degree": 1, "node_type": "endpoint", "node_kind": null}, "geometry": {"type": "Point", "coordinates": [316939.34375, 4702935.5]}}, {"type": "Feature", "properties": {"node_id": 280, "degree": 1, "node_type": "endpoint", "node_kind": null}, "geometry": {"type": "Point", "coordinates": [316986.15625, 4702968.5]}}, {"type": "Feature", "properties": {"node_id": 281, "degree": 1, "node_type": "endpoint", "node_kind": null}, "geometry": {"type": "Point", "coordinates": [317128.8125, 4703083.5]}}, {"type": "Feature", "properties": {"node_id": 282, "degree": 1, "node_type": "endpoint", "node_kind": null}, "geometry": {"type": "Point", "coordinates": [317094.75, 4703053.5]}}, {"type": "Feature", "properties": {"node_id": 283, "degree": 1, "node_type": "endpoint", "node_kind": null}, "geometry": {"type": "Point", "coordinates": [317222.25, 4703171.0]}}, {"type": "Feature", "properties": {"node_id": 284, "degree": 1, "node_type": "endpoint", "node_kind": null}, "geometry": {"type": "Point", "coordinates": [317332.0625, 4703269.0]}}, {"type": "Feature", "properties": {"node_id": 285, "degree": 1, "node_type": "endpoint", "node_kind": null}, "geometry": {"type": "Point", "coordinates": [316860.15625, 4702879.5]}}, {"type": "Feature", "properties": {"node_id": 286, "degree": 1, "node_type": "endpoint", "node_kind": null}, "geometry": {"type": "Point", "coordinates": [316993.65625, 4702978.0]}}, {"type": "Feature", "properties": {"node_id": 287, "degree": 1, "node_type": "endpoint", "node_kind": null}, "geometry": {"type": "Point", "coordinates": [317284.0625, 4703221.0]}}, {"type": "Feature", "properties": {"node_id": 288, "degree": 1, "node_type": "endpoint", "node_kind": null}, "geometry": {"type": "Point", "coordinates": [317307.0, 4703242.0]}}, {"type": "Feature", "properties": {"node_id": 289, "degree": 1, "node_type": "endpoint", "node_kind": null}, "geometry": {"type": "Point", "coordinates": [316923.3125, 4701794.0]}}, {"type": "Feature", "properties": {"node_id": 290, "degree": 1, "node_type": "endpoint", "node_kind": null}, "geometry": {"type": "Point", "coordinates": [316886.09375, 4701816.0]}}, {"type": "Feature", "properties": {"node_id": 291, "degree": 1, "node_type": "endpoint", "node_kind": null}, "geometry": {"type": "Point", "coordinates": [317143.5, 4701724.5]}}, {"type": "Feature", "properties": {"node_id": 292, "degree": 2, "node_type": "endpoint", "node_kind": null}, "geometry": {"type": "Point", "coordinates": [317025.59375, 4701761.5]}}, {"type": "Feature", "properties": {"node_id": 293, "degree": 1, "node_type": "endpoint", "node_kind": null}, "geometry": {"type": "Point", "coordinates": [316925.40625, 4701804.0]}}, {"type": "Feature", "properties": {"node_id": 294, "degree": 2, "node_type": "endpoint", "node_kind": null}, "geometry": {"type": "Point", "coordinates": [316953.90625, 4701790.0]}}, {"type": "Feature", "properties": {"node_id": 295, "degree": 1, "node_type": "endpoint", "node_kind": null}, "geometry": {"type": "Point", "coordinates": [316954.9375, 4701793.0]}}, {"type": "Feature", "properties": {"node_id": 296, "degree": 1, "node_type": "endpoint", "node_kind": null}, "geometry": {"type": "Point", "coordinates": [316927.0625, 4701807.0]}}, {"type": "Feature", "properties": {"node_id": 297, "degree": 1, "node_type": "endpoint", "node_kind": null}, "geometry": {"type": "Point", "coordinates": [317223.59375, 4701694.0]}}, {"type": "Feature", "properties": {"node_id": 298, "degree": 1, "node_type": "endpoint", "node_kind": null}, "geometry": {"type": "Point", "coordinates": [317271.90625, 4701662.5]}}, {"type": "Feature", "properties": {"node_id": 299, "degree": 2, "node_type": "endpoint", "node_kind": null}, "geometry": {"type": "Point", "coordinates": [317011.1875, 4701768.0]}}, {"type": "Feature", "properties": {"node_id": 300, "degree": 2, "node_type": "endpoint", "node_kind": null}, "geometry": {"type": "Point", "coordinates": [316980.15625, 4701779.0]}}, {"type": "Feature", "properties": {"node_id": 301, "degree": 1, "node_type": "endpoint", "node_kind": null}, "geometry": {"type": "Point", "coordinates": [317140.5, 4701716.0]}}, {"type": "Feature", "properties": {"node_id": 302, "degree": 1, "node_type": "endpoint", "node_kind": null}, "geometry": {"type": "Point", "coordinates": [316980.15625, 4701767.0]}}, {"type": "Feature", "properties": {"node_id": 303, "degree": 1, "node_type": "endpoint", "node_kind": null}, "geometry": {"type": "Point", "coordinates": [317019.0, 4701752.0]}}, {"type": "Feature", "properties": {"node_id": 304, "degree": 1, "node_type": "endpoint", "node_kind": null}, "geometry": {"type": "Point", "coordinates": [316979.09375, 4701765.5]}}, {"type": "Feature", "properties": {"node_id": 305, "degree": 1, "node_type": "endpoint", "node_kind": null}, "geometry": {"type": "Point", "coordinates": [317235.0, 4701677.0]}}, {"type": "Feature", "properties": {"node_id": 306, "degree": 1, "node_type": "endpoint", "node_kind": null}, "geometry": {"type": "Point", "coordinates": [317268.75, 4701652.5]}}, {"type": "Feature", "properties": {"node_id": 307, "degree": 1, "node_type": "endpoint", "node_kind": null}, "geometry": {"type": "Point", "coordinates": [317238.0, 4706031.0]}}, {"type": "Feature", "properties": {"node_id": 308, "degree": 1, "node_type": "endpoint", "node_kind": null}, "geometry": {"type": "Point", "coordinates": [317249.6875, 4706006.0]}}, {"type": "Feature", "properties": {"node_id": 309, "degree": 1, "node_type": "endpoint", "node_kind": null}, "geometry": {"type": "Point", "coordinates": [316610.5625, 4698593.5]}}, {"type": "Feature", "properties": {"node_id": 310, "degree": 1, "node_type": "endpoint", "node_kind": null}, "geometry": {"type": "Point", "coordinates": [317251.9375, 4698371.5]}}, {"type": "Feature", "properties": {"node_id": 311, "degree": 1, "node_type": "endpoint", "node_kind": null}, "geometry": {"type": "Point", "coordinates": [317262.90625, 4698803.0]}}, {"type": "Feature", "properties": {"node_id": 312, "degree": 1, "node_type": "endpoint", "node_kind": null}, "geometry": {"type": "Point", "coordinates": [317394.15625, 4698725.0]}}, {"type": "Feature", "properties": {"node_id": 313, "degree": 1, "node_type": "endpoint", "node_kind": null}, "geometry": {"type": "Point", "coordinates": [317695.34375, 4703288.5]}}, {"type": "Feature", "properties": {"node_id": 314, "degree": 1, "node_type": "endpoint", "node_kind": null}, "geometry": {"type": "Point", "coordinates": [317402.5625, 4703302.5]}}, {"type": "Feature", "properties": {"node_id": 315, "degree": 1, "node_type": "endpoint", "node_kind": null}, "geometry": {"type": "Point", "coordinates": [317737.65625, 4703278.0]}}, {"type": "Feature", "properties": {"node_id": 316, "degree": 1, "node_type": "endpoint", "node_kind": null}, "geometry": {"type": "Point", "coordinates": [317716.0625, 4703282.0]}}, {"type": "Feature", "properties": {"node_id": 317, "degree": 1, "node_type": "endpoint", "node_kind": null}, "geometry": {"type": "Point", "coordinates": [317814.59375, 4701764.0]}}, {"type": "Feature", "properties": {"node_id": 318, "degree": 1, "node_type": "endpoint", "node_kind": null}, "geometry": {"type": "Point", "coordinates": [317386.34375, 4701727.0]}}, {"type": "Feature", "properties": {"node_id": 319, "degree": 1, "node_type": "endpoint", "node_kind": null}, "geometry": {"type": "Point", "coordinates": [317565.0, 4701737.0]}}, {"type": "Feature", "properties": {"node_id": 320, "degree": 1, "node_type": "endpoint", "node_kind": null}, "geometry": {"type": "Point", "coordinates": [317382.0, 4701723.0]}}, {"type": "Feature", "properties": {"node_id": 321, "degree": 1, "node_type": "endpoint", "node_kind": null}, "geometry": {"type": "Point", "coordinates": [317826.90625, 4701125.5]}}, {"type": "Feature", "properties": {"node_id": 322, "degree": 1, "node_type": "endpoint", "node_kind": null}, "geometry": {"type": "Point", "coordinates": [317866.34375, 4701103.0]}}, {"type": "Feature", "properties": {"node_id": 323, "degree": 1, "node_type": "endpoint", "node_kind": null}, "geometry": {"type": "Point", "coordinates": [317404.1875, 4705860.5]}}, {"type": "Feature", "properties": {"node_id": 324, "degree": 1, "node_type": "endpoint", "node_kind": null}, "geometry": {"type": "Point", "coordinates": [317362.65625, 4705841.0]}}, {"type": "Feature", "properties": {"node_id": 325, "degree": 1, "node_type": "endpoint", "node_kind": null}, "geometry": {"type": "Point", "coordinates": [317362.8125, 4705841.0]}}, {"type": "Feature", "properties": {"node_id": 326, "degree": 1, "node_type": "endpoint", "node_kind": null}, "geometry": {"type": "Point", "coordinates": [317374.9375, 4705848.0]}}, {"type": "Feature", "properties": {"node_id": 327, "degree": 1, "node_type": "endpoint", "node_kind": null}, "geometry": {"type": "Point", "coordinates": [317472.15625, 4705880.5]}}, {"type": "Feature", "properties": {"node_id": 328, "degree": 1, "node_type": "endpoint", "node_kind": null}, "geometry": {"type": "Point", "coordinates": [317513.40625, 4705900.0]}}, {"type": "Feature", "properties": {"node_id": 329, "degree": 1, "node_type": "endpoint", "node_kind": null}, "geometry": {"type": "Point", "coordinates": [317445.0, 4698298.5]}}, {"type": "Feature", "properties": {"node_id": 330, "degree": 1, "node_type": "endpoint", "node_kind": null}, "geometry": {"type": "Point", "coordinates": [317910.59375, 4698015.0]}}, {"type": "Feature", "properties": {"node_id": 331, "degree": 1, "node_type": "endpoint", "node_kind": null}, "geometry": {"type": "Point", "coordinates": [317582.84375, 4698505.0]}}, {"type": "Feature", "properties": {"node_id": 332, "degree": 1, "node_type": "endpoint", "node_kind": null}, "geometry": {"type": "Point", "coordinates": [317608.34375, 4698515.5]}}, {"type": "Feature", "properties": {"node_id": 333, "degree": 1, "node_type": "endpoint", "node_kind": null}, "geometry": {"type": "Point", "coordinates": [317443.65625, 4698295.5]}}, {"type": "Feature", "properties": {"node_id": 334, "degree": 1, "node_type": "endpoint", "node_kind": null}, "geometry": {"type": "Point", "coordinates": [317913.4375, 4698008.5]}}, {"type": "Feature", "properties": {"node_id": 335, "degree": 1, "node_type": "endpoint", "node_kind": null}, "geometry": {"type": "Point", "coordinates": [317780.25, 4696642.0]}}, {"type": "Feature", "properties": {"node_id": 336, "degree": 1, "node_type": "endpoint", "node_kind": null}, "geometry": {"type": "Point", "coordinates": [317809.0625, 4696605.0]}}, {"type": "Feature", "properties": {"node_id": 337, "degree": 1, "node_type": "endpoint", "node_kind": null}, "geometry": {"type": "Point", "coordinates": [317787.15625, 4705562.5]}}, {"type": "Feature", "properties": {"node_id": 338, "degree": 1, "node_type": "endpoint", "node_kind": null}, "geometry": {"type": "Point", "coordinates": [317824.8125, 4705669.5]}}, {"type": "Feature", "properties": {"node_id": 339, "degree": 1, "node_type": "endpoint", "node_kind": null}, "geometry": {"type": "Point", "coordinates": [317788.0625, 4705579.5]}}, {"type": "Feature", "properties": {"node_id": 340, "degree": 1, "node_type": "endpoint", "node_kind": null}, "geometry": {"type": "Point", "coordinates": [317816.40625, 4705658.0]}}, {"type": "Feature", "properties": {"node_id": 341, "degree": 1, "node_type": "endpoint", "node_kind": null}, "geometry": {"type": "Point", "coordinates": [318372.0, 4706370.0]}}, {"type": "Feature", "properties": {"node_id": 342, "degree": 1, "node_type": "endpoint", "node_kind": null}, "geometry": {"type": "Point", "coordinates": [318383.5625, 4706414.5]}}, {"type": "Feature", "properties": {"node_id": 343, "degree": 2, "node_type": "endpoint", "node_kind": null}, "geometry": {"type": "Point", "coordinates": [317915.09375, 4703240.0]}}, {"type": "Feature", "properties": {"node_id": 344, "degree": 1, "node_type": "endpoint", "node_kind": null}, "geometry": {"type": "Point", "coordinates": [317849.40625, 4703251.0]}}, {"type": "Feature", "properties": {"node_id": 345, "degree": 1, "node_type": "endpoint", "node_kind": null}, "geometry": {"type": "Point", "coordinates": [318319.0625, 4703061.5]}}, {"type": "Feature", "properties": {"node_id": 346, "degree": 1, "node_type": "endpoint", "node_kind": null}, "geometry": {"type": "Point", "coordinates": [318424.65625, 4703056.0]}}, {"type": "Feature", "properties": {"node_id": 347, "degree": 1, "node_type": "endpoint", "node_kind": null}, "geometry": {"type": "Point", "coordinates": [318028.5, 4703226.5]}}, {"type": "Feature", "properties": {"node_id": 348, "degree": 2, "node_type": "endpoint", "node_kind": null}, "geometry": {"type": "Point", "coordinates": [317939.09375, 4703237.0]}}, {"type": "Feature", "properties": {"node_id": 349, "degree": 1, "node_type": "endpoint", "node_kind": null}, "geometry": {"type": "Point", "coordinates": [318140.40625, 4703206.0]}}, {"type": "Feature", "properties": {"node_id": 350, "degree": 1, "node_type": "endpoint", "node_kind": null}, "geometry": {"type": "Point", "coordinates": [318094.5, 4703222.0]}}, {"type": "Feature", "properties": {"node_id": 351, "degree": 1, "node_type": "endpoint", "node_kind": null}, "geometry": {"type": "Point", "coordinates": [317894.09375, 4703247.0]}}, {"type": "Feature", "properties": {"node_id": 352, "degree": 1, "node_type": "endpoint", "node_kind": null}, "geometry": {"type": "Point", "coordinates": [318027.15625, 4703232.0]}}, {"type": "Feature", "properties": {"node_id": 353, "degree": 1, "node_type": "endpoint", "node_kind": null}, "geometry": {"type": "Point", "coordinates": [318181.1875, 4703173.5]}}, {"type": "Feature", "properties": {"node_id": 354, "degree": 1, "node_type": "endpoint", "node_kind": null}, "geometry": {"type": "Point", "coordinates": [318235.65625, 4703115.0]}}, {"type": "Feature", "properties": {"node_id": 355, "degree": 1, "node_type": "endpoint", "node_kind": null}, "geometry": {"type": "Point", "coordinates": [317762.5625, 4701759.5]}}, {"type": "Feature", "properties": {"node_id": 356, "degree": 1, "node_type": "endpoint", "node_kind": null}, "geometry": {"type": "Point", "coordinates": [317985.15625, 4701781.5]}}, {"type": "Feature", "properties": {"node_id": 357, "degree": 1, "node_type": "endpoint", "node_kind": null}, "geometry": {"type": "Point", "coordinates": [318077.25, 4701770.5]}}, {"type": "Feature", "properties": {"node_id": 358, "degree": 1, "node_type": "endpoint", "node_kind": null}, "geometry": {"type": "Point", "coordinates": [318735.4375, 4701886.5]}}, {"type": "Feature", "properties": {"node_id": 359, "degree": 1, "node_type": "endpoint", "node_kind": null}, "geometry": {"type": "Point", "coordinates": [318131.40625, 4706072.5]}}, {"type": "Feature", "properties": {"node_id": 360, "degree": 1, "node_type": "endpoint", "node_kind": null}, "geometry": {"type": "Point", "coordinates": [318081.75, 4706068.5]}}, {"type": "Feature", "properties": {"node_id": 361, "degree": 1, "node_type": "endpoint", "node_kind": null}, "geometry": {"type": "Point", "coordinates": [318046.1875, 4700551.5]}}, {"type": "Feature", "properties": {"node_id": 362, "degree": 1, "node_type": "endpoint", "node_kind": null}, "geometry": {"type": "Point", "coordinates": [318140.84375, 4700478.0]}}, {"type": "Feature", "properties": {"node_id": 363, "degree": 1, "node_type": "endpoint", "node_kind": null}, "geometry": {"type": "Point", "coordinates": [317915.5625, 4701036.0]}}, {"type": "Feature", "properties": {"node_id": 364, "degree": 1, "node_type": "endpoint", "node_kind": null}, "geometry": {"type": "Point", "coordinates": [317989.34375, 4700662.5]}}, {"type": "Feature", "properties": {"node_id": 365, "degree": 1, "node_type": "endpoint", "node_kind": null}, "geometry": {"type": "Point", "coordinates": [317989.8125, 4700664.5]}}, {"type": "Feature", "properties": {"node_id": 366, "degree": 1, "node_type": "endpoint", "node_kind": null}, "geometry": {"type": "Point", "coordinates": [317941.1875, 4700945.0]}}, {"type": "Feature", "properties": {"node_id": 367, "degree": 1, "node_type": "endpoint", "node_kind": null}, "geometry": {"type": "Point", "coordinates": [317972.09375, 4700559.5]}}, {"type": "Feature", "properties": {"node_id": 368, "degree": 1, "node_type": "endpoint", "node_kind": null}, "geometry": {"type": "Point", "coordinates": [317760.0, 4700510.0]}}, {"type": "Feature", "properties": {"node_id": 369, "degree": 1, "node_type": "endpoint", "node_kind": null}, "geometry": {"type": "Point", "coordinates": [318084.90625, 4700505.0]}}, {"type": "Feature", "properties": {"node_id": 370, "degree": 1, "node_type": "endpoint", "node_kind": null}, "geometry": {"type": "Point", "coordinates": [318166.34375, 4700443.5]}}, {"type": "Feature", "properties": {"node_id": 371, "degree": 1, "node_type": "endpoint", "node_kind": null}, "geometry": {"type": "Point", "coordinates": [318323.09375, 4700212.0]}}, {"type": "Feature", "properties": {"node_id": 372, "degree": 1, "node_type": "endpoint", "node_kind": null}, "geometry": {"type": "Point", "coordinates": [318362.40625, 4700113.5]}}, {"type": "Feature", "properties": {"node_id": 373, "degree": 1, "node_type": "endpoint", "node_kind": null}, "geometry": {"type": "Point", "coordinates": [318296.6875, 4700272.0]}}, {"type": "Feature", "properties": {"node_id": 374, "degree": 1, "node_type": "endpoint", "node_kind": null}, "geometry": {"type": "Point", "coordinates": [318246.15625, 4700362.5]}}, {"type": "Feature", "properties": {"node_id": 375, "degree": 1, "node_type": "endpoint", "node_kind": null}, "geometry": {"type": "Point", "coordinates": [318386.84375, 4699972.0]}}, {"type": "Feature", "properties": {"node_id": 376, "degree": 1, "node_type": "endpoint", "node_kind": null}, "geometry": {"type": "Point", "coordinates": [318394.34375, 4699934.5]}}, {"type": "Feature", "properties": {"node_id": 377, "degree": 1, "node_type": "endpoint", "node_kind": null}, "geometry": {"type": "Point", "coordinates": [318076.9375, 4700522.5]}}, {"type": "Feature", "properties": {"node_id": 378, "degree": 1, "node_type": "endpoint", "node_kind": null}, "geometry": {"type": "Point", "coordinates": [318177.75, 4700446.0]}}, {"type": "Feature", "properties": {"node_id": 379, "degree": 1, "node_type": "endpoint", "node_kind": null}, "geometry": {"type": "Point", "coordinates": [318225.3125, 4700398.5]}}, {"type": "Feature", "properties": {"node_id": 380, "degree": 1, "node_type": "endpoint", "node_kind": null}, "geometry": {"type": "Point", "coordinates": [318397.1875, 4699974.0]}}, {"type": "Feature", "properties": {"node_id": 381, "degree": 1, "node_type": "endpoint", "node_kind": null}, "geometry": {"type": "Point", "coordinates": [318406.5, 4699494.0]}}, {"type": "Feature", "properties": {"node_id": 382, "degree": 1, "node_type": "endpoint", "node_kind": null}, "geometry": {"type": "Point", "coordinates": [318422.09375, 4699550.0]}}, {"type": "Feature", "properties": {"node_id": 383, "degree": 1, "node_type": "endpoint", "node_kind": null}, "geometry": {"type": "Point", "coordinates": [318372.3125, 4699340.5]}}, {"type": "Feature", "properties": {"node_id": 384, "degree": 1, "node_type": "endpoint", "node_kind": null}, "geometry": {"type": "Point", "coordinates": [318377.40625, 4699384.0]}}, {"type": "Feature", "properties": {"node_id": 385, "degree": 1, "node_type": "endpoint", "node_kind": null}, "geometry": {"type": "Point", "coordinates": [318443.6875, 4699617.5]}}, {"type": "Feature", "properties": {"node_id": 386, "degree": 1, "node_type": "endpoint", "node_kind": null}, "geometry": {"type": "Point", "coordinates": [318464.25, 4699692.0]}}, {"type": "Feature", "properties": {"node_id": 387, "degree": 1, "node_type": "endpoint", "node_kind": null}, "geometry": {"type": "Point", "coordinates": [318417.90625, 4699866.0]}}, {"type": "Feature", "properties": {"node_id": 388, "degree": 1, "node_type": "endpoint", "node_kind": null}, "geometry": {"type": "Point", "coordinates": [318391.65625, 4699965.5]}}, {"type": "Feature", "properties": {"node_id": 389, "degree": 1, "node_type": "endpoint", "node_kind": null}, "geometry": {"type": "Point", "coordinates": [318417.75, 4699524.5]}}, {"type": "Feature", "properties": {"node_id": 390, "degree": 1, "node_type": "endpoint", "node_kind": null}, "geometry": {"type": "Point", "coordinates": [318408.75, 4699492.0]}}, {"type": "Feature", "properties": {"node_id": 391, "degree": 1, "node_type": "endpoint", "node_kind": null}, "geometry": {"type": "Point", "coordinates": [318462.59375, 4699704.5]}}, {"type": "Feature", "properties": {"node_id": 392, "degree": 1, "node_type": "endpoint", "node_kind": null}, "geometry": {"type": "Point", "coordinates": [318443.40625, 4699631.0]}}, {"type": "Feature", "properties": {"node_id": 393, "degree": 1, "node_type": "endpoint", "node_kind": null}, "geometry": {"type": "Point", "coordinates": [318255.3125, 4698882.0]}}, {"type": "Feature", "properties": {"node_id": 394, "degree": 1, "node_type": "endpoint", "node_kind": null}, "geometry": {"type": "Point", "coordinates": [318253.1875, 4698939.5]}}, {"type": "Feature", "properties": {"node_id": 395, "degree": 1, "node_type": "endpoint", "node_kind": null}, "geometry": {"type": "Point", "coordinates": [317928.75, 4698799.5]}}, {"type": "Feature", "properties": {"node_id": 396, "degree": 1, "node_type": "endpoint", "node_kind": null}, "geometry": {"type": "Point", "coordinates": [317913.3125, 4698815.5]}}, {"type": "Feature", "properties": {"node_id": 397, "degree": 1, "node_type": "endpoint", "node_kind": null}, "geometry": {"type": "Point", "coordinates": [318333.75, 4699206.5]}}, {"type": "Feature", "properties": {"node_id": 398, "degree": 1, "node_type": "endpoint", "node_kind": null}, "geometry": {"type": "Point", "coordinates": [318353.25, 4699245.0]}}, {"type": "Feature", "properties": {"node_id": 399, "degree": 1, "node_type": "endpoint", "node_kind": null}, "geometry": {"type": "Point", "coordinates": [317916.3125, 4698817.5]}}, {"type": "Feature", "properties": {"node_id": 400, "degree": 1, "node_type": "endpoint", "node_kind": null}, "geometry": {"type": "Point", "coordinates": [317931.59375, 4698802.0]}}, {"type": "Feature", "properties": {"node_id": 401, "degree": 1, "node_type": "endpoint", "node_kind": null}, "geometry": {"type": "Point", "coordinates": [318273.0, 4699018.0]}}, {"type": "Feature", "properties": {"node_id": 402, "degree": 1, "node_type": "endpoint", "node_kind": null}, "geometry": {"type": "Point", "coordinates": [318286.34375, 4699040.0]}}, {"type": "Feature", "properties": {"node_id": 403, "degree": 1, "node_type": "endpoint", "node_kind": null}, "geometry": {"type": "Point", "coordinates": [318347.84375, 4697630.5]}}, {"type": "Feature", "properties": {"node_id": 404, "degree": 1, "node_type": "endpoint", "node_kind": null}, "geometry": {"type": "Point", "coordinates": [318080.40625, 4697853.0]}}, {"type": "Feature", "properties": {"node_id": 405, "degree": 1, "node_type": "endpoint", "node_kind": null}, "geometry": {"type": "Point", "coordinates": [318004.5, 4697927.0]}}, {"type": "Feature", "properties": {"node_id": 406, "degree": 1, "node_type": "endpoint", "node_kind": null}, "geometry": {"type": "Point", "coordinates": [317760.0, 4698143.0]}}, {"type": "Feature", "properties": {"node_id": 407, "degree": 1, "node_type": "endpoint", "node_kind": null}, "geometry": {"type": "Point", "coordinates": [317760.0, 4698148.0]}}, {"type": "Feature", "properties": {"node_id": 408, "degree": 1, "node_type": "endpoint", "node_kind": null}, "geometry": {"type": "Point", "coordinates": [318354.0, 4697630.5]}}, {"type": "Feature", "properties": {"node_id": 409, "degree": 1, "node_type": "endpoint", "node_kind": null}, "geometry": {"type": "Point", "coordinates": [318486.4375, 4697518.0]}}, {"type": "Feature", "properties": {"node_id": 410, "degree": 1, "node_type": "endpoint", "node_kind": null}, "geometry": {"type": "Point", "coordinates": [318159.90625, 4697784.0]}}, {"type": "Feature", "properties": {"node_id": 411, "degree": 1, "node_type": "endpoint", "node_kind": null}, "geometry": {"type": "Point", "coordinates": [318488.84375, 4697521.0]}}, {"type": "Feature", "properties": {"node_id": 412, "degree": 1, "node_type": "endpoint", "node_kind": null}, "geometry": {"type": "Point", "coordinates": [318165.15625, 4697784.0]}}, {"type": "Feature", "properties": {"node_id": 413, "degree": 1, "node_type": "endpoint", "node_kind": null}, "geometry": {"type": "Point", "coordinates": [317995.8125, 4705605.5]}}, {"type": "Feature", "properties": {"node_id": 414, "degree": 1, "node_type": "endpoint", "node_kind": null}, "geometry": {"type": "Point", "coordinates": [317935.34375, 4705575.5]}}, {"type": "Feature", "properties": {"node_id": 415, "degree": 1, "node_type": "endpoint", "node_kind": null}, "geometry": {"type": "Point", "coordinates": [313239.90625, 4699030.5]}}, {"type": "Feature", "properties": {"node_id": 416, "degree": 1, "node_type": "endpoint", "node_kind": null}, "geometry": {"type": "Point", "coordinates": [313102.1875, 4699118.0]}}, {"type": "Feature", "properties": {"node_id": 417, "degree": 1, "node_type": "endpoint", "node_kind": null}, "geometry": {"type": "Point", "coordinates": [313263.15625, 4699019.0]}}, {"type": "Feature", "properties": {"node_id": 418, "degree": 1, "node_type": "endpoint", "node_kind": null}, "geometry": {"type": "Point", "coordinates": [313106.84375, 4699118.5]}}, {"type": "Feature", "properties": {"node_id": 419, "degree": 1, "node_type": "endpoint", "node_kind": null}, "geometry": {"type": "Point", "coordinates": [312785.5625, 4696801.5]}}, {"type": "Feature", "properties": {"node_id": 420, "degree": 1, "node_type": "endpoint", "node_kind": null}, "geometry": {"type": "Point", "coordinates": [312766.8125, 4696746.5]}}, {"type": "Feature", "properties": {"node_id": 421, "degree": 2, "node_type": "endpoint", "node_kind": null}, "geometry": {"type": "Point", "coordinates": [312754.65625, 4696633.0]}}, {"type": "Feature", "properties": {"node_id": 422, "degree": 1, "node_type": "endpoint", "node_kind": null}, "geometry": {"type": "Point", "coordinates": [312753.75, 4696676.5]}}, {"type": "Feature", "properties": {"node_id": 423, "degree": 1, "node_type": "endpoint", "node_kind": null}, "geometry": {"type": "Point", "coordinates": [312751.9375, 4696633.0]}}, {"type": "Feature", "properties": {"node_id": 424, "degree": 1, "node_type": "endpoint", "node_kind": null}, "geometry": {"type": "Point", "coordinates": [312807.0, 4696844.0]}}, {"type": "Feature", "properties": {"node_id": 425, "degree": 1, "node_type": "endpoint", "node_kind": null}, "geometry": {"type": "Point", "coordinates": [312794.5625, 4696596.0]}}, {"type": "Feature", "properties": {"node_id": 426, "degree": 2, "node_type": "endpoint", "node_kind": null}, "geometry": {"type": "Point", "coordinates": [312759.75, 4696619.5]}}, {"type": "Feature", "properties": {"node_id": 427, "degree": 1, "node_type": "endpoint", "node_kind": null}, "geometry": {"type": "Point", "coordinates": [318704.09375, 4703019.0]}}, {"type": "Feature", "properties": {"node_id": 428, "degree": 1, "node_type": "endpoint", "node_kind": null}, "geometry": {"type": "Point", "coordinates": [318654.15625, 4703035.5]}}, {"type": "Feature", "properties": {"node_id": 429, "degree": 1, "node_type": "endpoint", "node_kind": null}, "geometry": {"type": "Point", "coordinates": [318579.59375, 4703060.0]}}, {"type": "Feature", "properties": {"node_id": 430, "degree": 1, "node_type": "endpoint", "node_kind": null}, "geometry": {"type": "Point", "coordinates": [318628.65625, 4703048.5]}}, {"type": "Feature", "properties": {"node_id": 431, "degree": 1, "node_type": "endpoint", "node_kind": null}, "geometry": {"type": "Point", "coordinates": [319062.75, 4701970.5]}}, {"type": "Feature", "properties": {"node_id": 432, "degree": 1, "node_type": "endpoint", "node_kind": null}, "geometry": {"type": "Point", "coordinates": [318888.4375, 4701926.0]}}, {"type": "Feature", "properties": {"node_id": 433, "degree": 1, "node_type": "endpoint", "node_kind": null}, "geometry": {"type": "Point", "coordinates": [318733.34375, 4701888.0]}}, {"type": "Feature", "properties": {"node_id": 434, "degree": 1, "node_type": "endpoint", "node_kind": null}, "geometry": {"type": "Point", "coordinates": [318691.9375, 4701877.5]}}, {"type": "Feature", "properties": {"node_id": 435, "degree": 1, "node_type": "endpoint", "node_kind": null}, "geometry": {"type": "Point", "coordinates": [318536.09375, 4699696.5]}}, {"type": "Feature", "properties": {"node_id": 436, "degree": 1, "node_type": "endpoint", "node_kind": null}, "geometry": {"type": "Point", "coordinates": [318568.1875, 4699664.0]}}, {"type": "Feature", "properties": {"node_id": 437, "degree": 1, "node_type": "endpoint", "node_kind": null}, "geometry": {"type": "Point", "coordinates": [318566.5625, 4698549.0]}}, {"type": "Feature", "properties": {"node_id": 438, "degree": 1, "node_type": "endpoint", "node_kind": null}, "geometry": {"type": "Point", "coordinates": [318586.34375, 4698515.5]}}, {"type": "Feature", "properties": {"node_id": 439, "degree": 1, "node_type": "endpoint", "node_kind": null}, "geometry": {"type": "Point", "coordinates": [318647.6875, 4698300.0]}}, {"type": "Feature", "properties": {"node_id": 440, "degree": 1, "node_type": "endpoint", "node_kind": null}, "geometry": {"type": "Point", "coordinates": [318642.59375, 4698322.0]}}, {"type": "Feature", "properties": {"node_id": 441, "degree": 1, "node_type": "endpoint", "node_kind": null}, "geometry": {"type": "Point", "coordinates": [318588.0, 4698516.5]}}, {"type": "Feature", "properties": {"node_id": 442, "degree": 1, "node_type": "endpoint", "node_kind": null}, "geometry": {"type": "Point", "coordinates": [318574.1875, 4698539.5]}}, {"type": "Feature", "properties": {"node_id": 443, "degree": 1, "node_type": "endpoint", "node_kind": null}, "geometry": {"type": "Point", "coordinates": [318894.75, 4698391.0]}}, {"type": "Feature", "properties": {"node_id": 444, "degree": 1, "node_type": "endpoint", "node_kind": null}, "geometry": {"type": "Point", "coordinates": [318939.75, 4698382.0]}}, {"type": "Feature", "properties": {"node_id": 445, "degree": 1, "node_type": "endpoint", "node_kind": null}, "geometry": {"type": "Point", "coordinates": [318556.65625, 4698560.5]}}, {"type": "Feature", "properties": {"node_id": 446, "degree": 1, "node_type": "endpoint", "node_kind": null}, "geometry": {"type": "Point", "coordinates": [318541.1875, 4698577.5]}}, {"type": "Feature", "properties": {"node_id": 447, "degree": 1, "node_type": "endpoint", "node_kind": null}, "geometry": {"type": "Point", "coordinates": [318960.90625, 4697139.5]}}, {"type": "Feature", "properties": {"node_id": 448, "degree": 1, "node_type": "endpoint", "node_kind": null}, "geometry": {"type": "Point", "coordinates": [319059.15625, 4697059.5]}}, {"type": "Feature", "properties": {"node_id": 449, "degree": 1, "node_type": "endpoint", "node_kind": null}, "geometry": {"type": "Point", "coordinates": [318760.8125, 4697297.5]}}, {"type": "Feature", "properties": {"node_id": 450, "degree": 1, "node_type": "endpoint", "node_kind": null}, "geometry": {"type": "Point", "coordinates": [318336.0, 4697640.5]}}, {"type": "Feature", "properties": {"node_id": 451, "degree": 1, "node_type": "endpoint", "node_kind": null}, "geometry": {"type": "Point", "coordinates": [318853.65625, 4697225.0]}}, {"type": "Feature", "properties": {"node_id": 452, "degree": 1, "node_type": "endpoint", "node_kind": null}, "geometry": {"type": "Point", "coordinates": [318814.34375, 4697256.0]}}, {"type": "Feature", "properties": {"node_id": 453, "degree": 1, "node_type": "endpoint", "node_kind": null}, "geometry": {"type": "Point", "coordinates": [318858.90625, 4705569.5]}}, {"type": "Feature", "properties": {"node_id": 454, "degree": 1, "node_type": "endpoint", "node_kind": null}, "geometry": {"type": "Point", "coordinates": [318444.90625, 4705392.5]}}, {"type": "Feature", "properties": {"node_id": 455, "degree": 1, "node_type": "endpoint", "node_kind": null}, "geometry": {"type": "Point", "coordinates": [318859.65625, 4705567.5]}}, {"type": "Feature", "properties": {"node_id": 456, "degree": 1, "node_type": "endpoint", "node_kind": null}, "geometry": {"type": "Point", "coordinates": [318634.8125, 4705462.5]}}, {"type": "Feature", "properties": {"node_id": 457, "degree": 1, "node_type": "endpoint", "node_kind": null}, "geometry": {"type": "Point", "coordinates": [319127.84375, 4701989.5]}}, {"type": "Feature", "properties": {"node_id": 458, "degree": 1, "node_type": "endpoint", "node_kind": null}, "geometry": {"type": "Point", "coordinates": [318912.0, 4701932.0]}}, {"type": "Feature", "properties": {"node_id": 459, "degree": 1, "node_type": "endpoint", "node_kind": null}, "geometry": {"type": "Point", "coordinates": [319624.0625, 4701568.5]}}, {"type": "Feature", "properties": {"node_id": 460, "degree": 1, "node_type": "endpoint", "node_kind": null}, "geometry": {"type": "Point", "coordinates": [319857.3125, 4701571.5]}}, {"type": "Feature", "properties": {"node_id": 461, "degree": 1, "node_type": "endpoint", "node_kind": null}, "geometry": {"type": "Point", "coordinates": [319372.9375, 4701484.0]}}, {"type": "Feature", "properties": {"node_id": 462, "degree": 1, "node_type": "endpoint", "node_kind": null}, "geometry": {"type": "Point", "coordinates": [319499.09375, 4701526.5]}}, {"type": "Feature", "properties": {"node_id": 463, "degree": 1, "node_type": "endpoint", "node_kind": null}, "geometry": {"type": "Point", "coordinates": [319367.5625, 4698276.5]}}, {"type": "Feature", "properties": {"node_id": 464, "degree": 1, "node_type": "endpoint", "node_kind": null}, "geometry": {"type": "Point", "coordinates": [319457.25, 4698239.5]}}, {"type": "Feature", "properties": {"node_id": 465, "degree": 1, "node_type": "endpoint", "node_kind": null}, "geometry": {"type": "Point", "coordinates": [319331.09375, 4698232.5]}}, {"type": "Feature", "properties": {"node_id": 466, "degree": 1, "node_type": "endpoint", "node_kind": null}, "geometry": {"type": "Point", "coordinates": [319300.0625, 4698245.5]}}, {"type": "Feature", "properties": {"node_id": 467, "degree": 1, "node_type": "endpoint", "node_kind": null}, "geometry": {"type": "Point", "coordinates": [319187.09375, 4698293.0]}}, {"type": "Feature", "properties": {"node_id": 468, "degree": 1, "node_type": "endpoint", "node_kind": null}, "geometry": {"type": "Point", "coordinates": [319166.09375, 4698302.0]}}, {"type": "Feature", "properties": {"node_id": 469, "degree": 1, "node_type": "endpoint", "node_kind": null}, "geometry": {"type": "Point", "coordinates": [319932.75, 4703658.0]}}, {"type": "Feature", "properties": {"node_id": 470, "degree": 1, "node_type": "endpoint", "node_kind": null}, "geometry": {"type": "Point", "coordinates": [319885.1875, 4703668.0]}}, {"type": "Feature", "properties": {"node_id": 471, "degree": 1, "node_type": "endpoint", "node_kind": null}, "geometry": {"type": "Point", "coordinates": [319890.15625, 4703664.5]}}, {"type": "Feature", "properties": {"node_id": 472, "degree": 1, "node_type": "endpoint", "node_kind": null}, "geometry": {"type": "Point", "coordinates": [319950.75, 4703651.5]}}, {"type": "Feature", "properties": {"node_id": 473, "degree": 1, "node_type": "endpoint", "node_kind": null}, "geometry": {"type": "Point", "coordinates": [320005.1875, 4701526.5]}}, {"type": "Feature", "properties": {"node_id": 474, "degree": 1, "node_type": "endpoint", "node_kind": null}, "geometry": {"type": "Point", "coordinates": [320424.0, 4701399.5]}}, {"type": "Feature", "properties": {"node_id": 475, "degree": 1, "node_type": "endpoint", "node_kind": null}, "geometry": {"type": "Point", "coordinates": [320082.75, 4700381.5]}}, {"type": "Feature", "properties": {"node_id": 476, "degree": 1, "node_type": "endpoint", "node_kind": null}, "geometry": {"type": "Point", "coordinates": [319912.9375, 4700521.0]}}, {"type": "Feature", "properties": {"node_id": 477, "degree": 1, "node_type": "endpoint", "node_kind": null}, "geometry": {"type": "Point", "coordinates": [320114.40625, 4699801.0]}}, {"type": "Feature", "properties": {"node_id": 478, "degree": 1, "node_type": "endpoint", "node_kind": null}, "geometry": {"type": "Point", "coordinates": [320076.4375, 4699895.0]}}, {"type": "Feature", "properties": {"node_id": 479, "degree": 1, "node_type": "endpoint", "node_kind": null}, "geometry": {"type": "Point", "coordinates": [320158.1875, 4699624.5]}}, {"type": "Feature", "properties": {"node_id": 480, "degree": 1, "node_type": "endpoint", "node_kind": null}, "geometry": {"type": "Point", "coordinates": [320197.0625, 4699509.5]}}, {"type": "Feature", "properties": {"node_id": 481, "degree": 1, "node_type": "endpoint", "node_kind": null}, "geometry": {"type": "Point", "coordinates": [320169.0, 4699592.0]}}, {"type": "Feature", "properties": {"node_id": 482, "degree": 1, "node_type": "endpoint", "node_kind": null}, "geometry": {"type": "Point", "coordinates": [320306.6875, 4699431.0]}}, {"type": "Feature", "properties": {"node_id": 483, "degree": 1, "node_type": "endpoint", "node_kind": null}, "geometry": {"type": "Point", "coordinates": [320221.9375, 4699241.0]}}, {"type": "Feature", "properties": {"node_id": 484, "degree": 1, "node_type": "endpoint", "node_kind": null}, "geometry": {"type": "Point", "coordinates": [320033.6875, 4699280.5]}}, {"type": "Feature", "properties": {"node_id": 485, "degree": 1, "node_type": "endpoint", "node_kind": null}, "geometry": {"type": "Point", "coordinates": [320158.0625, 4699244.0]}}, {"type": "Feature", "properties": {"node_id": 486, "degree": 1, "node_type": "endpoint", "node_kind": null}, "geometry": {"type": "Point", "coordinates": [320178.59375, 4699240.0]}}, {"type": "Feature", "properties": {"node_id": 487, "degree": 1, "node_type": "endpoint", "node_kind": null}, "geometry": {"type": "Point", "coordinates": [320500.34375, 4699184.0]}}, {"type": "Feature", "properties": {"node_id": 488, "degree": 1, "node_type": "endpoint", "node_kind": null}, "geometry": {"type": "Point", "coordinates": [320429.84375, 4699188.0]}}, {"type": "Feature", "properties": {"node_id": 489, "degree": 2, "node_type": "endpoint", "node_kind": null}, "geometry": {"type": "Point", "coordinates": [320401.5, 4698900.5]}}, {"type": "Feature", "properties": {"node_id": 490, "degree": 1, "node_type": "endpoint", "node_kind": null}, "geometry": {"type": "Point", "coordinates": [320366.6875, 4699069.0]}}, {"type": "Feature", "properties": {"node_id": 491, "degree": 1, "node_type": "endpoint", "node_kind": null}, "geometry": {"type": "Point", "coordinates": [320336.09375, 4699216.0]}}, {"type": "Feature", "properties": {"node_id": 492, "degree": 1, "node_type": "endpoint", "node_kind": null}, "geometry": {"type": "Point", "coordinates": [320392.8125, 4699204.0]}}, {"type": "Feature", "properties": {"node_id": 493, "degree": 1, "node_type": "endpoint", "node_kind": null}, "geometry": {"type": "Point", "coordinates": [320431.34375, 4699186.0]}}, {"type": "Feature", "properties": {"node_id": 494, "degree": 1, "node_type": "endpoint", "node_kind": null}, "geometry": {"type": "Point", "coordinates": [320911.34375, 4699125.0]}}, {"type": "Feature", "properties": {"node_id": 495, "degree": 2, "node_type": "endpoint", "node_kind": null}, "geometry": {"type": "Point", "coordinates": [320415.0, 4698850.5]}}, {"type": "Feature", "properties": {"node_id": 496, "degree": 2, "node_type": "endpoint", "node_kind": null}, "geometry": {"type": "Point", "coordinates": [320571.0, 4698487.5]}}, {"type": "Feature", "properties": {"node_id": 497, "degree": 1, "node_type": "endpoint", "node_kind": null}, "geometry": {"type": "Point", "coordinates": [320368.8125, 4699069.5]}}, {"type": "Feature", "properties": {"node_id": 498, "degree": 2, "node_type": "endpoint", "node_kind": null}, "geometry": {"type": "Point", "coordinates": [320403.3125, 4698902.0]}}, {"type": "Feature", "properties": {"node_id": 499, "degree": 1, "node_type": "endpoint", "node_kind": null}, "geometry": {"type": "Point", "coordinates": [320161.0625, 4699256.5]}}, {"type": "Feature", "properties": {"node_id": 500, "degree": 1, "node_type": "endpoint", "node_kind": null}, "geometry": {"type": "Point", "coordinates": [320220.59375, 4699243.0]}}, {"type": "Feature", "properties": {"node_id": 501, "degree": 2, "node_type": "endpoint", "node_kind": null}, "geometry": {"type": "Point", "coordinates": [320409.75, 4698864.5]}}, {"type": "Feature", "properties": {"node_id": 502, "degree": 1, "node_type": "endpoint", "node_kind": null}, "geometry": {"type": "Point", "coordinates": [320428.0625, 4698782.5]}}, {"type": "Feature", "properties": {"node_id": 503, "degree": 1, "node_type": "endpoint", "node_kind": null}, "geometry": {"type": "Point", "coordinates": [320711.09375, 4699178.5]}}, {"type": "Feature", "properties": {"node_id": 504, "degree": 1, "node_type": "endpoint", "node_kind": null}, "geometry": {"type": "Point", "coordinates": [320993.09375, 4699103.5]}}, {"type": "Feature", "properties": {"node_id": 505, "degree": 1, "node_type": "endpoint", "node_kind": null}, "geometry": {"type": "Point", "coordinates": [320619.75, 4698281.5]}}, {"type": "Feature", "properties": {"node_id": 506, "degree": 1, "node_type": "endpoint", "node_kind": null}, "geometry": {"type": "Point", "coordinates": [320607.3125, 4698237.5]}}, {"type": "Feature", "properties": {"node_id": 507, "degree": 2, "node_type": "endpoint", "node_kind": null}, "geometry": {"type": "Point", "coordinates": [320583.90625, 4698465.5]}}, {"type": "Feature", "properties": {"node_id": 508, "degree": 1, "node_type": "endpoint", "node_kind": null}, "geometry": {"type": "Point", "coordinates": [320619.4375, 4698236.0]}}, {"type": "Feature", "properties": {"node_id": 509, "degree": 1, "node_type": "endpoint", "node_kind": null}, "geometry": {"type": "Point", "coordinates": [320632.0625, 4698304.0]}}, {"type": "Feature", "properties": {"node_id": 510, "degree": 1, "node_type": "endpoint", "node_kind": null}, "geometry": {"type": "Point", "coordinates": [320617.8125, 4698236.5]}}, {"type": "Feature", "properties": {"node_id": 511, "degree": 1, "node_type": "endpoint", "node_kind": null}, "geometry": {"type": "Point", "coordinates": [320623.9375, 4698389.0]}}, {"type": "Feature", "properties": {"node_id": 512, "degree": 2, "node_type": "endpoint", "node_kind": null}, "geometry": {"type": "Point", "coordinates": [320585.6875, 4698466.5]}}, {"type": "Feature", "properties": {"node_id": 513, "degree": 2, "node_type": "endpoint", "node_kind": null}, "geometry": {"type": "Point", "coordinates": [320572.5, 4698489.0]}}, {"type": "Feature", "properties": {"node_id": 514, "degree": 1, "node_type": "endpoint", "node_kind": null}, "geometry": {"type": "Point", "coordinates": [320538.90625, 4698547.0]}}, {"type": "Feature", "properties": {"node_id": 515, "degree": 1, "node_type": "endpoint", "node_kind": null}, "geometry": {"type": "Point", "coordinates": [320468.25, 4698045.0]}}, {"type": "Feature", "properties": {"node_id": 516, "degree": 1, "node_type": "endpoint", "node_kind": null}, "geometry": {"type": "Point", "coordinates": [320578.34375, 4698175.0]}}, {"type": "Feature", "properties": {"node_id": 517, "degree": 1, "node_type": "endpoint", "node_kind": null}, "geometry": {"type": "Point", "coordinates": [320809.0625, 4699173.5]}}, {"type": "Feature", "properties": {"node_id": 518, "degree": 1, "node_type": "endpoint", "node_kind": null}, "geometry": {"type": "Point", "coordinates": [320710.5, 4699180.5]}}, {"type": "Feature", "properties": {"node_id": 519, "degree": 1, "node_type": "endpoint", "node_kind": null}, "geometry": {"type": "Point", "coordinates": [320903.40625, 4699139.0]}}, {"type": "Feature", "properties": {"node_id": 520, "degree": 1, "node_type": "endpoint", "node_kind": null}, "geometry": {"type": "Point", "coordinates": [320925.0, 4699130.0]}}, {"type": "Feature", "properties": {"node_id": 521, "degree": 1, "node_type": "endpoint", "node_kind": null}, "geometry": {"type": "Point", "coordinates": [321941.25, 4706459.5]}}, {"type": "Feature", "properties": {"node_id": 522, "degree": 1, "node_type": "endpoint", "node_kind": null}, "geometry": {"type": "Point", "coordinates": [321865.1875, 4706484.5]}}, {"type": "Feature", "properties": {"node_id": 523, "degree": 1, "node_type": "endpoint", "node_kind": null}, "geometry": {"type": "Point", "coordinates": [313683.3125, 4703595.0]}}, {"type": "Feature", "properties": {"node_id": 524, "degree": 1, "node_type": "endpoint", "node_kind": null}, "geometry": {"type": "Point", "coordinates": [313615.0625, 4703572.5]}}, {"type": "Feature", "properties": {"node_id": 525, "degree": 2, "node_type": "intersection", "node_kind": "midpoint"}, "geometry": {"type": "Point", "coordinates": [312757.203125, 4696626.25]}}, {"type": "Feature", "properties": {"node_id": 526, "degree": 2, "node_type": "intersection", "node_kind": "midpoint"}, "geometry": {"type": "Point", "coordinates": [317018.390625, 4701764.75]}}, {"type": "Feature", "properties": {"node_id": 527, "degree": 2, "node_type": "intersection", "node_kind": "midpoint"}, "geometry": {"type": "Point", "coordinates": [314789.390625, 4705250.25]}}, {"type": "Feature", "properties": {"node_id": 528, "degree": 2, "node_type": "intersection", "node_kind": "midpoint"}, "geometry": {"type": "Point", "coordinates": [316168.875, 4702879.75]}}, {"type": "Feature", "properties": {"node_id": 529, "degree": 2, "node_type": "intersection", "node_kind": "midpoint"}, "geometry": {"type": "Point", "coordinates": [317927.09375, 4703238.5]}}, {"type": "Feature", "properties": {"node_id": 530, "degree": 2, "node_type": "intersection", "node_kind": "midpoint"}, "geometry": {"type": "Point", "coordinates": [316172.390625, 4702878.25]}}, {"type": "Feature", "properties": {"node_id": 531, "degree": 2, "node_type": "intersection", "node_kind": "midpoint"}, "geometry": {"type": "Point", "coordinates": [320577.453125, 4698476.5]}}, {"type": "Feature", "properties": {"node_id": 532, "degree": 2, "node_type": "intersection", "node_kind": "midpoint"}, "geometry": {"type": "Point", "coordinates": [320579.09375, 4698477.75]}}, {"type": "Feature", "properties": {"node_id": 533, "degree": 2, "node_type": "intersection", "node_kind": "midpoint"}, "geometry": {"type": "Point", "coordinates": [314455.28125, 4701946.25]}}, {"type": "Feature", "properties": {"node_id": 534, "degree": 2, "node_type": "intersection", "node_kind": "midpoint"}, "geometry": {"type": "Point", "coordinates": [316967.03125, 4701784.5]}}, {"type": "Feature", "properties": {"node_id": 535, "degree": 2, "node_type": "intersection", "node_kind": "midpoint"}, "geometry": {"type": "Point", "coordinates": [314451.15625, 4701949.0]}}, {"type": "Feature", "properties": {"node_id": 536, "degree": 2, "node_type": "intersection", "node_kind": "midpoint"}, "geometry": {"type": "Point", "coordinates": [316178.390625, 4702880.5]}}, {"type": "Feature", "properties": {"node_id": 537, "degree": 2, "node_type": "intersection", "node_kind": "midpoint"}, "geometry": {"type": "Point", "coordinates": [320405.625, 4698882.5]}}, {"type": "Feature", "properties": {"node_id": 538, "degree": 2, "node_type": "intersection", "node_kind": "midpoint"}, "geometry": {"type": "Point", "coordinates": [316397.484375, 4698642.75]}}, {"type": "Feature", "properties": {"node_id": 539, "degree": 2, "node_type": "intersection", "node_kind": "midpoint"}, "geometry": {"type": "Point", "coordinates": [316037.1875, 4702064.5]}}, {"type": "Feature", "properties": {"node_id": 540, "degree": 2, "node_type": "intersection", "node_kind": "midpoint"}, "geometry": {"type": "Point", "coordinates": [320409.15625, 4698876.25]}}]}