{"type": "FeatureCollection", "crs": {"type": "name", "properties": {"name": "urn:ogc:def:crs:EPSG::32619"}}, "features": [{"type": "Feature", "properties": {"id": 0, "gap_m": 0.3, "facing": 2.0, "along": 6.2, "lat_m": 0.03, "line_a": 5905, "line_b": 5906, "type_a": "BikeOnly", "type_b": "BikeOnly", "crossing": 1}, "geometry": {"type": "LineString", "coordinates": [[335151.3125, 4697977.0], [335151.0, 4697977.0]]}}, {"type": "Feature", "properties": {"id": 1, "gap_m": 1.3, "facing": 0.2, "along": 7.8, "lat_m": 0.18, "line_a": 3485, "line_b": 3486, "type_a": "BikeOnly", "type_b": "BikeOnly", "crossing": 1}, "geometry": {"type": "LineString", "coordinates": [[326114.09375, 4665774.0], [326112.90625, 4665773.5]]}}, {"type": "Feature", "properties": {"id": 2, "gap_m": 3.5, "facing": 0.1, "along": 0.1, "lat_m": 0.01, "line_a": 1921, "line_b": 1926, "type_a": "BikeOnly", "type_b": "BikeOnly", "crossing": 1}, "geometry": {"type": "LineString", "coordinates": [[321711.15625, 4692434.0], [321714.59375, 4692433.5]]}}, {"type": "Feature", "properties": {"id": 3, "gap_m": 4.0, "facing": 0.4, "along": 4.9, "lat_m": 0.34, "line_a": 1213, "line_b": 1217, "type_a": "BikeOnly", "type_b": "BikeOnly", "crossing": 1}, "geometry": {"type": "LineString", "coordinates": [[317205.75, 4684944.0], [317209.65625, 4684945.0]]}}, {"type": "Feature", "properties": {"id": 4, "gap_m": 4.1, "facing": 1.1, "along": 4.4, "lat_m": 0.31, "line_a": 3020, "line_b": 3021, "type_a": "BikeOnly", "type_b": "BikeOnly", "crossing": 1}, "geometry": {"type": "LineString", "coordinates": [[325387.34375, 4692371.0], [325391.40625, 4692371.0]]}}, {"type": "Feature", "properties": {"id": 5, "gap_m": 4.4, "facing": 1.4, "along": 0.8, "lat_m": 0.06, "line_a": 4597, "line_b": 4605, "type_a": "BikeOnly", "type_b": "BikeOnly", "crossing": 1}, "geometry": {"type": "LineString", "coordinates": [[328851.3125, 4692020.5], [328855.65625, 4692020.0]]}}, {"type": "Feature", "properties": {"id": 6, "gap_m": 4.6, "facing": 1.6, "along": 1.4, "lat_m": 0.11, "line_a": 943, "line_b": 944, "type_a": "Sharrow", "type_b": "Sharrow", "crossing": 1}, "geometry": {"type": "LineString", "coordinates": [[316032.90625, 4704742.5], [316035.90625, 4704739.0]]}}, {"type": "Feature", "properties": {"id": 7, "gap_m": 5.0, "facing": 4.3, "along": 11.1, "lat_m": 0.95, "line_a": 3126, "line_b": 3134, "type_a": "BikeOnly", "type_b": "BikeOnly", "crossing": 1}, "geometry": {"type": "LineString", "coordinates": [[325302.3125, 4686072.5], [325304.40625, 4686068.0]]}}, {"type": "Feature", "properties": {"id": 8, "gap_m": 5.0, "facing": 2.6, "along": 2.8, "lat_m": 0.25, "line_a": 3516, "line_b": 3524, "type_a": "BikeOnly", "type_b": "BikeOnly", "crossing": 1}, "geometry": {"type": "LineString", "coordinates": [[326355.4375, 4698082.0], [326355.59375, 4698087.0]]}}, {"type": "Feature", "properties": {"id": 9, "gap_m": 5.0, "facing": 0.1, "along": 1.3, "lat_m": 0.11, "line_a": 2700, "line_b": 2706, "type_a": "BikeOnly", "type_b": "BikeOnly", "crossing": 1}, "geometry": {"type": "LineString", "coordinates": [[324812.09375, 4698208.5], [324808.5, 4698212.0]]}}, {"type": "Feature", "properties": {"id": 10, "gap_m": 5.5, "facing": 4.8, "along": 0.5, "lat_m": 0.05, "line_a": 321, "line_b": 323, "type_a": "Sharrow", "type_b": "Sharrow", "crossing": 1}, "geometry": {"type": "LineString", "coordinates": [[305191.0625, 4682810.5], [305190.59375, 4682816.0]]}}, {"type": "Feature", "properties": {"id": 11, "gap_m": 5.7, "facing": 0.1, "along": 1.5, "lat_m": 0.15, "line_a": 6499, "line_b": 6502, "type_a": "BikeOnly", "type_b": "BikeOnly", "crossing": 1}, "geometry": {"type": "LineString", "coordinates": [[342324.15625, 4707729.5], [342319.65625, 4707726.0]]}}, {"type": "Feature", "properties": {"id": 12, "gap_m": 6.3, "facing": 1.3, "along": 2.1, "lat_m": 0.23, "line_a": 1149, "line_b": 1150, "type_a": "Sharrow", "type_b": "Sharrow", "crossing": 1}, "geometry": {"type": "LineString", "coordinates": [[316411.1875, 4659149.5], [316417.5, 4659149.5]]}}, {"type": "Feature", "properties": {"id": 13, "gap_m": 7.4, "facing": 0.2, "along": 0.5, "lat_m": 0.06, "line_a": 6015, "line_b": 6060, "type_a": "Sharrow", "type_b": "Sharrow", "crossing": 1}, "geometry": {"type": "LineString", "coordinates": [[336420.15625, 4694110.0], [336412.8125, 4694111.0]]}}, {"type": "Feature", "properties": {"id": 14, "gap_m": 8.8, "facing": 0.0, "along": 1.8, "lat_m": 0.28, "line_a": 5923, "line_b": 5927, "type_a": "BikeOnly", "type_b": "BikeOnly", "crossing": 1}, "geometry": {"type": "LineString", "coordinates": [[335001.0, 4679553.5], [334992.75, 4679556.5]]}}, {"type": "Feature", "properties": {"id": 15, "gap_m": 8.9, "facing": 0.7, "along": 2.2, "lat_m": 0.35, "line_a": 1122, "line_b": 1126, "type_a": "BikeOnly", "type_b": "BikeOnly", "crossing": 1}, "geometry": {"type": "LineString", "coordinates": [[316412.6875, 4685666.0], [316420.34375, 4685670.5]]}}, {"type": "Feature", "properties": {"id": 16, "gap_m": 9.8, "facing": 1.1, "along": 0.9, "lat_m": 0.16, "line_a": 3696, "line_b": 3700, "type_a": "BikeOnly", "type_b": "BikeOnly", "crossing": 1}, "geometry": {"type": "LineString", "coordinates": [[326640.4375, 4665434.5], [326649.59375, 4665431.0]]}}, {"type": "Feature", "properties": {"id": 17, "gap_m": 11.1, "facing": 0.1, "along": 0.3, "lat_m": 0.07, "line_a": 4855, "line_b": 4859, "type_a": "BikeOnly", "type_b": "BikeOnly", "crossing": 1}, "geometry": {"type": "LineString", "coordinates": [[329380.65625, 4691159.0], [329384.25, 4691148.5]]}}, {"type": "Feature", "properties": {"id": 18, "gap_m": 11.8, "facing": 0.4, "along": 0.9, "lat_m": 0.18, "line_a": 2756, "line_b": 2759, "type_a": "BikeOnly", "type_b": "BikeOnly", "crossing": 1}, "geometry": {"type": "LineString", "coordinates": [[324509.40625, 4691521.0], [324520.0625, 4691526.0]]}}, {"type": "Feature", "properties": {"id": 19, "gap_m": 12.6, "facing": 0.8, "along": 1.8, "lat_m": 0.4, "line_a": 2330, "line_b": 2335, "type_a": "BikeOnly", "type_b": "BikeOnly", "crossing": 1}, "geometry": {"type": "LineString", "coordinates": [[323345.84375, 4693680.0], [323358.3125, 4693682.0]]}}, {"type": "Feature", "properties": {"id": 20, "gap_m": 13.0, "facing": 7.6, "along": 0.4, "lat_m": 0.08, "line_a": 3513, "line_b": 3515, "type_a": "BikeOnly", "type_b": "BikeOnly", "crossing": 1}, "geometry": {"type": "LineString", "coordinates": [[326341.0625, 4698092.0], [326340.59375, 4698079.0]]}}, {"type": "Feature", "properties": {"id": 21, "gap_m": 13.3, "facing": 3.5, "along": 0.7, "lat_m": 0.16, "line_a": 5096, "line_b": 5098, "type_a": "BikeOnly", "type_b": "BikeOnly", "crossing": 1}, "geometry": {"type": "LineString", "coordinates": [[329708.6875, 4688107.0], [329701.9375, 4688118.5]]}}, {"type": "Feature", "properties": {"id": 22, "gap_m": 17.2, "facing": 0.1, "along": 0.2, "lat_m": 0.05, "line_a": 2116, "line_b": 2117, "type_a": "Sharrow", "type_b": "Sharrow", "crossing": 1}, "geometry": {"type": "LineString", "coordinates": [[322413.3125, 4669382.0], [322402.65625, 4669395.5]]}}, {"type": "Feature", "properties": {"id": 23, "gap_m": 17.6, "facing": 5.5, "along": 2.6, "lat_m": 0.79, "line_a": 2463, "line_b": 2464, "type_a": "Sharrow", "type_b": "Sharrow", "crossing": 1}, "geometry": {"type": "LineString", "coordinates": [[324134.40625, 4702157.0], [324126.15625, 4702141.5]]}}, {"type": "Feature", "properties": {"id": 24, "gap_m": 18.9, "facing": 1.6, "along": 3.0, "lat_m": 0.99, "line_a": 1124, "line_b": 1125, "type_a": "BikeOnly", "type_b": "BikeOnly", "crossing": 1}, "geometry": {"type": "LineString", "coordinates": [[316823.5625, 4685882.0], [316807.1875, 4685872.5]]}}, {"type": "Feature", "properties": {"id": 25, "gap_m": 19.9, "facing": 2.8, "along": 2.0, "lat_m": 0.69, "line_a": 1575, "line_b": 1580, "type_a": "Sharrow", "type_b": "Sharrow", "crossing": 1}, "geometry": {"type": "LineString", "coordinates": [[319877.40625, 4716648.0], [319867.0625, 4716665.0]]}}, {"type": "Feature", "properties": {"id": 26, "gap_m": 20.3, "facing": 0.4, "along": 0.7, "lat_m": 0.25, "line_a": 3445, "line_b": 3447, "type_a": "BikeOnly", "type_b": "BikeOnly", "crossing": 1}, "geometry": {"type": "LineString", "coordinates": [[325643.25, 4682742.0], [325629.59375, 4682757.0]]}}, {"type": "Feature", "properties": {"id": 27, "gap_m": 21.2, "facing": 0.1, "along": 1.2, "lat_m": 0.46, "line_a": 2305, "line_b": 2310, "type_a": "BikeOnly", "type_b": "BikeOnly", "crossing": 1}, "geometry": {"type": "LineString", "coordinates": [[323520.59375, 4695819.0], [323499.4375, 4695820.0]]}}, {"type": "Feature", "properties": {"id": 28, "gap_m": 21.3, "facing": 0.6, "along": 2.1, "lat_m": 0.76, "line_a": 754, "line_b": 756, "type_a": "Sharrow", "type_b": "Sharrow", "crossing": 1}, "geometry": {"type": "LineString", "coordinates": [[314782.1875, 4705258.0], [314796.75, 4705242.5]]}}, {"type": "Feature", "properties": {"id": 29, "gap_m": 21.6, "facing": 0.1, "along": 0.8, "lat_m": 0.31, "line_a": 1087, "line_b": 1091, "type_a": "Sharrow", "type_b": "Sharrow", "crossing": 1}, "geometry": {"type": "LineString", "coordinates": [[316559.09375, 4691881.5], [316552.34375, 4691861.0]]}}, {"type": "Feature", "properties": {"id": 30, "gap_m": 21.6, "facing": 2.3, "along": 1.8, "lat_m": 0.69, "line_a": 2534, "line_b": 2540, "type_a": "BikeOnly", "type_b": "BikeOnly", "crossing": 1}, "geometry": {"type": "LineString", "coordinates": [[323914.1875, 4691641.5], [323920.9375, 4691662.0]]}}, {"type": "Feature", "properties": {"id": 31, "gap_m": 22.0, "facing": 0.0, "along": 0.6, "lat_m": 0.24, "line_a": 3904, "line_b": 3909, "type_a": "BikeOnly", "type_b": "BikeOnly", "crossing": 1}, "geometry": {"type": "LineString", "coordinates": [[327292.8125, 4680353.5], [327292.5, 4680331.5]]}}, {"type": "Feature", "properties": {"id": 32, "gap_m": 22.0, "facing": 0.1, "along": 0.2, "lat_m": 0.08, "line_a": 3907, "line_b": 3912, "type_a": "BikeOnly", "type_b": "BikeOnly", "crossing": 1}, "geometry": {"type": "LineString", "coordinates": [[327294.3125, 4680331.5], [327294.75, 4680353.5]]}}, {"type": "Feature", "properties": {"id": 33, "gap_m": 22.3, "facing": 1.1, "along": 0.9, "lat_m": 0.35, "line_a": 1465, "line_b": 1468, "type_a": "Sharrow", "type_b": "BikeOnly", "crossing": 1}, "geometry": {"type": "LineString", "coordinates": [[318846.90625, 4688803.0], [318824.84375, 4688806.0]]}}, {"type": "Feature", "properties": {"id": 34, "gap_m": 22.9, "facing": 0.4, "along": 0.8, "lat_m": 0.34, "line_a": 4875, "line_b": 4881, "type_a": "BikeOnly", "type_b": "BikeOnly", "crossing": 1}, "geometry": {"type": "LineString", "coordinates": [[329283.4375, 4690503.5], [329267.09375, 4690487.5]]}}, {"type": "Feature", "properties": {"id": 35, "gap_m": 23.2, "facing": 0.4, "along": 0.0, "lat_m": 0.01, "line_a": 4859, "line_b": 4869, "type_a": "BikeOnly", "type_b": "BikeOnly", "crossing": 1}, "geometry": {"type": "LineString", "coordinates": [[329394.75, 4691117.0], [329402.09375, 4691095.0]]}}, {"type": "Feature", "properties": {"id": 36, "gap_m": 23.2, "facing": 0.6, "along": 1.2, "lat_m": 0.47, "line_a": 4314, "line_b": 4325, "type_a": "BikeOnly", "type_b": "BikeOnly", "crossing": 1}, "geometry": {"type": "LineString", "coordinates": [[328080.15625, 4691870.5], [328089.0, 4691849.0]]}}, {"type": "Feature", "properties": {"id": 37, "gap_m": 24.1, "facing": 1.1, "along": 1.5, "lat_m": 0.64, "line_a": 3596, "line_b": 3603, "type_a": "BikeOnly", "type_b": "BikeOnly", "crossing": 1}, "geometry": {"type": "LineString", "coordinates": [[326475.15625, 4690378.5], [326452.0625, 4690371.5]]}}, {"type": "Feature", "properties": {"id": 38, "gap_m": 24.6, "facing": 1.8, "along": 0.5, "lat_m": 0.23, "line_a": 2440, "line_b": 2595, "type_a": "BikeOnly", "type_b": "BikeOnly", "crossing": 1}, "geometry": {"type": "LineString", "coordinates": [[323766.75, 4683776.0], [323791.34375, 4683777.0]]}}, {"type": "Feature", "properties": {"id": 39, "gap_m": 24.6, "facing": 0.2, "along": 0.9, "lat_m": 0.37, "line_a": 5873, "line_b": 5874, "type_a": "Sharrow", "type_b": "Sharrow", "crossing": 1}, "geometry": {"type": "LineString", "coordinates": [[334518.15625, 4694541.5], [334495.65625, 4694531.5]]}}, {"type": "Feature", "properties": {"id": 40, "gap_m": 25.0, "facing": 3.6, "along": 1.6, "lat_m": 0.7, "line_a": 4811, "line_b": 4820, "type_a": "BikeOnly", "type_b": "BikeOnly", "crossing": 1}, "geometry": {"type": "LineString", "coordinates": [[329089.5, 4693164.5], [329070.75, 4693181.0]]}}]}