{"type": "FeatureCollection", "features": [{"type": "Feature", "properties": {"link_id": 0, "link_type": "sidewalk", "length_m": 48.28, "avg_width_m": 2.43, "min_width_m": 1.28, "from_node": 0, "to_node": 1}, "geometry": {"type": "LineString", "coordinates": [[-77.0468145, 38.9190332], [-77.0467564, 38.9190654], [-77.0467075, 38.9190713], [-77.0465886, 38.9191131], [-77.0465382, 38.9191179], [-77.046497, 38.9191376], [-77.0464464, 38.9191448], [-77.0464175, 38.9191629], [-77.046358, 38.9191729], [-77.0463054, 38.9191905]]}}, {"type": "Feature", "properties": {"link_id": 1, "link_type": "sidewalk", "length_m": 29.1, "avg_width_m": 2.37, "min_width_m": 1.07, "from_node": 2, "to_node": 3}, "geometry": {"type": "LineString", "coordinates": [[-77.046716, 38.9178275], [-77.0466995, 38.9178399], [-77.0466572, 38.9178498], [-77.0465924, 38.9178767], [-77.0464413, 38.9179171], [-77.0464107, 38.9179311]]}}, {"type": "Feature", "properties": {"link_id": 2, "link_type": "midblock", "length_m": 5.09, "avg_width_m": null, "min_width_m": null, "from_node": 3, "to_node": 4}, "geometry": {"type": "LineString", "coordinates": [[-77.0464107, 38.9179311], [-77.0464004, 38.9179357], [-77.0463554, 38.9179459]]}}, {"type": "Feature", "properties": {"link_id": 3, "link_type": "sidewalk", "length_m": 6.39, "avg_width_m": 1.94, "min_width_m": 1.37, "from_node": 4, "to_node": 5}, "geometry": {"type": "LineString", "coordinates": [[-77.0463554, 38.9179459], [-77.0463325, 38.9179511], [-77.0462872, 38.9179674]]}}, {"type": "Feature", "properties": {"link_id": 4, "link_type": "midblock", "length_m": 4.4, "avg_width_m": null, "min_width_m": null, "from_node": 5, "to_node": 6}, "geometry": {"type": "LineString", "coordinates": [[-77.0462872, 38.9179674], [-77.0462411, 38.9179839]]}}, {"type": "Feature", "properties": {"link_id": 5, "link_type": "sidewalk", "length_m": 21.87, "avg_width_m": 2.91, "min_width_m": 2.02, "from_node": 6, "to_node": 7}, "geometry": {"type": "LineString", "coordinates": [[-77.0462411, 38.9179839], [-77.0462336, 38.9179866], [-77.0461682, 38.9179973], [-77.0461229, 38.9180178], [-77.0460303, 38.9180381], [-77.0460057, 38.9180494]]}}, {"type": "Feature", "properties": {"link_id": 6, "link_type": "midblock", "length_m": 5.98, "avg_width_m": null, "min_width_m": null, "from_node": 7, "to_node": 8}, "geometry": {"type": "LineString", "coordinates": [[-77.0460057, 38.9180494], [-77.0459493, 38.9180751], [-77.0459459, 38.9180761]]}}, {"type": "Feature", "properties": {"link_id": 7, "link_type": "sidewalk", "length_m": 18.01, "avg_width_m": 2.97, "min_width_m": 2.02, "from_node": 8, "to_node": 9}, "geometry": {"type": "LineString", "coordinates": [[-77.0459459, 38.9180761], [-77.0458029, 38.9181206], [-77.0457503, 38.9181292]]}}, {"type": "Feature", "properties": {"link_id": 8, "link_type": "sidewalk", "length_m": 5.88, "avg_width_m": 3.52, "min_width_m": 3.39, "from_node": 2, "to_node": 10}, "geometry": {"type": "LineString", "coordinates": [[-77.046716, 38.9178275], [-77.0467449, 38.9178213], [-77.0467713, 38.9178001]]}}, {"type": "Feature", "properties": {"link_id": 9, "link_type": "sidewalk", "length_m": 10.21, "avg_width_m": 1.23, "min_width_m": 0.48, "from_node": 2, "to_node": 11}, "geometry": {"type": "LineString", "coordinates": [[-77.046716, 38.9178275], [-77.0467023, 38.9178059], [-77.0467088, 38.9177692], [-77.0466928, 38.9177411]]}}, {"type": "Feature", "properties": {"link_id": 10, "link_type": "pseudo", "length_m": 0.08, "avg_width_m": null, "min_width_m": null, "from_node": 12, "to_node": 13}, "geometry": {"type": "LineString", "coordinates": [[-77.0462953, 38.9192042], [-77.0462962, 38.9192042]]}}, {"type": "Feature", "properties": {"link_id": 11, "link_type": "pseudo", "length_m": 1.71, "avg_width_m": null, "min_width_m": null, "from_node": 12, "to_node": 14}, "geometry": {"type": "LineString", "coordinates": [[-77.0462953, 38.9192042], [-77.0462759, 38.9192071]]}}, {"type": "Feature", "properties": {"link_id": 12, "link_type": "crosswalk", "length_m": 10.1, "avg_width_m": 4.36, "min_width_m": 1.95, "from_node": 14, "to_node": 15}, "geometry": {"type": "LineString", "coordinates": [[-77.0462759, 38.9192071], [-77.0461671, 38.9192395]]}}, {"type": "Feature", "properties": {"link_id": 13, "link_type": "pseudo", "length_m": 1.36, "avg_width_m": null, "min_width_m": null, "from_node": 15, "to_node": 16}, "geometry": {"type": "LineString", "coordinates": [[-77.0461671, 38.9192395], [-77.046156, 38.9192482]]}}, {"type": "Feature", "properties": {"link_id": 14, "link_type": "pseudo", "length_m": 0.11, "avg_width_m": null, "min_width_m": null, "from_node": 12, "to_node": 17}, "geometry": {"type": "LineString", "coordinates": [[-77.0462953, 38.9192042], [-77.0462962, 38.9192034]]}}, {"type": "Feature", "properties": {"link_id": 15, "link_type": "sidewalk", "length_m": 0.08, "avg_width_m": 3.04, "min_width_m": 3.01, "from_node": 18, "to_node": 19}, "geometry": {"type": "LineString", "coordinates": [[-77.0462269, 38.919081], [-77.0462269, 38.9190817]]}}, {"type": "Feature", "properties": {"link_id": 16, "link_type": "sidewalk", "length_m": 0.11, "avg_width_m": 2.98, "min_width_m": 2.86, "from_node": 18, "to_node": 20}, "geometry": {"type": "LineString", "coordinates": [[-77.0462269, 38.919081], [-77.046226, 38.9190817]]}}, {"type": "Feature", "properties": {"link_id": 17, "link_type": "sidewalk", "length_m": 54.8, "avg_width_m": 2.48, "min_width_m": 1.01, "from_node": 18, "to_node": 21}, "geometry": {"type": "LineString", "coordinates": [[-77.0462269, 38.919081], [-77.0462103, 38.9190393], [-77.0461884, 38.9190096], [-77.0461688, 38.9189707], [-77.0461599, 38.9189314], [-77.0461356, 38.9189022], [-77.0461153, 38.9188492], [-77.0460969, 38.9188257], [-77.046083, 38.9187985], [-77.0460721, 38.9187634], [-77.0460514, 38.9187391], [-77.0460406, 38.91872], [-77.0460249, 38.9186705], [-77.0460028, 38.9186428], [-77.0459942, 38.9186269]]}}, {"type": "Feature", "properties": {"link_id": 18, "link_type": "midblock", "length_m": 5.64, "avg_width_m": null, "min_width_m": null, "from_node": 21, "to_node": 22}, "geometry": {"type": "LineString", "coordinates": [[-77.0459942, 38.9186269], [-77.045969, 38.9185801]]}}, {"type": "Feature", "properties": {"link_id": 19, "link_type": "sidewalk", "length_m": 97.98, "avg_width_m": 2.95, "min_width_m": 1.48, "from_node": 22, "to_node": 23}, "geometry": {"type": "LineString", "coordinates": [[-77.045969, 38.9185801], [-77.0459601, 38.9185636], [-77.0459531, 38.9185456], [-77.0459469, 38.9185105], [-77.0459201, 38.9184771], [-77.0459083, 38.9184548], [-77.0458989, 38.918425], [-77.0458814, 38.918404], [-77.045872, 38.9183878], [-77.0458612, 38.9183529], [-77.045841, 38.9183251], [-77.0458271, 38.9182999], [-77.0458128, 38.9182653], [-77.045811, 38.9182524], [-77.0458128, 38.9182437], [-77.045824, 38.9182342], [-77.0458574, 38.9182221], [-77.0459117, 38.9182126], [-77.045957, 38.9181919], [-77.0460178, 38.9181811], [-77.0460797, 38.9181546], [-77.0461442, 38.9181416], [-77.0462069, 38.9181227], [-77.0462899, 38.9180913], [-77.0463287, 38.9180822], [-77.0463748, 38.9180632], [-77.0464233, 38.9180479]]}}, {"type": "Feature", "properties": {"link_id": 20, "link_type": "midblock", "length_m": 6.53, "avg_width_m": null, "min_width_m": null, "from_node": 23, "to_node": 24}, "geometry": {"type": "LineString", "coordinates": [[-77.0464233, 38.9180479], [-77.0464931, 38.9180259]]}}, {"type": "Feature", "properties": {"link_id": 21, "link_type": "sidewalk", "length_m": 7.41, "avg_width_m": 2.82, "min_width_m": 2.33, "from_node": 24, "to_node": 25}, "geometry": {"type": "LineString", "coordinates": [[-77.0464931, 38.9180259], [-77.0465076, 38.9180213], [-77.0465553, 38.9180106], [-77.046573, 38.9180031]]}}, {"type": "Feature", "properties": {"link_id": 22, "link_type": "midblock", "length_m": 5.4, "avg_width_m": null, "min_width_m": null, "from_node": 25, "to_node": 26}, "geometry": {"type": "LineString", "coordinates": [[-77.046573, 38.9180031], [-77.046598, 38.9179925], [-77.0466303, 38.9179845]]}}, {"type": "Feature", "properties": {"link_id": 23, "link_type": "sidewalk", "length_m": 13.65, "avg_width_m": 2.86, "min_width_m": 2.08, "from_node": 26, "to_node": 27}, "geometry": {"type": "LineString", "coordinates": [[-77.0466303, 38.9179845], [-77.0466792, 38.9179723], [-77.0467262, 38.9179543], [-77.0467788, 38.9179457]]}}, {"type": "Feature", "properties": {"link_id": 24, "link_type": "pseudo", "length_m": 0.11, "avg_width_m": null, "min_width_m": null, "from_node": 28, "to_node": 29}, "geometry": {"type": "LineString", "coordinates": [[-77.0461422, 38.919246], [-77.0461431, 38.9192468]]}}, {"type": "Feature", "properties": {"link_id": 25, "link_type": "pseudo", "length_m": 0.08, "avg_width_m": null, "min_width_m": null, "from_node": 28, "to_node": 30}, "geometry": {"type": "LineString", "coordinates": [[-77.0461422, 38.919246], [-77.0461422, 38.9192468]]}}, {"type": "Feature", "properties": {"link_id": 26, "link_type": "pseudo", "length_m": 1.75, "avg_width_m": null, "min_width_m": null, "from_node": 28, "to_node": 31}, "geometry": {"type": "LineString", "coordinates": [[-77.0461422, 38.919246], [-77.0461366, 38.9192309]]}}, {"type": "Feature", "properties": {"link_id": 27, "link_type": "crosswalk", "length_m": 9.86, "avg_width_m": 4.28, "min_width_m": 2.99, "from_node": 31, "to_node": 32}, "geometry": {"type": "LineString", "coordinates": [[-77.0461366, 38.9192309], [-77.0460932, 38.9191488]]}}, {"type": "Feature", "properties": {"link_id": 28, "link_type": "pseudo", "length_m": 1.38, "avg_width_m": null, "min_width_m": null, "from_node": 32, "to_node": 33}, "geometry": {"type": "LineString", "coordinates": [[-77.0460932, 38.9191488], [-77.0460775, 38.9191509]]}}, {"type": "Feature", "properties": {"link_id": 29, "link_type": "sidewalk", "length_m": 2.48, "avg_width_m": 2.4, "min_width_m": 2.22, "from_node": 34, "to_node": 35}, "geometry": {"type": "LineString", "coordinates": [[-77.0450325, 38.9194454], [-77.0450593, 38.9194533]]}}, {"type": "Feature", "properties": {"link_id": 30, "link_type": "sidewalk", "length_m": 0.11, "avg_width_m": 3.14, "min_width_m": 3.07, "from_node": 34, "to_node": 36}, "geometry": {"type": "LineString", "coordinates": [[-77.0450325, 38.9194454], [-77.0450316, 38.9194461]]}}, {"type": "Feature", "properties": {"link_id": 31, "link_type": "pseudo", "length_m": 1.44, "avg_width_m": null, "min_width_m": null, "from_node": 36, "to_node": 37}, "geometry": {"type": "LineString", "coordinates": [[-77.0450316, 38.9194461], [-77.0450178, 38.9194533]]}}, {"type": "Feature", "properties": {"link_id": 32, "link_type": "crosswalk", "length_m": 9.42, "avg_width_m": 4.24, "min_width_m": 2.5, "from_node": 37, "to_node": 38}, "geometry": {"type": "LineString", "coordinates": [[-77.0450178, 38.9194533], [-77.0449163, 38.9194836]]}}, {"type": "Feature", "properties": {"link_id": 33, "link_type": "pseudo", "length_m": 2.2, "avg_width_m": null, "min_width_m": null, "from_node": 38, "to_node": 39}, "geometry": {"type": "LineString", "coordinates": [[-77.0449163, 38.9194836], [-77.0449025, 38.919467]]}}, {"type": "Feature", "properties": {"link_id": 34, "link_type": "sidewalk", "length_m": 44.62, "avg_width_m": 2.93, "min_width_m": 1.29, "from_node": 34, "to_node": 40}, "geometry": {"type": "LineString", "coordinates": [[-77.0450325, 38.9194454], [-77.0450194, 38.919403], [-77.0449858, 38.919356], [-77.0449551, 38.919258], [-77.0449089, 38.9191967], [-77.0448736, 38.9191204], [-77.0448713, 38.9190981], [-77.0448856, 38.9190714]]}}, {"type": "Feature", "properties": {"link_id": 35, "link_type": "sidewalk", "length_m": 17.53, "avg_width_m": 3.03, "min_width_m": 2.0, "from_node": 41, "to_node": 42}, "geometry": {"type": "LineString", "coordinates": [[-77.0442879, 38.9177124], [-77.0443074, 38.9177386], [-77.0443217, 38.9177916], [-77.0443441, 38.9178187], [-77.0443526, 38.9178594]]}}, {"type": "Feature", "properties": {"link_id": 36, "link_type": "sidewalk", "length_m": 0.11, "avg_width_m": 3.52, "min_width_m": 3.45, "from_node": 41, "to_node": 43}, "geometry": {"type": "LineString", "coordinates": [[-77.0442879, 38.9177124], [-77.044287, 38.9177132]]}}, {"type": "Feature", "properties": {"link_id": 37, "link_type": "pseudo", "length_m": 1.61, "avg_width_m": null, "min_width_m": null, "from_node": 43, "to_node": 44}, "geometry": {"type": "LineString", "coordinates": [[-77.044287, 38.9177132], [-77.0442704, 38.9177197]]}}, {"type": "Feature", "properties": {"link_id": 38, "link_type": "crosswalk", "length_m": 9.63, "avg_width_m": 4.53, "min_width_m": 2.72, "from_node": 44, "to_node": 45}, "geometry": {"type": "LineString", "coordinates": [[-77.0442704, 38.9177197], [-77.0441615, 38.917737]]}}, {"type": "Feature", "properties": {"link_id": 39, "link_type": "pseudo", "length_m": 2.16, "avg_width_m": null, "min_width_m": null, "from_node": 45, "to_node": 46}, "geometry": {"type": "LineString", "coordinates": [[-77.0441615, 38.917737], [-77.0441366, 38.917737]]}}, {"type": "Feature", "properties": {"link_id": 40, "link_type": "sidewalk", "length_m": 4.54, "avg_width_m": 2.94, "min_width_m": 2.74, "from_node": 41, "to_node": 47}, "geometry": {"type": "LineString", "coordinates": [[-77.0442879, 38.9177124], [-77.0442796, 38.9176721]]}}, {"type": "Feature", "properties": {"link_id": 41, "link_type": "sidewalk", "length_m": 0.08, "avg_width_m": 3.1, "min_width_m": 3.09, "from_node": 1, "to_node": 48}, "geometry": {"type": "LineString", "coordinates": [[-77.0463054, 38.9191905], [-77.0463045, 38.9191905]]}}, {"type": "Feature", "properties": {"link_id": 42, "link_type": "sidewalk", "length_m": 0.11, "avg_width_m": 3.0, "min_width_m": 2.94, "from_node": 1, "to_node": 49}, "geometry": {"type": "LineString", "coordinates": [[-77.0463054, 38.9191905], [-77.0463045, 38.9191898]]}}, {"type": "Feature", "properties": {"link_id": 43, "link_type": "pseudo", "length_m": 0.11, "avg_width_m": null, "min_width_m": null, "from_node": 50, "to_node": 51}, "geometry": {"type": "LineString", "coordinates": [[-77.0446078, 38.91882], [-77.0446069, 38.9188207]]}}, {"type": "Feature", "properties": {"link_id": 44, "link_type": "pseudo", "length_m": 0.08, "avg_width_m": null, "min_width_m": null, "from_node": 50, "to_node": 52}, "geometry": {"type": "LineString", "coordinates": [[-77.0446078, 38.91882], [-77.0446069, 38.91882]]}}, {"type": "Feature", "properties": {"link_id": 45, "link_type": "pseudo", "length_m": 1.67, "avg_width_m": null, "min_width_m": null, "from_node": 50, "to_node": 53}, "geometry": {"type": "LineString", "coordinates": [[-77.0446078, 38.91882], [-77.0446262, 38.9188157]]}}, {"type": "Feature", "properties": {"link_id": 46, "link_type": "crosswalk", "length_m": 11.64, "avg_width_m": 3.81, "min_width_m": 1.93, "from_node": 53, "to_node": 54}, "geometry": {"type": "LineString", "coordinates": [[-77.0446262, 38.9188157], [-77.0447129, 38.9187356]]}}, {"type": "Feature", "properties": {"link_id": 47, "link_type": "pseudo", "length_m": 1.72, "avg_width_m": null, "min_width_m": null, "from_node": 54, "to_node": 55}, "geometry": {"type": "LineString", "coordinates": [[-77.0447129, 38.9187356], [-77.0447304, 38.9187284]]}}, {"type": "Feature", "properties": {"link_id": 48, "link_type": "sidewalk", "length_m": 9.68, "avg_width_m": 3.23, "min_width_m": 3.04, "from_node": 56, "to_node": 57}, "geometry": {"type": "LineString", "coordinates": [[-77.0440666, 38.9178768], [-77.0441782, 38.9178782]]}}, {"type": "Feature", "properties": {"link_id": 49, "link_type": "sidewalk", "length_m": 23.46, "avg_width_m": 2.9, "min_width_m": 2.22, "from_node": 58, "to_node": 59}, "geometry": {"type": "LineString", "coordinates": [[-77.0457657, 38.9176751], [-77.0457221, 38.9177436], [-77.0457106, 38.917774], [-77.0456875, 38.9177999], [-77.0456487, 38.9178647]]}}, {"type": "Feature", "properties": {"link_id": 50, "link_type": "sidewalk", "length_m": 0.08, "avg_width_m": 2.96, "min_width_m": 2.88, "from_node": 60, "to_node": 61}, "geometry": {"type": "LineString", "coordinates": [[-77.0462463, 38.919086], [-77.0462463, 38.9190867]]}}, {"type": "Feature", "properties": {"link_id": 51, "link_type": "sidewalk", "length_m": 0.08, "avg_width_m": 2.88, "min_width_m": 2.88, "from_node": 60, "to_node": 62}, "geometry": {"type": "LineString", "coordinates": [[-77.0462463, 38.919086], [-77.0462454, 38.919086]]}}, {"type": "Feature", "properties": {"link_id": 52, "link_type": "sidewalk", "length_m": 54.87, "avg_width_m": 2.62, "min_width_m": 1.38, "from_node": 60, "to_node": 63}, "geometry": {"type": "LineString", "coordinates": [[-77.0462463, 38.919086], [-77.046321, 38.9190675], [-77.0463669, 38.9190458], [-77.0464085, 38.9190401], [-77.0464521, 38.9190207], [-77.0465986, 38.918982], [-77.0467278, 38.918941], [-77.0468301, 38.9189013]]}}, {"type": "Feature", "properties": {"link_id": 53, "link_type": "sidewalk", "length_m": 23.43, "avg_width_m": 2.01, "min_width_m": 1.43, "from_node": 64, "to_node": 65}, "geometry": {"type": "LineString", "coordinates": [[-77.0446167, 38.9198592], [-77.0446248, 38.9198269], [-77.0447273, 38.9197136], [-77.044743, 38.9196761]]}}, {"type": "Feature", "properties": {"link_id": 54, "link_type": "sidewalk", "length_m": 3.11, "avg_width_m": 2.25, "min_width_m": 1.72, "from_node": 66, "to_node": 67}, "geometry": {"type": "LineString", "coordinates": [[-77.0453437, 38.9183844], [-77.0453114, 38.9183967]]}}, {"type": "Feature", "properties": {"link_id": 55, "link_type": "sidewalk", "length_m": 0.08, "avg_width_m": 3.01, "min_width_m": 2.99, "from_node": 66, "to_node": 68}, "geometry": {"type": "LineString", "coordinates": [[-77.0453437, 38.9183844], [-77.0453446, 38.9183844]]}}, {"type": "Feature", "properties": {"link_id": 56, "link_type": "sidewalk", "length_m": 0.08, "avg_width_m": 2.91, "min_width_m": 2.84, "from_node": 66, "to_node": 69}, "geometry": {"type": "LineString", "coordinates": [[-77.0453437, 38.9183844], [-77.0453437, 38.9183837]]}}, {"type": "Feature", "properties": {"link_id": 57, "link_type": "sidewalk", "length_m": 0.08, "avg_width_m": 4.81, "min_width_m": 4.75, "from_node": 70, "to_node": 71}, "geometry": {"type": "LineString", "coordinates": [[-77.0449422, 38.9196313], [-77.0449422, 38.9196321]]}}, {"type": "Feature", "properties": {"link_id": 58, "link_type": "sidewalk", "length_m": 0.08, "avg_width_m": 4.81, "min_width_m": 4.75, "from_node": 70, "to_node": 72}, "geometry": {"type": "LineString", "coordinates": [[-77.0449422, 38.9196313], [-77.0449413, 38.9196313]]}}, {"type": "Feature", "properties": {"link_id": 59, "link_type": "sidewalk", "length_m": 2.56, "avg_width_m": 3.92, "min_width_m": 3.22, "from_node": 70, "to_node": 73}, "geometry": {"type": "LineString", "coordinates": [[-77.0449422, 38.9196313], [-77.0449549, 38.9196284], [-77.0449708, 38.9196313]]}}, {"type": "Feature", "properties": {"link_id": 60, "link_type": "sidewalk", "length_m": 17.16, "avg_width_m": 1.6, "min_width_m": 1.01, "from_node": 74, "to_node": 75}, "geometry": {"type": "LineString", "coordinates": [[-77.044934, 38.9197358], [-77.0449524, 38.9197533], [-77.0450083, 38.9198489], [-77.0450309, 38.9198691]]}}, {"type": "Feature", "properties": {"link_id": 61, "link_type": "sidewalk", "length_m": 15.28, "avg_width_m": 1.86, "min_width_m": 1.28, "from_node": 74, "to_node": 76}, "geometry": {"type": "LineString", "coordinates": [[-77.044934, 38.9197358], [-77.0449118, 38.9197555], [-77.0448843, 38.9198649]]}}, {"type": "Feature", "properties": {"link_id": 62, "link_type": "sidewalk", "length_m": 11.54, "avg_width_m": 2.74, "min_width_m": 2.09, "from_node": 74, "to_node": 71}, "geometry": {"type": "LineString", "coordinates": [[-77.044934, 38.9197358], [-77.0449422, 38.9196321]]}}, {"type": "Feature", "properties": {"link_id": 63, "link_type": "sidewalk", "length_m": 0.08, "avg_width_m": 4.64, "min_width_m": 4.61, "from_node": 77, "to_node": 78}, "geometry": {"type": "LineString", "coordinates": [[-77.0442255, 38.9197311], [-77.0442255, 38.9197318]]}}, {"type": "Feature", "properties": {"link_id": 64, "link_type": "sidewalk", "length_m": 0.08, "avg_width_m": 4.59, "min_width_m": 4.52, "from_node": 77, "to_node": 79}, "geometry": {"type": "LineString", "coordinates": [[-77.0442255, 38.9197311], [-77.0442264, 38.9197311]]}}, {"type": "Feature", "properties": {"link_id": 65, "link_type": "sidewalk", "length_m": 1.07, "avg_width_m": 5.07, "min_width_m": 4.8, "from_node": 77, "to_node": 80}, "geometry": {"type": "LineString", "coordinates": [[-77.0442255, 38.9197311], [-77.04422, 38.9197224]]}}, {"type": "Feature", "properties": {"link_id": 66, "link_type": "sidewalk", "length_m": 9.17, "avg_width_m": 3.28, "min_width_m": 2.88, "from_node": 81, "to_node": 10}, "geometry": {"type": "LineString", "coordinates": [[-77.0468672, 38.9177806], [-77.0468531, 38.9177928], [-77.0468239, 38.9178019], [-77.0467963, 38.9178041], [-77.0467713, 38.9178001]]}}, {"type": "Feature", "properties": {"link_id": 67, "link_type": "sidewalk", "length_m": 3.17, "avg_width_m": 3.4, "min_width_m": 2.24, "from_node": 82, "to_node": 83}, "geometry": {"type": "LineString", "coordinates": [[-77.0455575, 38.9180752], [-77.0455317, 38.9180954]]}}, {"type": "Feature", "properties": {"link_id": 68, "link_type": "sidewalk", "length_m": 0.08, "avg_width_m": 1.29, "min_width_m": 1.22, "from_node": 82, "to_node": 84}, "geometry": {"type": "LineString", "coordinates": [[-77.0455575, 38.9180752], [-77.0455584, 38.9180752]]}}, {"type": "Feature", "properties": {"link_id": 69, "link_type": "sidewalk", "length_m": 0.08, "avg_width_m": 1.36, "min_width_m": 1.36, "from_node": 82, "to_node": 85}, "geometry": {"type": "LineString", "coordinates": [[-77.0455575, 38.9180752], [-77.0455575, 38.9180745]]}}, {"type": "Feature", "properties": {"link_id": 70, "link_type": "sidewalk", "length_m": 19.8, "avg_width_m": 2.18, "min_width_m": 0.66, "from_node": 86, "to_node": 87}, "geometry": {"type": "LineString", "coordinates": [[-77.0443713, 38.9198694], [-77.0443953, 38.919853], [-77.0444532, 38.9197486], [-77.044482, 38.9197158]]}}, {"type": "Feature", "properties": {"link_id": 71, "link_type": "pseudo", "length_m": 0.08, "avg_width_m": null, "min_width_m": null, "from_node": 49, "to_node": 48}, "geometry": {"type": "LineString", "coordinates": [[-77.0463045, 38.9191898], [-77.0463045, 38.9191905]]}}, {"type": "Feature", "properties": {"link_id": 72, "link_type": "pseudo", "length_m": 1.5, "avg_width_m": null, "min_width_m": null, "from_node": 49, "to_node": 88}, "geometry": {"type": "LineString", "coordinates": [[-77.0463045, 38.9191898], [-77.0462971, 38.9191775]]}}, {"type": "Feature", "properties": {"link_id": 73, "link_type": "crosswalk", "length_m": 9.55, "avg_width_m": 4.59, "min_width_m": 2.6, "from_node": 88, "to_node": 89}, "geometry": {"type": "LineString", "coordinates": [[-77.0462971, 38.9191775], [-77.04625, 38.9190997]]}}, {"type": "Feature", "properties": {"link_id": 74, "link_type": "pseudo", "length_m": 1.48, "avg_width_m": null, "min_width_m": null, "from_node": 89, "to_node": 61}, "geometry": {"type": "LineString", "coordinates": [[-77.04625, 38.9190997], [-77.0462463, 38.9190867]]}}, {"type": "Feature", "properties": {"link_id": 75, "link_type": "sidewalk", "length_m": 0.08, "avg_width_m": 3.81, "min_width_m": 3.8, "from_node": 90, "to_node": 91}, "geometry": {"type": "LineString", "coordinates": [[-77.0442068, 38.9178926], [-77.0442068, 38.9178934]]}}, {"type": "Feature", "properties": {"link_id": 76, "link_type": "sidewalk", "length_m": 0.08, "avg_width_m": 3.73, "min_width_m": 3.65, "from_node": 90, "to_node": 92}, "geometry": {"type": "LineString", "coordinates": [[-77.0442068, 38.9178926], [-77.0442078, 38.9178926]]}}, {"type": "Feature", "properties": {"link_id": 77, "link_type": "sidewalk", "length_m": 2.88, "avg_width_m": 3.74, "min_width_m": 3.46, "from_node": 90, "to_node": 93}, "geometry": {"type": "LineString", "coordinates": [[-77.0442068, 38.9178926], [-77.0441792, 38.9178782]]}}, {"type": "Feature", "properties": {"link_id": 78, "link_type": "sidewalk", "length_m": 0.08, "avg_width_m": 7.52, "min_width_m": 7.52, "from_node": 94, "to_node": 95}, "geometry": {"type": "LineString", "coordinates": [[-77.0448964, 38.9186484], [-77.0448964, 38.9186491]]}}, {"type": "Feature", "properties": {"link_id": 79, "link_type": "sidewalk", "length_m": 0.08, "avg_width_m": 7.44, "min_width_m": 7.36, "from_node": 94, "to_node": 96}, "geometry": {"type": "LineString", "coordinates": [[-77.0448964, 38.9186484], [-77.0448955, 38.9186484]]}}, {"type": "Feature", "properties": {"link_id": 80, "link_type": "sidewalk", "length_m": 5.63, "avg_width_m": 6.2, "min_width_m": 5.3, "from_node": 94, "to_node": 97}, "geometry": {"type": "LineString", "coordinates": [[-77.0448964, 38.9186484], [-77.044937, 38.9186087]]}}, {"type": "Feature", "properties": {"link_id": 81, "link_type": "sidewalk", "length_m": 33.24, "avg_width_m": 2.26, "min_width_m": 1.58, "from_node": 98, "to_node": 99}, "geometry": {"type": "LineString", "coordinates": [[-77.045099, 38.9195844], [-77.0452072, 38.9198006], [-77.0452237, 38.9198472], [-77.0452367, 38.9198633]]}}, {"type": "Feature", "properties": {"link_id": 82, "link_type": "sidewalk", "length_m": 0.08, "avg_width_m": 2.48, "min_width_m": 2.4, "from_node": 98, "to_node": 100}, "geometry": {"type": "LineString", "coordinates": [[-77.045099, 38.9195844], [-77.0450981, 38.9195844]]}}, {"type": "Feature", "properties": {"link_id": 83, "link_type": "sidewalk", "length_m": 0.08, "avg_width_m": 2.4, "min_width_m": 2.4, "from_node": 98, "to_node": 101}, "geometry": {"type": "LineString", "coordinates": [[-77.045099, 38.9195844], [-77.045099, 38.9195837]]}}, {"type": "Feature", "properties": {"link_id": 84, "link_type": "sidewalk", "length_m": 12.31, "avg_width_m": 1.08, "min_width_m": 0.45, "from_node": 10, "to_node": 102}, "geometry": {"type": "LineString", "coordinates": [[-77.0467713, 38.9178001], [-77.0467234, 38.9177389], [-77.0467212, 38.9177223], [-77.0467288, 38.9177007]]}}, {"type": "Feature", "properties": {"link_id": 85, "link_type": "sidewalk", "length_m": 26.21, "avg_width_m": 3.76, "min_width_m": 1.65, "from_node": 103, "to_node": 104}, "geometry": {"type": "LineString", "coordinates": [[-77.0462114, 38.9193808], [-77.0462426, 38.9194175], [-77.0462605, 38.9194571], [-77.0462705, 38.9195067], [-77.0463035, 38.9195351], [-77.0463177, 38.9195772], [-77.0463293, 38.9195927]]}}, {"type": "Feature", "properties": {"link_id": 86, "link_type": "midblock", "length_m": 8.38, "avg_width_m": null, "min_width_m": null, "from_node": 104, "to_node": 105}, "geometry": {"type": "LineString", "coordinates": [[-77.0463293, 38.9195927], [-77.0463459, 38.9196149], [-77.0463662, 38.919662]]}}, {"type": "Feature", "properties": {"link_id": 87, "link_type": "sidewalk", "length_m": 22.7, "avg_width_m": 2.19, "min_width_m": 1.32, "from_node": 105, "to_node": 106}, "geometry": {"type": "LineString", "coordinates": [[-77.0463662, 38.919662], [-77.0464117, 38.9197677], [-77.0464599, 38.9198527]]}}, {"type": "Feature", "properties": {"link_id": 88, "link_type": "sidewalk", "length_m": 7.67, "avg_width_m": 2.48, "min_width_m": 1.79, "from_node": 103, "to_node": 107}, "geometry": {"type": "LineString", "coordinates": [[-77.0462114, 38.9193808], [-77.0461607, 38.9194025], [-77.0461432, 38.9194032], [-77.046133, 38.9193967]]}}, {"type": "Feature", "properties": {"link_id": 89, "link_type": "sidewalk", "length_m": 5.28, "avg_width_m": 3.49, "min_width_m": 3.04, "from_node": 103, "to_node": 108}, "geometry": {"type": "LineString", "coordinates": [[-77.0462114, 38.9193808], [-77.0462091, 38.9193419], [-77.0462046, 38.919334]]}}, {"type": "Feature", "properties": {"link_id": 90, "link_type": "midblock", "length_m": 2.07, "avg_width_m": null, "min_width_m": null, "from_node": 108, "to_node": 109}, "geometry": {"type": "LineString", "coordinates": [[-77.0462046, 38.919334], [-77.046195, 38.919317]]}}, {"type": "Feature", "properties": {"link_id": 91, "link_type": "sidewalk", "length_m": 8.35, "avg_width_m": 2.32, "min_width_m": 1.16, "from_node": 109, "to_node": 16}, "geometry": {"type": "LineString", "coordinates": [[-77.046195, 38.919317], [-77.046156, 38.9192482]]}}, {"type": "Feature", "properties": {"link_id": 92, "link_type": "sidewalk", "length_m": 0.08, "avg_width_m": 3.84, "min_width_m": 3.84, "from_node": 57, "to_node": 93}, "geometry": {"type": "LineString", "coordinates": [[-77.0441782, 38.9178782], [-77.0441792, 38.9178782]]}}, {"type": "Feature", "properties": {"link_id": 93, "link_type": "sidewalk", "length_m": 0.11, "avg_width_m": 3.73, "min_width_m": 3.68, "from_node": 57, "to_node": 110}, "geometry": {"type": "LineString", "coordinates": [[-77.0441782, 38.9178782], [-77.0441792, 38.9178775]]}}, {"type": "Feature", "properties": {"link_id": 94, "link_type": "sidewalk", "length_m": 9.74, "avg_width_m": 1.45, "min_width_m": 0.68, "from_node": 111, "to_node": 112}, "geometry": {"type": "LineString", "coordinates": [[-77.0447899, 38.9194959], [-77.0448044, 38.9194929], [-77.0448147, 38.9194856], [-77.0448373, 38.9194423], [-77.0448591, 38.9194353]]}}, {"type": "Feature", "properties": {"link_id": 95, "link_type": "sidewalk", "length_m": 15.19, "avg_width_m": 3.35, "min_width_m": 2.23, "from_node": 80, "to_node": 113}, "geometry": {"type": "LineString", "coordinates": [[-77.04422, 38.9197224], [-77.0441877, 38.9197177], [-77.0441185, 38.9197189], [-77.0440736, 38.9197292], [-77.044053, 38.9197419]]}}, {"type": "Feature", "properties": {"link_id": 96, "link_type": "sidewalk", "length_m": 0.11, "avg_width_m": 4.27, "min_width_m": 4.16, "from_node": 80, "to_node": 114}, "geometry": {"type": "LineString", "coordinates": [[-77.04422, 38.9197224], [-77.0442209, 38.9197217]]}}, {"type": "Feature", "properties": {"link_id": 97, "link_type": "pseudo", "length_m": 2.29, "avg_width_m": null, "min_width_m": null, "from_node": 114, "to_node": 115}, "geometry": {"type": "LineString", "coordinates": [[-77.0442209, 38.9197217], [-77.0442366, 38.9197051]]}}, {"type": "Feature", "properties": {"link_id": 98, "link_type": "crosswalk", "length_m": 10.32, "avg_width_m": 4.45, "min_width_m": 2.24, "from_node": 115, "to_node": 116}, "geometry": {"type": "LineString", "coordinates": [[-77.0442366, 38.9197051], [-77.0442753, 38.9196172]]}}, {"type": "Feature", "properties": {"link_id": 99, "link_type": "pseudo", "length_m": 1.36, "avg_width_m": null, "min_width_m": null, "from_node": 116, "to_node": 117}, "geometry": {"type": "LineString", "coordinates": [[-77.0442753, 38.9196172], [-77.0442752, 38.9196049]]}}, {"type": "Feature", "properties": {"link_id": 100, "link_type": "sidewalk", "length_m": 0.08, "avg_width_m": 2.47, "min_width_m": 2.45, "from_node": 118, "to_node": 40}, "geometry": {"type": "LineString", "coordinates": [[-77.0448856, 38.9190707], [-77.0448856, 38.9190714]]}}, {"type": "Feature", "properties": {"link_id": 101, "link_type": "sidewalk", "length_m": 0.08, "avg_width_m": 2.46, "min_width_m": 2.44, "from_node": 118, "to_node": 119}, "geometry": {"type": "LineString", "coordinates": [[-77.0448856, 38.9190707], [-77.0448847, 38.9190707]]}}, {"type": "Feature", "properties": {"link_id": 102, "link_type": "sidewalk", "length_m": 10.17, "avg_width_m": 2.58, "min_width_m": 2.22, "from_node": 118, "to_node": 120}, "geometry": {"type": "LineString", "coordinates": [[-77.0448856, 38.9190707], [-77.0449335, 38.9189871]]}}, {"type": "Feature", "properties": {"link_id": 103, "link_type": "pseudo", "length_m": 0.11, "avg_width_m": null, "min_width_m": null, "from_node": 121, "to_node": 122}, "geometry": {"type": "LineString", "coordinates": [[-77.0447849, 38.9188437], [-77.044784, 38.9188444]]}}, {"type": "Feature", "properties": {"link_id": 104, "link_type": "sidewalk", "length_m": 1.13, "avg_width_m": 4.02, "min_width_m": 3.85, "from_node": 122, "to_node": 123}, "geometry": {"type": "LineString", "coordinates": [[-77.044784, 38.9188444], [-77.0447822, 38.9188545]]}}, {"type": "Feature", "properties": {"link_id": 105, "link_type": "pseudo", "length_m": 1.55, "avg_width_m": null, "min_width_m": null, "from_node": 123, "to_node": 124}, "geometry": {"type": "LineString", "coordinates": [[-77.0447822, 38.9188545], [-77.044772, 38.9188661]]}}, {"type": "Feature", "properties": {"link_id": 106, "link_type": "crosswalk", "length_m": 13.93, "avg_width_m": 4.01, "min_width_m": 1.29, "from_node": 124, "to_node": 125}, "geometry": {"type": "LineString", "coordinates": [[-77.044772, 38.9188661], [-77.0446937, 38.9189756]]}}, {"type": "Feature", "properties": {"link_id": 107, "link_type": "pseudo", "length_m": 2.5, "avg_width_m": null, "min_width_m": null, "from_node": 125, "to_node": 126}, "geometry": {"type": "LineString", "coordinates": [[-77.0446937, 38.9189756], [-77.0446808, 38.9189958]]}}, {"type": "Feature", "properties": {"link_id": 108, "link_type": "pseudo", "length_m": 2.4, "avg_width_m": null, "min_width_m": null, "from_node": 121, "to_node": 127}, "geometry": {"type": "LineString", "coordinates": [[-77.0447849, 38.9188437], [-77.0448126, 38.9188444]]}}, {"type": "Feature", "properties": {"link_id": 109, "link_type": "crosswalk", "length_m": 25.31, "avg_width_m": 4.55, "min_width_m": 1.13, "from_node": 127, "to_node": 128}, "geometry": {"type": "LineString", "coordinates": [[-77.0448126, 38.9188444], [-77.0448755, 38.9190671]]}}, {"type": "Feature", "properties": {"link_id": 110, "link_type": "pseudo", "length_m": 0.89, "avg_width_m": null, "min_width_m": null, "from_node": 128, "to_node": 119}, "geometry": {"type": "LineString", "coordinates": [[-77.0448755, 38.9190671], [-77.0448847, 38.9190707]]}}, {"type": "Feature", "properties": {"link_id": 111, "link_type": "pseudo", "length_m": 0.11, "avg_width_m": null, "min_width_m": null, "from_node": 121, "to_node": 129}, "geometry": {"type": "LineString", "coordinates": [[-77.0447849, 38.9188437], [-77.044784, 38.918843]]}}, {"type": "Feature", "properties": {"link_id": 112, "link_type": "sidewalk", "length_m": 2.17, "avg_width_m": 5.73, "min_width_m": 5.08, "from_node": 129, "to_node": 130}, "geometry": {"type": "LineString", "coordinates": [[-77.044784, 38.918843], [-77.0447821, 38.9188235]]}}, {"type": "Feature", "properties": {"link_id": 113, "link_type": "midblock", "length_m": 1.11, "avg_width_m": null, "min_width_m": null, "from_node": 131, "to_node": 132}, "geometry": {"type": "LineString", "coordinates": [[-77.0455093, 38.9177033], [-77.0455049, 38.9177127]]}}, {"type": "Feature", "properties": {"link_id": 114, "link_type": "sidewalk", "length_m": 8.48, "avg_width_m": 2.77, "min_width_m": 2.08, "from_node": 132, "to_node": 133}, "geometry": {"type": "LineString", "coordinates": [[-77.0455049, 38.9177127], [-77.0454876, 38.9177496], [-77.0454586, 38.917779]]}}, {"type": "Feature", "properties": {"link_id": 115, "link_type": "midblock", "length_m": 3.3, "avg_width_m": null, "min_width_m": null, "from_node": 131, "to_node": 134}, "geometry": {"type": "LineString", "coordinates": [[-77.0455093, 38.9177033], [-77.045524, 38.9176759]]}}, {"type": "Feature", "properties": {"link_id": 116, "link_type": "midblock", "length_m": 0.95, "avg_width_m": null, "min_width_m": null, "from_node": 131, "to_node": 135}, "geometry": {"type": "LineString", "coordinates": [[-77.0455093, 38.9177033], [-77.0454988, 38.9177007]]}}, {"type": "Feature", "properties": {"link_id": 117, "link_type": "sidewalk", "length_m": 11.4, "avg_width_m": 2.17, "min_width_m": 1.37, "from_node": 135, "to_node": 136}, "geometry": {"type": "LineString", "coordinates": [[-77.0454988, 38.9177007], [-77.0454649, 38.9176923], [-77.045369, 38.917694]]}}, {"type": "Feature", "properties": {"link_id": 118, "link_type": "sidewalk", "length_m": 0.11, "avg_width_m": 2.51, "min_width_m": 2.4, "from_node": 101, "to_node": 100}, "geometry": {"type": "LineString", "coordinates": [[-77.045099, 38.9195837], [-77.0450981, 38.9195844]]}}, {"type": "Feature", "properties": {"link_id": 119, "link_type": "sidewalk", "length_m": 2.9, "avg_width_m": 1.68, "min_width_m": 1.48, "from_node": 101, "to_node": 137}, "geometry": {"type": "LineString", "coordinates": [[-77.045099, 38.9195837], [-77.0451129, 38.9195599]]}}, {"type": "Feature", "properties": {"link_id": 120, "link_type": "sidewalk", "length_m": 0.08, "avg_width_m": 3.16, "min_width_m": 3.08, "from_node": 138, "to_node": 139}, "geometry": {"type": "LineString", "coordinates": [[-77.0450602, 38.9194533], [-77.0450602, 38.919454]]}}, {"type": "Feature", "properties": {"link_id": 121, "link_type": "sidewalk", "length_m": 0.08, "avg_width_m": 3.07, "min_width_m": 3.06, "from_node": 138, "to_node": 35}, "geometry": {"type": "LineString", "coordinates": [[-77.0450602, 38.9194533], [-77.0450593, 38.9194533]]}}, {"type": "Feature", "properties": {"link_id": 122, "link_type": "sidewalk", "length_m": 31.02, "avg_width_m": 2.51, "min_width_m": 0.97, "from_node": 138, "to_node": 140}, "geometry": {"type": "LineString", "coordinates": [[-77.0450602, 38.9194533], [-77.0451902, 38.919416], [-77.0452328, 38.9193972], [-77.0453276, 38.9193729], [-77.0453702, 38.9193534], [-77.0453905, 38.9193488]]}}, {"type": "Feature", "properties": {"link_id": 123, "link_type": "midblock", "length_m": 7.39, "avg_width_m": null, "min_width_m": null, "from_node": 140, "to_node": 141}, "geometry": {"type": "LineString", "coordinates": [[-77.0453905, 38.9193488], [-77.0454513, 38.9193352], [-77.0454703, 38.9193266]]}}, {"type": "Feature", "properties": {"link_id": 124, "link_type": "sidewalk", "length_m": 58.98, "avg_width_m": 2.86, "min_width_m": 1.01, "from_node": 141, "to_node": 142}, "geometry": {"type": "LineString", "coordinates": [[-77.0454703, 38.9193266], [-77.0455029, 38.9193121], [-77.0455675, 38.9192981], [-77.0457114, 38.9192467], [-77.0458451, 38.9192124], [-77.0460231, 38.9191572], [-77.0460853, 38.9191321], [-77.0460932, 38.9191221]]}}, {"type": "Feature", "properties": {"link_id": 125, "link_type": "sidewalk", "length_m": 45.28, "avg_width_m": 3.1, "min_width_m": 2.48, "from_node": 143, "to_node": 120}, "geometry": {"type": "LineString", "coordinates": [[-77.0451676, 38.9186245], [-77.0450923, 38.9187398], [-77.0450571, 38.9188196], [-77.0450222, 38.9188531], [-77.0449335, 38.9189871]]}}, {"type": "Feature", "properties": {"link_id": 126, "link_type": "pseudo", "length_m": 1.49, "avg_width_m": null, "min_width_m": null, "from_node": 144, "to_node": 145}, "geometry": {"type": "LineString", "coordinates": [[-77.0457494, 38.9181299], [-77.0457448, 38.9181428]]}}, {"type": "Feature", "properties": {"link_id": 127, "link_type": "crosswalk", "length_m": 16.81, "avg_width_m": 4.22, "min_width_m": 1.28, "from_node": 145, "to_node": 146}, "geometry": {"type": "LineString", "coordinates": [[-77.0457448, 38.9181428], [-77.0457652, 38.9182935]]}}, {"type": "Feature", "properties": {"link_id": 128, "link_type": "pseudo", "length_m": 0.11, "avg_width_m": null, "min_width_m": null, "from_node": 144, "to_node": 9}, "geometry": {"type": "LineString", "coordinates": [[-77.0457494, 38.9181299], [-77.0457503, 38.9181292]]}}, {"type": "Feature", "properties": {"link_id": 129, "link_type": "pseudo", "length_m": 0.08, "avg_width_m": null, "min_width_m": null, "from_node": 144, "to_node": 147}, "geometry": {"type": "LineString", "coordinates": [[-77.0457494, 38.9181299], [-77.0457494, 38.9181292]]}}, {"type": "Feature", "properties": {"link_id": 130, "link_type": "pseudo", "length_m": 1.9, "avg_width_m": null, "min_width_m": null, "from_node": 148, "to_node": 149}, "geometry": {"type": "LineString", "coordinates": [[-77.0443516, 38.9178602], [-77.0443323, 38.9178681]]}}, {"type": "Feature", "properties": {"link_id": 131, "link_type": "crosswalk", "length_m": 9.48, "avg_width_m": 4.11, "min_width_m": 2.73, "from_node": 149, "to_node": 150}, "geometry": {"type": "LineString", "coordinates": [[-77.0443323, 38.9178681], [-77.0442253, 38.9178854]]}}, {"type": "Feature", "properties": {"link_id": 132, "link_type": "pseudo", "length_m": 1.72, "avg_width_m": null, "min_width_m": null, "from_node": 150, "to_node": 92}, "geometry": {"type": "LineString", "coordinates": [[-77.0442253, 38.9178854], [-77.0442078, 38.9178926]]}}, {"type": "Feature", "properties": {"link_id": 133, "link_type": "pseudo", "length_m": 0.08, "avg_width_m": null, "min_width_m": null, "from_node": 148, "to_node": 151}, "geometry": {"type": "LineString", "coordinates": [[-77.0443516, 38.9178602], [-77.0443526, 38.9178602]]}}, {"type": "Feature", "properties": {"link_id": 134, "link_type": "pseudo", "length_m": 0.11, "avg_width_m": null, "min_width_m": null, "from_node": 148, "to_node": 42}, "geometry": {"type": "LineString", "coordinates": [[-77.0443516, 38.9178602], [-77.0443526, 38.9178594]]}}, {"type": "Feature", "properties": {"link_id": 135, "link_type": "sidewalk", "length_m": 4.51, "avg_width_m": 1.24, "min_width_m": 0.91, "from_node": 152, "to_node": 153}, "geometry": {"type": "LineString", "coordinates": [[-77.045624, 38.9181739], [-77.0455926, 38.9182063]]}}, {"type": "Feature", "properties": {"link_id": 136, "link_type": "sidewalk", "length_m": 2.08, "avg_width_m": 3.19, "min_width_m": 3.09, "from_node": 154, "to_node": 155}, "geometry": {"type": "LineString", "coordinates": [[-77.0447405, 38.9187104], [-77.0447313, 38.9187277]]}}, {"type": "Feature", "properties": {"link_id": 137, "link_type": "sidewalk", "length_m": 15.21, "avg_width_m": 2.71, "min_width_m": 1.13, "from_node": 154, "to_node": 96}, "geometry": {"type": "LineString", "coordinates": [[-77.0447405, 38.9187104], [-77.0448005, 38.9186772], [-77.0448955, 38.9186484]]}}, {"type": "Feature", "properties": {"link_id": 138, "link_type": "sidewalk", "length_m": 0.11, "avg_width_m": 3.23, "min_width_m": 3.11, "from_node": 154, "to_node": 156}, "geometry": {"type": "LineString", "coordinates": [[-77.0447405, 38.9187104], [-77.0447396, 38.9187097]]}}, {"type": "Feature", "properties": {"link_id": 139, "link_type": "pseudo", "length_m": 1.24, "avg_width_m": null, "min_width_m": null, "from_node": 156, "to_node": 157}, "geometry": {"type": "LineString", "coordinates": [[-77.0447396, 38.9187097], [-77.0447295, 38.9187018]]}}, {"type": "Feature", "properties": {"link_id": 140, "link_type": "crosswalk", "length_m": 11.21, "avg_width_m": 4.1, "min_width_m": 2.0, "from_node": 157, "to_node": 158}, "geometry": {"type": "LineString", "coordinates": [[-77.0447295, 38.9187018], [-77.044698, 38.9186038]]}}, {"type": "Feature", "properties": {"link_id": 141, "link_type": "pseudo", "length_m": 2.6, "avg_width_m": null, "min_width_m": null, "from_node": 158, "to_node": 159}, "geometry": {"type": "LineString", "coordinates": [[-77.044698, 38.9186038], [-77.0446925, 38.9185807]]}}, {"type": "Feature", "properties": {"link_id": 142, "link_type": "sidewalk", "length_m": 0.08, "avg_width_m": 2.72, "min_width_m": 2.72, "from_node": 160, "to_node": 142}, "geometry": {"type": "LineString", "coordinates": [[-77.0460932, 38.9191214], [-77.0460932, 38.9191221]]}}, {"type": "Feature", "properties": {"link_id": 143, "link_type": "sidewalk", "length_m": 0.08, "avg_width_m": 2.8, "min_width_m": 2.72, "from_node": 160, "to_node": 161}, "geometry": {"type": "LineString", "coordinates": [[-77.0460932, 38.9191214], [-77.0460941, 38.9191214]]}}, {"type": "Feature", "properties": {"link_id": 144, "link_type": "sidewalk", "length_m": 42.01, "avg_width_m": 2.53, "min_width_m": 0.93, "from_node": 160, "to_node": 162}, "geometry": {"type": "LineString", "coordinates": [[-77.0460932, 38.9191214], [-77.0460486, 38.9190436], [-77.0459667, 38.9188606], [-77.0459345, 38.9188188], [-77.0459192, 38.9187697]]}}, {"type": "Feature", "properties": {"link_id": 145, "link_type": "midblock", "length_m": 6.53, "avg_width_m": null, "min_width_m": null, "from_node": 162, "to_node": 163}, "geometry": {"type": "LineString", "coordinates": [[-77.0459192, 38.9187697], [-77.0458911, 38.9187151]]}}, {"type": "Feature", "properties": {"link_id": 146, "link_type": "sidewalk", "length_m": 4.62, "avg_width_m": 3.49, "min_width_m": 3.34, "from_node": 163, "to_node": 164}, "geometry": {"type": "LineString", "coordinates": [[-77.0458911, 38.9187151], [-77.0458709, 38.9186766]]}}, {"type": "Feature", "properties": {"link_id": 147, "link_type": "midblock", "length_m": 5.65, "avg_width_m": null, "min_width_m": null, "from_node": 164, "to_node": 165}, "geometry": {"type": "LineString", "coordinates": [[-77.0458709, 38.9186766], [-77.0458459, 38.9186296]]}}, {"type": "Feature", "properties": {"link_id": 148, "link_type": "sidewalk", "length_m": 30.19, "avg_width_m": 2.54, "min_width_m": 1.48, "from_node": 165, "to_node": 166}, "geometry": {"type": "LineString", "coordinates": [[-77.0458459, 38.9186296], [-77.0458045, 38.9185665], [-77.0457927, 38.9185269], [-77.0457615, 38.9184814], [-77.0457479, 38.918434], [-77.0457238, 38.9184054], [-77.0457136, 38.9183807]]}}, {"type": "Feature", "properties": {"link_id": 149, "link_type": "sidewalk", "length_m": 7.39, "avg_width_m": 2.87, "min_width_m": 2.64, "from_node": 167, "to_node": 168}, "geometry": {"type": "LineString", "coordinates": [[-77.0446808, 38.9189965], [-77.044676, 38.9190261], [-77.0446577, 38.91906]]}}, {"type": "Feature", "properties": {"link_id": 150, "link_type": "sidewalk", "length_m": 0.08, "avg_width_m": 4.08, "min_width_m": 4.0, "from_node": 167, "to_node": 169}, "geometry": {"type": "LineString", "coordinates": [[-77.0446808, 38.9189965], [-77.0446798, 38.9189965]]}}, {"type": "Feature", "properties": {"link_id": 151, "link_type": "sidewalk", "length_m": 0.08, "avg_width_m": 4.13, "min_width_m": 4.11, "from_node": 167, "to_node": 126}, "geometry": {"type": "LineString", "coordinates": [[-77.0446808, 38.9189965], [-77.0446808, 38.9189958]]}}, {"type": "Feature", "properties": {"link_id": 152, "link_type": "sidewalk", "length_m": 80.0, "avg_width_m": 2.1, "min_width_m": 1.07, "from_node": 170, "to_node": 13}, "geometry": {"type": "LineString", "coordinates": [[-77.0466435, 38.9198678], [-77.0466009, 38.9198159], [-77.0465883, 38.9197791], [-77.0465579, 38.919733], [-77.0465426, 38.9196848], [-77.0464175, 38.919457], [-77.046408, 38.9194204], [-77.0463433, 38.9192964], [-77.0463194, 38.9192637], [-77.0463107, 38.9192287], [-77.0462962, 38.9192042]]}}, {"type": "Feature", "properties": {"link_id": 153, "link_type": "sidewalk", "length_m": 0.11, "avg_width_m": 2.39, "min_width_m": 2.26, "from_node": 120, "to_node": 171}, "geometry": {"type": "LineString", "coordinates": [[-77.0449335, 38.9189871], [-77.0449326, 38.9189863]]}}, {"type": "Feature", "properties": {"link_id": 154, "link_type": "pseudo", "length_m": 1.61, "avg_width_m": null, "min_width_m": null, "from_node": 171, "to_node": 172}, "geometry": {"type": "LineString", "coordinates": [[-77.0449326, 38.9189863], [-77.044916, 38.9189799]]}}, {"type": "Feature", "properties": {"link_id": 155, "link_type": "crosswalk", "length_m": 2.79, "avg_width_m": 1.05, "min_width_m": 0.91, "from_node": 172, "to_node": 173}, "geometry": {"type": "LineString", "coordinates": [[-77.044916, 38.9189799], [-77.0449031, 38.9190029]]}}, {"type": "Feature", "properties": {"link_id": 156, "link_type": "pseudo", "length_m": 1.22, "avg_width_m": null, "min_width_m": null, "from_node": 173, "to_node": 174}, "geometry": {"type": "LineString", "coordinates": [[-77.0449031, 38.9190029], [-77.0448902, 38.9190073]]}}, {"type": "Feature", "properties": {"link_id": 157, "link_type": "sidewalk", "length_m": 0.08, "avg_width_m": 3.31, "min_width_m": 3.24, "from_node": 175, "to_node": 176}, "geometry": {"type": "LineString", "coordinates": [[-77.0445916, 38.9195753], [-77.0445916, 38.919576]]}}, {"type": "Feature", "properties": {"link_id": 158, "link_type": "sidewalk", "length_m": 0.08, "avg_width_m": 3.38, "min_width_m": 3.38, "from_node": 175, "to_node": 177}, "geometry": {"type": "LineString", "coordinates": [[-77.0445916, 38.9195753], [-77.0445926, 38.9195753]]}}, {"type": "Feature", "properties": {"link_id": 159, "link_type": "sidewalk", "length_m": 0.94, "avg_width_m": 3.84, "min_width_m": 3.65, "from_node": 175, "to_node": 178}, "geometry": {"type": "LineString", "coordinates": [[-77.0445916, 38.9195753], [-77.0445815, 38.9195724]]}}, {"type": "Feature", "properties": {"link_id": 160, "link_type": "sidewalk", "length_m": 3.81, "avg_width_m": 2.73, "min_width_m": 2.24, "from_node": 51, "to_node": 179}, "geometry": {"type": "LineString", "coordinates": [[-77.0446069, 38.9188207], [-77.0446143, 38.9188546]]}}, {"type": "Feature", "properties": {"link_id": 161, "link_type": "sidewalk", "length_m": 0.08, "avg_width_m": 3.98, "min_width_m": 3.96, "from_node": 51, "to_node": 52}, "geometry": {"type": "LineString", "coordinates": [[-77.0446069, 38.9188207], [-77.0446069, 38.91882]]}}, {"type": "Feature", "properties": {"link_id": 162, "link_type": "sidewalk", "length_m": 11.72, "avg_width_m": 3.0, "min_width_m": 2.48, "from_node": 180, "to_node": 130}, "geometry": {"type": "LineString", "coordinates": [[-77.0447313, 38.9187284], [-77.0447548, 38.9187997], [-77.0447821, 38.9188235]]}}, {"type": "Feature", "properties": {"link_id": 163, "link_type": "sidewalk", "length_m": 0.08, "avg_width_m": 3.45, "min_width_m": 3.38, "from_node": 180, "to_node": 55}, "geometry": {"type": "LineString", "coordinates": [[-77.0447313, 38.9187284], [-77.0447304, 38.9187284]]}}, {"type": "Feature", "properties": {"link_id": 164, "link_type": "sidewalk", "length_m": 0.08, "avg_width_m": 3.38, "min_width_m": 3.38, "from_node": 180, "to_node": 155}, "geometry": {"type": "LineString", "coordinates": [[-77.0447313, 38.9187284], [-77.0447313, 38.9187277]]}}, {"type": "Feature", "properties": {"link_id": 165, "link_type": "sidewalk", "length_m": 4.69, "avg_width_m": 2.38, "min_width_m": 2.15, "from_node": 181, "to_node": 182}, "geometry": {"type": "LineString", "coordinates": [[-77.0451056, 38.9183521], [-77.0450826, 38.9183903]]}}, {"type": "Feature", "properties": {"link_id": 166, "link_type": "sidewalk", "length_m": 0.08, "avg_width_m": 2.94, "min_width_m": 2.94, "from_node": 181, "to_node": 183}, "geometry": {"type": "LineString", "coordinates": [[-77.0451056, 38.9183521], [-77.0451066, 38.9183521]]}}, {"type": "Feature", "properties": {"link_id": 167, "link_type": "sidewalk", "length_m": 0.08, "avg_width_m": 2.91, "min_width_m": 2.88, "from_node": 181, "to_node": 184}, "geometry": {"type": "LineString", "coordinates": [[-77.0451056, 38.9183521], [-77.0451056, 38.9183514]]}}, {"type": "Feature", "properties": {"link_id": 168, "link_type": "sidewalk", "length_m": 0.11, "avg_width_m": 3.63, "min_width_m": 3.52, "from_node": 185, "to_node": 186}, "geometry": {"type": "LineString", "coordinates": [[-77.0442849, 38.9187978], [-77.0442858, 38.9187985]]}}, {"type": "Feature", "properties": {"link_id": 169, "link_type": "sidewalk", "length_m": 0.08, "avg_width_m": 3.52, "min_width_m": 3.52, "from_node": 185, "to_node": 187}, "geometry": {"type": "LineString", "coordinates": [[-77.0442849, 38.9187978], [-77.0442858, 38.9187978]]}}, {"type": "Feature", "properties": {"link_id": 170, "link_type": "sidewalk", "length_m": 19.34, "avg_width_m": 2.24, "min_width_m": 1.13, "from_node": 185, "to_node": 188}, "geometry": {"type": "LineString", "coordinates": [[-77.0442849, 38.9187978], [-77.0442203, 38.9188024], [-77.0441696, 38.9187973], [-77.0441142, 38.9188032], [-77.0440635, 38.9187979]]}}, {"type": "Feature", "properties": {"link_id": 171, "link_type": "sidewalk", "length_m": 26.9, "avg_width_m": 2.29, "min_width_m": 1.13, "from_node": 189, "to_node": 147}, "geometry": {"type": "LineString", "coordinates": [[-77.0456312, 38.9179051], [-77.0457494, 38.9181292]]}}, {"type": "Feature", "properties": {"link_id": 172, "link_type": "sidewalk", "length_m": 0.08, "avg_width_m": 3.19, "min_width_m": 3.11, "from_node": 189, "to_node": 190}, "geometry": {"type": "LineString", "coordinates": [[-77.0456312, 38.9179051], [-77.0456302, 38.9179051]]}}, {"type": "Feature", "properties": {"link_id": 173, "link_type": "sidewalk", "length_m": 0.08, "avg_width_m": 3.09, "min_width_m": 3.08, "from_node": 189, "to_node": 191}, "geometry": {"type": "LineString", "coordinates": [[-77.0456312, 38.9179051], [-77.0456312, 38.9179044]]}}, {"type": "Feature", "properties": {"link_id": 174, "link_type": "sidewalk", "length_m": 0.08, "avg_width_m": 2.88, "min_width_m": 2.88, "from_node": 13, "to_node": 17}, "geometry": {"type": "LineString", "coordinates": [[-77.0462962, 38.9192042], [-77.0462962, 38.9192034]]}}, {"type": "Feature", "properties": {"link_id": 175, "link_type": "pseudo", "length_m": 0.08, "avg_width_m": null, "min_width_m": null, "from_node": 159, "to_node": 192}, "geometry": {"type": "LineString", "coordinates": [[-77.0446925, 38.9185807], [-77.0446925, 38.91858]]}}, {"type": "Feature", "properties": {"link_id": 176, "link_type": "pseudo", "length_m": 0.11, "avg_width_m": null, "min_width_m": null, "from_node": 159, "to_node": 193}, "geometry": {"type": "LineString", "coordinates": [[-77.0446925, 38.9185807], [-77.0446916, 38.91858]]}}, {"type": "Feature", "properties": {"link_id": 177, "link_type": "pseudo", "length_m": 1.43, "avg_width_m": null, "min_width_m": null, "from_node": 20, "to_node": 194}, "geometry": {"type": "LineString", "coordinates": [[-77.046226, 38.9190817], [-77.0462113, 38.9190875]]}}, {"type": "Feature", "properties": {"link_id": 178, "link_type": "crosswalk", "length_m": 9.4, "avg_width_m": 4.54, "min_width_m": 2.79, "from_node": 194, "to_node": 195}, "geometry": {"type": "LineString", "coordinates": [[-77.0462113, 38.9190875], [-77.0461107, 38.9191192]]}}, {"type": "Feature", "properties": {"link_id": 179, "link_type": "pseudo", "length_m": 1.46, "avg_width_m": null, "min_width_m": null, "from_node": 195, "to_node": 161}, "geometry": {"type": "LineString", "coordinates": [[-77.0461107, 38.9191192], [-77.0460941, 38.9191214]]}}, {"type": "Feature", "properties": {"link_id": 180, "link_type": "pseudo", "length_m": 0.08, "avg_width_m": null, "min_width_m": null, "from_node": 20, "to_node": 19}, "geometry": {"type": "LineString", "coordinates": [[-77.046226, 38.9190817], [-77.0462269, 38.9190817]]}}, {"type": "Feature", "properties": {"link_id": 181, "link_type": "sidewalk", "length_m": 0.08, "avg_width_m": 4.13, "min_width_m": 4.1, "from_node": 196, "to_node": 97}, "geometry": {"type": "LineString", "coordinates": [[-77.044937, 38.918608], [-77.044937, 38.9186087]]}}, {"type": "Feature", "properties": {"link_id": 182, "link_type": "sidewalk", "length_m": 0.08, "avg_width_m": 4.09, "min_width_m": 4.01, "from_node": 196, "to_node": 197}, "geometry": {"type": "LineString", "coordinates": [[-77.044937, 38.918608], [-77.0449379, 38.918608]]}}, {"type": "Feature", "properties": {"link_id": 183, "link_type": "sidewalk", "length_m": 0.23, "avg_width_m": 4.08, "min_width_m": 4.01, "from_node": 196, "to_node": 198}, "geometry": {"type": "LineString", "coordinates": [[-77.044937, 38.918608], [-77.0449361, 38.9186073], [-77.044937, 38.9186065]]}}, {"type": "Feature", "properties": {"link_id": 184, "link_type": "pseudo", "length_m": 2.62, "avg_width_m": null, "min_width_m": null, "from_node": 198, "to_node": 199}, "geometry": {"type": "LineString", "coordinates": [[-77.044937, 38.9186065], [-77.0449526, 38.9185864]]}}, {"type": "Feature", "properties": {"link_id": 185, "link_type": "crosswalk", "length_m": 22.33, "avg_width_m": 3.57, "min_width_m": 0.16, "from_node": 199, "to_node": 200}, "geometry": {"type": "LineString", "coordinates": [[-77.0449526, 38.9185864], [-77.0450614, 38.918404]]}}, {"type": "Feature", "properties": {"link_id": 186, "link_type": "sidewalk", "length_m": 19.12, "avg_width_m": 1.93, "min_width_m": 1.29, "from_node": 201, "to_node": 112}, "geometry": {"type": "LineString", "coordinates": [[-77.0447769, 38.9192761], [-77.0448128, 38.919328], [-77.0448591, 38.9194353]]}}, {"type": "Feature", "properties": {"link_id": 187, "link_type": "sidewalk", "length_m": 37.61, "avg_width_m": 2.95, "min_width_m": 1.38, "from_node": 201, "to_node": 178}, "geometry": {"type": "LineString", "coordinates": [[-77.0447769, 38.9192761], [-77.044754, 38.919291], [-77.0446822, 38.9193698], [-77.044665, 38.9194235], [-77.0445958, 38.919527], [-77.0445815, 38.9195724]]}}, {"type": "Feature", "properties": {"link_id": 188, "link_type": "sidewalk", "length_m": 3.51, "avg_width_m": 1.85, "min_width_m": 1.07, "from_node": 201, "to_node": 202}, "geometry": {"type": "LineString", "coordinates": [[-77.0447769, 38.9192761], [-77.0448165, 38.9192696]]}}, {"type": "Feature", "properties": {"link_id": 189, "link_type": "pseudo", "length_m": 3.38, "avg_width_m": null, "min_width_m": null, "from_node": 202, "to_node": 203}, "geometry": {"type": "LineString", "coordinates": [[-77.0448165, 38.9192696], [-77.0448258, 38.9192401]]}}, {"type": "Feature", "properties": {"link_id": 190, "link_type": "crosswalk", "length_m": 24.26, "avg_width_m": 2.19, "min_width_m": 0.16, "from_node": 203, "to_node": 204}, "geometry": {"type": "LineString", "coordinates": [[-77.0448258, 38.9192401], [-77.0446633, 38.9190621]]}}, {"type": "Feature", "properties": {"link_id": 191, "link_type": "pseudo", "length_m": 0.54, "avg_width_m": null, "min_width_m": null, "from_node": 204, "to_node": 168}, "geometry": {"type": "LineString", "coordinates": [[-77.0446633, 38.9190621], [-77.0446577, 38.91906]]}}, {"type": "Feature", "properties": {"link_id": 192, "link_type": "sidewalk", "length_m": 0.08, "avg_width_m": 5.93, "min_width_m": 5.93, "from_node": 205, "to_node": 206}, "geometry": {"type": "LineString", "coordinates": [[-77.0455307, 38.9180954], [-77.0455307, 38.9180961]]}}, {"type": "Feature", "properties": {"link_id": 193, "link_type": "sidewalk", "length_m": 0.08, "avg_width_m": 6.01, "min_width_m": 5.93, "from_node": 205, "to_node": 83}, "geometry": {"type": "LineString", "coordinates": [[-77.0455307, 38.9180954], [-77.0455317, 38.9180954]]}}, {"type": "Feature", "properties": {"link_id": 194, "link_type": "sidewalk", "length_m": 7.21, "avg_width_m": 3.82, "min_width_m": 1.6, "from_node": 205, "to_node": 207}, "geometry": {"type": "LineString", "coordinates": [[-77.0455307, 38.9180954], [-77.0455261, 38.9180305]]}}, {"type": "Feature", "properties": {"link_id": 195, "link_type": "sidewalk", "length_m": 0.08, "avg_width_m": 5.12, "min_width_m": 5.08, "from_node": 193, "to_node": 192}, "geometry": {"type": "LineString", "coordinates": [[-77.0446916, 38.91858], [-77.0446925, 38.91858]]}}, {"type": "Feature", "properties": {"link_id": 196, "link_type": "sidewalk", "length_m": 17.79, "avg_width_m": 3.78, "min_width_m": 1.73, "from_node": 193, "to_node": 208}, "geometry": {"type": "LineString", "coordinates": [[-77.0446916, 38.91858], [-77.0446642, 38.9185631], [-77.0446317, 38.9185072], [-77.0446206, 38.9184605], [-77.0446052, 38.9184396]]}}, {"type": "Feature", "properties": {"link_id": 197, "link_type": "midblock", "length_m": 4.53, "avg_width_m": null, "min_width_m": null, "from_node": 208, "to_node": 209}, "geometry": {"type": "LineString", "coordinates": [[-77.0446052, 38.9184396], [-77.0445997, 38.9184322], [-77.0445902, 38.9184008]]}}, {"type": "Feature", "properties": {"link_id": 198, "link_type": "sidewalk", "length_m": 64.24, "avg_width_m": 2.8, "min_width_m": 1.6, "from_node": 209, "to_node": 151}, "geometry": {"type": "LineString", "coordinates": [[-77.0445902, 38.9184008], [-77.0445822, 38.9183742], [-77.0445622, 38.9183485], [-77.04455, 38.9182984], [-77.0445243, 38.9182651], [-77.0445154, 38.9182184], [-77.0444911, 38.9181822], [-77.0444778, 38.9181348], [-77.0444526, 38.9180965], [-77.0444421, 38.918052], [-77.0444223, 38.918025], [-77.0444086, 38.9179755], [-77.0443856, 38.9179415], [-77.0443762, 38.917897], [-77.0443526, 38.9178602]]}}, {"type": "Feature", "properties": {"link_id": 199, "link_type": "sidewalk", "length_m": 36.09, "avg_width_m": 3.04, "min_width_m": 1.37, "from_node": 68, "to_node": 210}, "geometry": {"type": "LineString", "coordinates": [[-77.0453446, 38.9183844], [-77.045446, 38.918351], [-77.0454958, 38.9183411], [-77.0455586, 38.9183141], [-77.0456305, 38.9182921], [-77.0456561, 38.9182917], [-77.0456704, 38.918297], [-77.0456901, 38.9183246], [-77.0456969, 38.9183425]]}}, {"type": "Feature", "properties": {"link_id": 200, "link_type": "sidewalk", "length_m": 0.11, "avg_width_m": 2.97, "min_width_m": 2.84, "from_node": 68, "to_node": 69}, "geometry": {"type": "LineString", "coordinates": [[-77.0453446, 38.9183844], [-77.0453437, 38.9183837]]}}, {"type": "Feature", "properties": {"link_id": 201, "link_type": "sidewalk", "length_m": 2.04, "avg_width_m": 2.64, "min_width_m": 2.53, "from_node": 211, "to_node": 212}, "geometry": {"type": "LineString", "coordinates": [[-77.0451989, 38.9185747], [-77.0451888, 38.9185913]]}}, {"type": "Feature", "properties": {"link_id": 202, "link_type": "sidewalk", "length_m": 9.82, "avg_width_m": 2.39, "min_width_m": 1.37, "from_node": 211, "to_node": 213}, "geometry": {"type": "LineString", "coordinates": [[-77.0451989, 38.9185747], [-77.0452491, 38.9184954]]}}, {"type": "Feature", "properties": {"link_id": 203, "link_type": "midblock", "length_m": 5.35, "avg_width_m": null, "min_width_m": null, "from_node": 213, "to_node": 214}, "geometry": {"type": "LineString", "coordinates": [[-77.0452491, 38.9184954], [-77.0452763, 38.9184522]]}}, {"type": "Feature", "properties": {"link_id": 204, "link_type": "sidewalk", "length_m": 6.87, "avg_width_m": 2.73, "min_width_m": 2.41, "from_node": 214, "to_node": 67}, "geometry": {"type": "LineString", "coordinates": [[-77.0452763, 38.9184522], [-77.0453114, 38.9183967]]}}, {"type": "Feature", "properties": {"link_id": 205, "link_type": "sidewalk", "length_m": 0.11, "avg_width_m": 2.67, "min_width_m": 2.58, "from_node": 211, "to_node": 215}, "geometry": {"type": "LineString", "coordinates": [[-77.0451989, 38.9185747], [-77.045198, 38.918574]]}}, {"type": "Feature", "properties": {"link_id": 206, "link_type": "pseudo", "length_m": 1.18, "avg_width_m": null, "min_width_m": null, "from_node": 215, "to_node": 216}, "geometry": {"type": "LineString", "coordinates": [[-77.045198, 38.918574], [-77.045186, 38.918569]]}}, {"type": "Feature", "properties": {"link_id": 207, "link_type": "crosswalk", "length_m": 19.55, "avg_width_m": 4.69, "min_width_m": 2.29, "from_node": 216, "to_node": 217}, "geometry": {"type": "LineString", "coordinates": [[-77.045186, 38.918569], [-77.0449646, 38.9186022]]}}, {"type": "Feature", "properties": {"link_id": 208, "link_type": "pseudo", "length_m": 2.41, "avg_width_m": null, "min_width_m": null, "from_node": 217, "to_node": 197}, "geometry": {"type": "LineString", "coordinates": [[-77.0449646, 38.9186022], [-77.0449379, 38.918608]]}}, {"type": "Feature", "properties": {"link_id": 209, "link_type": "sidewalk", "length_m": 18.03, "avg_width_m": 1.97, "min_width_m": 1.37, "from_node": 65, "to_node": 72}, "geometry": {"type": "LineString", "coordinates": [[-77.044743, 38.9196761], [-77.0448666, 38.9196384], [-77.0449413, 38.9196313]]}}, {"type": "Feature", "properties": {"link_id": 210, "link_type": "sidewalk", "length_m": 19.81, "avg_width_m": 2.06, "min_width_m": 1.29, "from_node": 65, "to_node": 218}, "geometry": {"type": "LineString", "coordinates": [[-77.044743, 38.9196761], [-77.0447107, 38.9196738], [-77.0445982, 38.9196943], [-77.0445179, 38.9196985]]}}, {"type": "Feature", "properties": {"link_id": 211, "link_type": "pseudo", "length_m": 0.11, "avg_width_m": null, "min_width_m": null, "from_node": 61, "to_node": 62}, "geometry": {"type": "LineString", "coordinates": [[-77.0462463, 38.9190867], [-77.0462454, 38.919086]]}}, {"type": "Feature", "properties": {"link_id": 212, "link_type": "sidewalk", "length_m": 6.55, "avg_width_m": 3.08, "min_width_m": 2.84, "from_node": 219, "to_node": 220}, "geometry": {"type": "LineString", "coordinates": [[-77.0440582, 38.9177587], [-77.0440832, 38.9177656], [-77.044132, 38.9177622]]}}, {"type": "Feature", "properties": {"link_id": 213, "link_type": "sidewalk", "length_m": 0.11, "avg_width_m": 4.75, "min_width_m": 4.75, "from_node": 71, "to_node": 72}, "geometry": {"type": "LineString", "coordinates": [[-77.0449422, 38.9196321], [-77.0449413, 38.9196313]]}}, {"type": "Feature", "properties": {"link_id": 214, "link_type": "crosswalk", "length_m": 0.23, "avg_width_m": null, "min_width_m": null, "from_node": 221, "to_node": 222}, "geometry": {"type": "LineString", "coordinates": [[-77.0450642, 38.9184018], [-77.0450623, 38.9184033]]}}, {"type": "Feature", "properties": {"link_id": 215, "link_type": "sidewalk", "length_m": 0.11, "avg_width_m": 2.58, "min_width_m": 2.58, "from_node": 222, "to_node": 200}, "geometry": {"type": "LineString", "coordinates": [[-77.0450623, 38.9184033], [-77.0450614, 38.918404]]}}, {"type": "Feature", "properties": {"link_id": 216, "link_type": "crosswalk", "length_m": 0.08, "avg_width_m": null, "min_width_m": null, "from_node": 221, "to_node": 223}, "geometry": {"type": "LineString", "coordinates": [[-77.0450642, 38.9184018], [-77.0450651, 38.9184018]]}}, {"type": "Feature", "properties": {"link_id": 217, "link_type": "crosswalk", "length_m": 0.08, "avg_width_m": null, "min_width_m": null, "from_node": 221, "to_node": 224}, "geometry": {"type": "LineString", "coordinates": [[-77.0450642, 38.9184018], [-77.0450641, 38.9184011]]}}, {"type": "Feature", "properties": {"link_id": 218, "link_type": "sidewalk", "length_m": 1.61, "avg_width_m": 2.74, "min_width_m": 2.58, "from_node": 48, "to_node": 17}, "geometry": {"type": "LineString", "coordinates": [[-77.0463045, 38.9191905], [-77.0462962, 38.9192034]]}}, {"type": "Feature", "properties": {"link_id": 219, "link_type": "sidewalk", "length_m": 0.11, "avg_width_m": 3.19, "min_width_m": 3.08, "from_node": 191, "to_node": 190}, "geometry": {"type": "LineString", "coordinates": [[-77.0456312, 38.9179044], [-77.0456302, 38.9179051]]}}, {"type": "Feature", "properties": {"link_id": 220, "link_type": "sidewalk", "length_m": 4.66, "avg_width_m": 2.39, "min_width_m": 2.23, "from_node": 191, "to_node": 59}, "geometry": {"type": "LineString", "coordinates": [[-77.0456312, 38.9179044], [-77.0456487, 38.9178647]]}}, {"type": "Feature", "properties": {"link_id": 221, "link_type": "sidewalk", "length_m": 0.08, "avg_width_m": 4.19, "min_width_m": 4.15, "from_node": 9, "to_node": 147}, "geometry": {"type": "LineString", "coordinates": [[-77.0457503, 38.9181292], [-77.0457494, 38.9181292]]}}, {"type": "Feature", "properties": {"link_id": 222, "link_type": "sidewalk", "length_m": 96.03, "avg_width_m": 2.22, "min_width_m": 0.93, "from_node": 137, "to_node": 30}, "geometry": {"type": "LineString", "coordinates": [[-77.0451129, 38.9195599], [-77.0452409, 38.9195273], [-77.0456081, 38.9194042], [-77.0457352, 38.919378], [-77.0457642, 38.9193631], [-77.0458036, 38.9193557], [-77.045988, 38.9192904], [-77.0461422, 38.9192468]]}}, {"type": "Feature", "properties": {"link_id": 223, "link_type": "sidewalk", "length_m": 0.11, "avg_width_m": 2.88, "min_width_m": 2.83, "from_node": 137, "to_node": 225}, "geometry": {"type": "LineString", "coordinates": [[-77.0451129, 38.9195599], [-77.0451119, 38.9195592]]}}, {"type": "Feature", "properties": {"link_id": 224, "link_type": "pseudo", "length_m": 1.04, "avg_width_m": null, "min_width_m": null, "from_node": 225, "to_node": 226}, "geometry": {"type": "LineString", "coordinates": [[-77.0451119, 38.9195592], [-77.0451055, 38.9195513]]}}, {"type": "Feature", "properties": {"link_id": 225, "link_type": "crosswalk", "length_m": 10.19, "avg_width_m": 4.3, "min_width_m": 2.22, "from_node": 226, "to_node": 227}, "geometry": {"type": "LineString", "coordinates": [[-77.0451055, 38.9195513], [-77.0450611, 38.9194663]]}}, {"type": "Feature", "properties": {"link_id": 226, "link_type": "pseudo", "length_m": 1.36, "avg_width_m": null, "min_width_m": null, "from_node": 227, "to_node": 139}, "geometry": {"type": "LineString", "coordinates": [[-77.0450611, 38.9194663], [-77.0450602, 38.919454]]}}, {"type": "Feature", "properties": {"link_id": 227, "link_type": "sidewalk", "length_m": 1.13, "avg_width_m": 2.76, "min_width_m": 2.5, "from_node": 29, "to_node": 16}, "geometry": {"type": "LineString", "coordinates": [[-77.0461431, 38.9192468], [-77.046156, 38.9192482]]}}, {"type": "Feature", "properties": {"link_id": 228, "link_type": "sidewalk", "length_m": 0.08, "avg_width_m": 2.43, "min_width_m": 2.42, "from_node": 29, "to_node": 30}, "geometry": {"type": "LineString", "coordinates": [[-77.0461431, 38.9192468], [-77.0461422, 38.9192468]]}}, {"type": "Feature", "properties": {"link_id": 229, "link_type": "sidewalk", "length_m": 8.19, "avg_width_m": 0.82, "min_width_m": 0.48, "from_node": 186, "to_node": 228}, "geometry": {"type": "LineString", "coordinates": [[-77.0442858, 38.9187985], [-77.0442932, 38.918872]]}}, {"type": "Feature", "properties": {"link_id": 230, "link_type": "sidewalk", "length_m": 0.08, "avg_width_m": 3.6, "min_width_m": 3.52, "from_node": 186, "to_node": 187}, "geometry": {"type": "LineString", "coordinates": [[-77.0442858, 38.9187985], [-77.0442858, 38.9187978]]}}, {"type": "Feature", "properties": {"link_id": 231, "link_type": "sidewalk", "length_m": 1.99, "avg_width_m": 2.55, "min_width_m": 2.49, "from_node": 182, "to_node": 223}, "geometry": {"type": "LineString", "coordinates": [[-77.0450826, 38.9183903], [-77.0450651, 38.9184018]]}}, {"type": "Feature", "properties": {"link_id": 232, "link_type": "sidewalk", "length_m": 0.11, "avg_width_m": 2.73, "min_width_m": 2.58, "from_node": 182, "to_node": 229}, "geometry": {"type": "LineString", "coordinates": [[-77.0450826, 38.9183903], [-77.0450817, 38.9183896]]}}, {"type": "Feature", "properties": {"link_id": 233, "link_type": "pseudo", "length_m": 0.79, "avg_width_m": null, "min_width_m": null, "from_node": 229, "to_node": 230}, "geometry": {"type": "LineString", "coordinates": [[-77.0450817, 38.9183896], [-77.0450734, 38.9183867]]}}, {"type": "Feature", "properties": {"link_id": 234, "link_type": "crosswalk", "length_m": 1.79, "avg_width_m": null, "min_width_m": null, "from_node": 230, "to_node": 224}, "geometry": {"type": "LineString", "coordinates": [[-77.0450734, 38.9183867], [-77.0450641, 38.9184011]]}}, {"type": "Feature", "properties": {"link_id": 235, "link_type": "sidewalk", "length_m": 18.41, "avg_width_m": 2.25, "min_width_m": 1.28, "from_node": 231, "to_node": 117}, "geometry": {"type": "LineString", "coordinates": [[-77.0440631, 38.9195985], [-77.0442752, 38.9196049]]}}, {"type": "Feature", "properties": {"link_id": 236, "link_type": "sidewalk", "length_m": 22.39, "avg_width_m": 3.88, "min_width_m": 2.42, "from_node": 95, "to_node": 130}, "geometry": {"type": "LineString", "coordinates": [[-77.0448964, 38.9186491], [-77.044885, 38.9186922], [-77.0448481, 38.9187371], [-77.0448317, 38.9187803], [-77.0448093, 38.9188087], [-77.0447821, 38.9188235]]}}, {"type": "Feature", "properties": {"link_id": 237, "link_type": "sidewalk", "length_m": 0.11, "avg_width_m": 7.47, "min_width_m": 7.36, "from_node": 95, "to_node": 96}, "geometry": {"type": "LineString", "coordinates": [[-77.0448964, 38.9186491], [-77.0448955, 38.9186484]]}}, {"type": "Feature", "properties": {"link_id": 238, "link_type": "sidewalk", "length_m": 38.56, "avg_width_m": 4.76, "min_width_m": 2.88, "from_node": 200, "to_node": 192}, "geometry": {"type": "LineString", "coordinates": [[-77.0450614, 38.918404], [-77.0450276, 38.9184124], [-77.044998, 38.9184304], [-77.0449553, 38.9184434], [-77.0449281, 38.9184591], [-77.0448849, 38.9184689], [-77.0448281, 38.9185051], [-77.044765, 38.9185295], [-77.0447335, 38.9185697], [-77.0446925, 38.91858]]}}, {"type": "Feature", "properties": {"link_id": 239, "link_type": "pseudo", "length_m": 0.11, "avg_width_m": null, "min_width_m": null, "from_node": 232, "to_node": 233}, "geometry": {"type": "LineString", "coordinates": [[-77.0454358, 38.9182071], [-77.0454367, 38.9182078]]}}, {"type": "Feature", "properties": {"link_id": 240, "link_type": "sidewalk", "length_m": 3.33, "avg_width_m": 2.1, "min_width_m": 1.65, "from_node": 233, "to_node": 234}, "geometry": {"type": "LineString", "coordinates": [[-77.0454367, 38.9182078], [-77.0454524, 38.9182352]]}}, {"type": "Feature", "properties": {"link_id": 241, "link_type": "pseudo", "length_m": 1.36, "avg_width_m": null, "min_width_m": null, "from_node": 232, "to_node": 235}, "geometry": {"type": "LineString", "coordinates": [[-77.0454358, 38.9182071], [-77.0454201, 38.9182078]]}}, {"type": "Feature", "properties": {"link_id": 242, "link_type": "crosswalk", "length_m": 19.2, "avg_width_m": 2.82, "min_width_m": 0.45, "from_node": 235, "to_node": 236}, "geometry": {"type": "LineString", "coordinates": [[-77.0454201, 38.9182078], [-77.0453409, 38.9183693]]}}, {"type": "Feature", "properties": {"link_id": 243, "link_type": "pseudo", "length_m": 1.62, "avg_width_m": null, "min_width_m": null, "from_node": 236, "to_node": 69}, "geometry": {"type": "LineString", "coordinates": [[-77.0453409, 38.9183693], [-77.0453437, 38.9183837]]}}, {"type": "Feature", "properties": {"link_id": 244, "link_type": "pseudo", "length_m": 0.11, "avg_width_m": null, "min_width_m": null, "from_node": 232, "to_node": 237}, "geometry": {"type": "LineString", "coordinates": [[-77.0454358, 38.9182071], [-77.0454367, 38.9182064]]}}, {"type": "Feature", "properties": {"link_id": 245, "link_type": "sidewalk", "length_m": 15.61, "avg_width_m": 3.08, "min_width_m": 0.36, "from_node": 237, "to_node": 206}, "geometry": {"type": "LineString", "coordinates": [[-77.0454367, 38.9182064], [-77.0454529, 38.91816], [-77.0455231, 38.9181203], [-77.0455307, 38.9180961]]}}, {"type": "Feature", "properties": {"link_id": 246, "link_type": "sidewalk", "length_m": 2.09, "avg_width_m": 0.88, "min_width_m": 0.45, "from_node": 238, "to_node": 239}, "geometry": {"type": "LineString", "coordinates": [[-77.0449893, 38.9196443], [-77.0449718, 38.9196313]]}}, {"type": "Feature", "properties": {"link_id": 247, "link_type": "sidewalk", "length_m": 3.39, "avg_width_m": 2.99, "min_width_m": 2.72, "from_node": 240, "to_node": 52}, "geometry": {"type": "LineString", "coordinates": [[-77.0445792, 38.9187984], [-77.0446069, 38.91882]]}}, {"type": "Feature", "properties": {"link_id": 248, "link_type": "sidewalk", "length_m": 0.08, "avg_width_m": 3.32, "min_width_m": 3.3, "from_node": 240, "to_node": 241}, "geometry": {"type": "LineString", "coordinates": [[-77.0445792, 38.9187984], [-77.0445782, 38.9187984]]}}, {"type": "Feature", "properties": {"link_id": 249, "link_type": "sidewalk", "length_m": 0.08, "avg_width_m": 3.42, "min_width_m": 3.34, "from_node": 240, "to_node": 242}, "geometry": {"type": "LineString", "coordinates": [[-77.0445792, 38.9187984], [-77.0445792, 38.9187977]]}}, {"type": "Feature", "properties": {"link_id": 250, "link_type": "sidewalk", "length_m": 0.11, "avg_width_m": 2.46, "min_width_m": 2.44, "from_node": 40, "to_node": 119}, "geometry": {"type": "LineString", "coordinates": [[-77.0448856, 38.9190714], [-77.0448847, 38.9190707]]}}, {"type": "Feature", "properties": {"link_id": 251, "link_type": "sidewalk", "length_m": 34.19, "avg_width_m": 1.83, "min_width_m": 1.28, "from_node": 112, "to_node": 177}, "geometry": {"type": "LineString", "coordinates": [[-77.0448591, 38.9194353], [-77.0448738, 38.9194514], [-77.0448843, 38.9194885], [-77.044881, 38.919498], [-77.0448673, 38.9195072], [-77.0448333, 38.9195225], [-77.044773, 38.9195409], [-77.0445926, 38.9195753]]}}, {"type": "Feature", "properties": {"link_id": 252, "link_type": "pseudo", "length_m": 1.3, "avg_width_m": null, "min_width_m": null, "from_node": 100, "to_node": 243}, "geometry": {"type": "LineString", "coordinates": [[-77.0450981, 38.9195844], [-77.0450833, 38.9195866]]}}, {"type": "Feature", "properties": {"link_id": 253, "link_type": "crosswalk", "length_m": 9.86, "avg_width_m": 4.41, "min_width_m": 2.22, "from_node": 243, "to_node": 244}, "geometry": {"type": "LineString", "coordinates": [[-77.0450833, 38.9195866], [-77.0449782, 38.9196205]]}}, {"type": "Feature", "properties": {"link_id": 254, "link_type": "pseudo", "length_m": 1.25, "avg_width_m": null, "min_width_m": null, "from_node": 244, "to_node": 245}, "geometry": {"type": "LineString", "coordinates": [[-77.0449782, 38.9196205], [-77.0449718, 38.9196306]]}}, {"type": "Feature", "properties": {"link_id": 255, "link_type": "crosswalk", "length_m": 0.11, "avg_width_m": null, "min_width_m": null, "from_node": 224, "to_node": 223}, "geometry": {"type": "LineString", "coordinates": [[-77.0450641, 38.9184011], [-77.0450651, 38.9184018]]}}, {"type": "Feature", "properties": {"link_id": 256, "link_type": "sidewalk", "length_m": 0.8, "avg_width_m": 0.53, "min_width_m": 0.32, "from_node": 246, "to_node": 84}, "geometry": {"type": "LineString", "coordinates": [[-77.0455676, 38.9180759], [-77.0455584, 38.9180752]]}}, {"type": "Feature", "properties": {"link_id": 257, "link_type": "pseudo", "length_m": 0.11, "avg_width_m": null, "min_width_m": null, "from_node": 92, "to_node": 91}, "geometry": {"type": "LineString", "coordinates": [[-77.0442078, 38.9178926], [-77.0442068, 38.9178934]]}}, {"type": "Feature", "properties": {"link_id": 258, "link_type": "sidewalk", "length_m": 0.08, "avg_width_m": 2.43, "min_width_m": 2.42, "from_node": 73, "to_node": 239}, "geometry": {"type": "LineString", "coordinates": [[-77.0449708, 38.9196313], [-77.0449718, 38.9196313]]}}, {"type": "Feature", "properties": {"link_id": 259, "link_type": "sidewalk", "length_m": 0.11, "avg_width_m": 2.47, "min_width_m": 2.45, "from_node": 73, "to_node": 245}, "geometry": {"type": "LineString", "coordinates": [[-77.0449708, 38.9196313], [-77.0449718, 38.9196306]]}}, {"type": "Feature", "properties": {"link_id": 260, "link_type": "pseudo", "length_m": 0.08, "avg_width_m": null, "min_width_m": null, "from_node": 245, "to_node": 239}, "geometry": {"type": "LineString", "coordinates": [[-77.0449718, 38.9196306], [-77.0449718, 38.9196313]]}}, {"type": "Feature", "properties": {"link_id": 261, "link_type": "pseudo", "length_m": 0.11, "avg_width_m": null, "min_width_m": null, "from_node": 139, "to_node": 35}, "geometry": {"type": "LineString", "coordinates": [[-77.0450602, 38.919454], [-77.0450593, 38.9194533]]}}, {"type": "Feature", "properties": {"link_id": 262, "link_type": "sidewalk", "length_m": 0.08, "avg_width_m": 3.82, "min_width_m": 3.8, "from_node": 151, "to_node": 42}, "geometry": {"type": "LineString", "coordinates": [[-77.0443526, 38.9178602], [-77.0443526, 38.9178594]]}}, {"type": "Feature", "properties": {"link_id": 263, "link_type": "sidewalk", "length_m": 0.11, "avg_width_m": 3.33, "min_width_m": 3.24, "from_node": 177, "to_node": 176}, "geometry": {"type": "LineString", "coordinates": [[-77.0445926, 38.9195753], [-77.0445916, 38.919576]]}}, {"type": "Feature", "properties": {"link_id": 264, "link_type": "pseudo", "length_m": 1.5, "avg_width_m": null, "min_width_m": null, "from_node": 183, "to_node": 247}, "geometry": {"type": "LineString", "coordinates": [[-77.0451066, 38.9183521], [-77.0451222, 38.9183578]]}}, {"type": "Feature", "properties": {"link_id": 265, "link_type": "crosswalk", "length_m": 16.17, "avg_width_m": 5.3, "min_width_m": 2.27, "from_node": 247, "to_node": 248}, "geometry": {"type": "LineString", "coordinates": [[-77.0451222, 38.9183578], [-77.045304, 38.9183902]]}}, {"type": "Feature", "properties": {"link_id": 266, "link_type": "pseudo", "length_m": 0.96, "avg_width_m": null, "min_width_m": null, "from_node": 248, "to_node": 67}, "geometry": {"type": "LineString", "coordinates": [[-77.045304, 38.9183902], [-77.0453114, 38.9183967]]}}, {"type": "Feature", "properties": {"link_id": 267, "link_type": "pseudo", "length_m": 0.11, "avg_width_m": null, "min_width_m": null, "from_node": 183, "to_node": 184}, "geometry": {"type": "LineString", "coordinates": [[-77.0451066, 38.9183521], [-77.0451056, 38.9183514]]}}, {"type": "Feature", "properties": {"link_id": 268, "link_type": "sidewalk", "length_m": 8.77, "avg_width_m": 2.56, "min_width_m": 2.02, "from_node": 78, "to_node": 249}, "geometry": {"type": "LineString", "coordinates": [[-77.0442255, 38.9197318], [-77.0442034, 38.9198089]]}}, {"type": "Feature", "properties": {"link_id": 269, "link_type": "sidewalk", "length_m": 0.11, "avg_width_m": 4.6, "min_width_m": 4.52, "from_node": 78, "to_node": 79}, "geometry": {"type": "LineString", "coordinates": [[-77.0442255, 38.9197318], [-77.0442264, 38.9197311]]}}, {"type": "Feature", "properties": {"link_id": 270, "link_type": "pseudo", "length_m": 2.25, "avg_width_m": null, "min_width_m": null, "from_node": 79, "to_node": 250}, "geometry": {"type": "LineString", "coordinates": [[-77.0442264, 38.9197311], [-77.0442523, 38.9197289]]}}, {"type": "Feature", "properties": {"link_id": 271, "link_type": "crosswalk", "length_m": 19.53, "avg_width_m": 4.38, "min_width_m": 0.36, "from_node": 250, "to_node": 251}, "geometry": {"type": "LineString", "coordinates": [[-77.0442523, 38.9197289], [-77.0444764, 38.9197115]]}}, {"type": "Feature", "properties": {"link_id": 272, "link_type": "pseudo", "length_m": 0.68, "avg_width_m": null, "min_width_m": null, "from_node": 251, "to_node": 87}, "geometry": {"type": "LineString", "coordinates": [[-77.0444764, 38.9197115], [-77.044482, 38.9197158]]}}, {"type": "Feature", "properties": {"link_id": 273, "link_type": "sidewalk", "length_m": 0.11, "avg_width_m": 1.28, "min_width_m": 1.22, "from_node": 84, "to_node": 85}, "geometry": {"type": "LineString", "coordinates": [[-77.0455584, 38.9180752], [-77.0455575, 38.9180745]]}}, {"type": "Feature", "properties": {"link_id": 274, "link_type": "sidewalk", "length_m": 10.18, "avg_width_m": 3.58, "min_width_m": 1.79, "from_node": 252, "to_node": 46}, "geometry": {"type": "LineString", "coordinates": [[-77.0440812, 38.9176599], [-77.0441138, 38.9176813], [-77.0441366, 38.917737]]}}, {"type": "Feature", "properties": {"link_id": 275, "link_type": "sidewalk", "length_m": 1.67, "avg_width_m": 2.63, "min_width_m": 2.53, "from_node": 19, "to_node": 62}, "geometry": {"type": "LineString", "coordinates": [[-77.0462269, 38.9190817], [-77.0462454, 38.919086]]}}, {"type": "Feature", "properties": {"link_id": 276, "link_type": "sidewalk", "length_m": 3.52, "avg_width_m": 1.84, "min_width_m": 1.28, "from_node": 253, "to_node": 169}, "geometry": {"type": "LineString", "coordinates": [[-77.044642, 38.9190081], [-77.0446798, 38.9189965]]}}, {"type": "Feature", "properties": {"link_id": 277, "link_type": "pseudo", "length_m": 0.11, "avg_width_m": null, "min_width_m": null, "from_node": 197, "to_node": 97}, "geometry": {"type": "LineString", "coordinates": [[-77.0449379, 38.918608], [-77.044937, 38.9186087]]}}, {"type": "Feature", "properties": {"link_id": 278, "link_type": "pseudo", "length_m": 1.7, "avg_width_m": null, "min_width_m": null, "from_node": 85, "to_node": 254}, "geometry": {"type": "LineString", "coordinates": [[-77.0455575, 38.9180745], [-77.045551, 38.91806]]}}, {"type": "Feature", "properties": {"link_id": 279, "link_type": "crosswalk", "length_m": 17.81, "avg_width_m": 4.01, "min_width_m": 1.01, "from_node": 254, "to_node": 255}, "geometry": {"type": "LineString", "coordinates": [[-77.045551, 38.91806], [-77.0456136, 38.9179072]]}}, {"type": "Feature", "properties": {"link_id": 280, "link_type": "pseudo", "length_m": 1.46, "avg_width_m": null, "min_width_m": null, "from_node": 255, "to_node": 190}, "geometry": {"type": "LineString", "coordinates": [[-77.0456136, 38.9179072], [-77.0456302, 38.9179051]]}}, {"type": "Feature", "properties": {"link_id": 281, "link_type": "pseudo", "length_m": 0.11, "avg_width_m": null, "min_width_m": null, "from_node": 126, "to_node": 169}, "geometry": {"type": "LineString", "coordinates": [[-77.0446808, 38.9189958], [-77.0446798, 38.9189965]]}}, {"type": "Feature", "properties": {"link_id": 282, "link_type": "sidewalk", "length_m": 0.11, "avg_width_m": 3.49, "min_width_m": 3.39, "from_node": 155, "to_node": 55}, "geometry": {"type": "LineString", "coordinates": [[-77.0447313, 38.9187277], [-77.0447304, 38.9187284]]}}, {"type": "Feature", "properties": {"link_id": 283, "link_type": "sidewalk", "length_m": 3.66, "avg_width_m": 3.1, "min_width_m": 2.94, "from_node": 87, "to_node": 218}, "geometry": {"type": "LineString", "coordinates": [[-77.044482, 38.9197158], [-77.0445179, 38.9196985]]}}, {"type": "Feature", "properties": {"link_id": 284, "link_type": "sidewalk", "length_m": 0.08, "avg_width_m": 4.29, "min_width_m": 4.27, "from_node": 178, "to_node": 256}, "geometry": {"type": "LineString", "coordinates": [[-77.0445815, 38.9195724], [-77.0445806, 38.9195724]]}}, {"type": "Feature", "properties": {"link_id": 285, "link_type": "pseudo", "length_m": 2.8, "avg_width_m": null, "min_width_m": null, "from_node": 256, "to_node": 257}, "geometry": {"type": "LineString", "coordinates": [[-77.0445806, 38.9195724], [-77.0445483, 38.9195731]]}}, {"type": "Feature", "properties": {"link_id": 286, "link_type": "crosswalk", "length_m": 20.76, "avg_width_m": 4.5, "min_width_m": 0.16, "from_node": 257, "to_node": 258}, "geometry": {"type": "LineString", "coordinates": [[-77.0445483, 38.9195731], [-77.0443103, 38.9195934]]}}, {"type": "Feature", "properties": {"link_id": 287, "link_type": "pseudo", "length_m": 0.49, "avg_width_m": null, "min_width_m": null, "from_node": 258, "to_node": 259}, "geometry": {"type": "LineString", "coordinates": [[-77.0443103, 38.9195934], [-77.0443112, 38.9195977]]}}, {"type": "Feature", "properties": {"link_id": 288, "link_type": "sidewalk", "length_m": 3.22, "avg_width_m": 2.79, "min_width_m": 2.64, "from_node": 259, "to_node": 117}, "geometry": {"type": "LineString", "coordinates": [[-77.0443112, 38.9195977], [-77.0442752, 38.9196049]]}}, {"type": "Feature", "properties": {"link_id": 289, "link_type": "sidewalk", "length_m": 0.11, "avg_width_m": 2.58, "min_width_m": 2.5, "from_node": 59, "to_node": 260}, "geometry": {"type": "LineString", "coordinates": [[-77.0456487, 38.9178647], [-77.0456477, 38.917864]]}}, {"type": "Feature", "properties": {"link_id": 290, "link_type": "pseudo", "length_m": 1.43, "avg_width_m": null, "min_width_m": null, "from_node": 260, "to_node": 261}, "geometry": {"type": "LineString", "coordinates": [[-77.0456477, 38.917864], [-77.045633, 38.9178582]]}}, {"type": "Feature", "properties": {"link_id": 291, "link_type": "crosswalk", "length_m": 15.14, "avg_width_m": 5.35, "min_width_m": 3.24, "from_node": 261, "to_node": 262}, "geometry": {"type": "LineString", "coordinates": [[-77.045633, 38.9178582], [-77.0454789, 38.9177941]]}}, {"type": "Feature", "properties": {"link_id": 292, "link_type": "pseudo", "length_m": 2.43, "avg_width_m": null, "min_width_m": null, "from_node": 262, "to_node": 133}, "geometry": {"type": "LineString", "coordinates": [[-77.0454789, 38.9177941], [-77.0454586, 38.917779]]}}, {"type": "Feature", "properties": {"link_id": 293, "link_type": "pseudo", "length_m": 0.11, "avg_width_m": null, "min_width_m": null, "from_node": 46, "to_node": 263}, "geometry": {"type": "LineString", "coordinates": [[-77.0441366, 38.917737], [-77.0441357, 38.9177377]]}}, {"type": "Feature", "properties": {"link_id": 294, "link_type": "sidewalk", "length_m": 2.74, "avg_width_m": 3.13, "min_width_m": 3.04, "from_node": 263, "to_node": 220}, "geometry": {"type": "LineString", "coordinates": [[-77.0441357, 38.9177377], [-77.044132, 38.9177622]]}}, {"type": "Feature", "properties": {"link_id": 295, "link_type": "sidewalk", "length_m": 0.08, "avg_width_m": 3.76, "min_width_m": 3.68, "from_node": 93, "to_node": 110}, "geometry": {"type": "LineString", "coordinates": [[-77.0441792, 38.9178782], [-77.0441792, 38.9178775]]}}, {"type": "Feature", "properties": {"link_id": 296, "link_type": "sidewalk", "length_m": 0.11, "avg_width_m": 3.36, "min_width_m": 3.24, "from_node": 220, "to_node": 264}, "geometry": {"type": "LineString", "coordinates": [[-77.044132, 38.9177622], [-77.044133, 38.917763]]}}, {"type": "Feature", "properties": {"link_id": 297, "link_type": "pseudo", "length_m": 1.65, "avg_width_m": null, "min_width_m": null, "from_node": 264, "to_node": 265}, "geometry": {"type": "LineString", "coordinates": [[-77.044133, 38.917763], [-77.044145, 38.9177745]]}}, {"type": "Feature", "properties": {"link_id": 298, "link_type": "crosswalk", "length_m": 10.53, "avg_width_m": 4.2, "min_width_m": 2.24, "from_node": 265, "to_node": 266}, "geometry": {"type": "LineString", "coordinates": [[-77.044145, 38.9177745], [-77.0441856, 38.9178638]]}}, {"type": "Feature", "properties": {"link_id": 299, "link_type": "pseudo", "length_m": 1.62, "avg_width_m": null, "min_width_m": null, "from_node": 266, "to_node": 110}, "geometry": {"type": "LineString", "coordinates": [[-77.0441856, 38.9178638], [-77.0441792, 38.9178775]]}}, {"type": "Feature", "properties": {"link_id": 300, "link_type": "sidewalk", "length_m": 0.11, "avg_width_m": 4.3, "min_width_m": 4.19, "from_node": 267, "to_node": 268}, "geometry": {"type": "LineString", "coordinates": [[-77.0445219, 38.9186766], [-77.0445228, 38.9186773]]}}, {"type": "Feature", "properties": {"link_id": 301, "link_type": "pseudo", "length_m": 1.87, "avg_width_m": null, "min_width_m": null, "from_node": 268, "to_node": 269}, "geometry": {"type": "LineString", "coordinates": [[-77.0445228, 38.9186773], [-77.0445385, 38.9186889]]}}, {"type": "Feature", "properties": {"link_id": 302, "link_type": "crosswalk", "length_m": 11.94, "avg_width_m": 4.06, "min_width_m": 0.48, "from_node": 269, "to_node": 270}, "geometry": {"type": "LineString", "coordinates": [[-77.0445385, 38.9186889], [-77.044581, 38.9187912]]}}, {"type": "Feature", "properties": {"link_id": 303, "link_type": "pseudo", "length_m": 0.74, "avg_width_m": null, "min_width_m": null, "from_node": 270, "to_node": 242}, "geometry": {"type": "LineString", "coordinates": [[-77.044581, 38.9187912], [-77.0445792, 38.9187977]]}}, {"type": "Feature", "properties": {"link_id": 304, "link_type": "sidewalk", "length_m": 42.18, "avg_width_m": 3.17, "min_width_m": 1.79, "from_node": 267, "to_node": 271}, "geometry": {"type": "LineString", "coordinates": [[-77.0445219, 38.9186766], [-77.0444942, 38.918684], [-77.0444435, 38.918686], [-77.0443153, 38.918679], [-77.0442553, 38.9186852], [-77.0442101, 38.9186792], [-77.044164, 38.9186835], [-77.0440874, 38.9186808], [-77.0440664, 38.9186852], [-77.0440496, 38.9187013]]}}, {"type": "Feature", "properties": {"link_id": 305, "link_type": "sidewalk", "length_m": 2.08, "avg_width_m": 4.23, "min_width_m": 4.15, "from_node": 267, "to_node": 272}, "geometry": {"type": "LineString", "coordinates": [[-77.0445219, 38.9186766], [-77.044533, 38.91866]]}}, {"type": "Feature", "properties": {"link_id": 306, "link_type": "sidewalk", "length_m": 40.27, "avg_width_m": 3.48, "min_width_m": 1.72, "from_node": 273, "to_node": 274}, "geometry": {"type": "LineString", "coordinates": [[-77.0443287, 38.9195509], [-77.0443645, 38.9195219], [-77.0443835, 38.9194819], [-77.044416, 38.9194434], [-77.0444769, 38.9193407], [-77.044506, 38.9193079], [-77.0445477, 38.9192341]]}}, {"type": "Feature", "properties": {"link_id": 307, "link_type": "midblock", "length_m": 9.84, "avg_width_m": null, "min_width_m": null, "from_node": 274, "to_node": 275}, "geometry": {"type": "LineString", "coordinates": [[-77.0445477, 38.9192341], [-77.0445936, 38.9191531]]}}, {"type": "Feature", "properties": {"link_id": 308, "link_type": "sidewalk", "length_m": 11.75, "avg_width_m": 2.41, "min_width_m": 1.79, "from_node": 275, "to_node": 168}, "geometry": {"type": "LineString", "coordinates": [[-77.0445936, 38.9191531], [-77.0446059, 38.9191313], [-77.0446577, 38.91906]]}}, {"type": "Feature", "properties": {"link_id": 309, "link_type": "sidewalk", "length_m": 40.49, "avg_width_m": 3.04, "min_width_m": 1.93, "from_node": 91, "to_node": 276}, "geometry": {"type": "LineString", "coordinates": [[-77.0442068, 38.9178934], [-77.04423, 38.9179416], [-77.0442408, 38.9179986], [-77.0442676, 38.9180389], [-77.0442771, 38.9180747], [-77.0443037, 38.9181095], [-77.0443165, 38.9181606], [-77.0443338, 38.9181904], [-77.0443396, 38.9182255], [-77.0443486, 38.9182362]]}}, {"type": "Feature", "properties": {"link_id": 310, "link_type": "midblock", "length_m": 8.17, "avg_width_m": null, "min_width_m": null, "from_node": 276, "to_node": 277}, "geometry": {"type": "LineString", "coordinates": [[-77.0443486, 38.9182362], [-77.0443667, 38.9182577], [-77.0443876, 38.9183027]]}}, {"type": "Feature", "properties": {"link_id": 311, "link_type": "sidewalk", "length_m": 41.77, "avg_width_m": 2.87, "min_width_m": 1.65, "from_node": 277, "to_node": 272}, "geometry": {"type": "LineString", "coordinates": [[-77.0443876, 38.9183027], [-77.0444288, 38.918415], [-77.0444501, 38.9184475], [-77.0444616, 38.9184913], [-77.0445265, 38.9186276], [-77.044533, 38.91866]]}}, {"type": "Feature", "properties": {"link_id": 312, "link_type": "sidewalk", "length_m": 0.11, "avg_width_m": 2.83, "min_width_m": 2.72, "from_node": 142, "to_node": 161}, "geometry": {"type": "LineString", "coordinates": [[-77.0460932, 38.9191221], [-77.0460941, 38.9191214]]}}, {"type": "Feature", "properties": {"link_id": 313, "link_type": "pseudo", "length_m": 2.08, "avg_width_m": null, "min_width_m": null, "from_node": 272, "to_node": 278}, "geometry": {"type": "LineString", "coordinates": [[-77.044533, 38.91866], [-77.0445569, 38.91866]]}}, {"type": "Feature", "properties": {"link_id": 314, "link_type": "crosswalk", "length_m": 11.12, "avg_width_m": 3.63, "min_width_m": 2.58, "from_node": 278, "to_node": 279}, "geometry": {"type": "LineString", "coordinates": [[-77.0445569, 38.91866], [-77.0446538, 38.9185944]]}}, {"type": "Feature", "properties": {"link_id": 315, "link_type": "pseudo", "length_m": 2.11, "avg_width_m": null, "min_width_m": null, "from_node": 279, "to_node": 280}, "geometry": {"type": "LineString", "coordinates": [[-77.0446538, 38.9185944], [-77.0446325, 38.918585]]}}, {"type": "Feature", "properties": {"link_id": 316, "link_type": "sidewalk", "length_m": 36.58, "avg_width_m": 3.99, "min_width_m": 1.79, "from_node": 133, "to_node": 281}, "geometry": {"type": "LineString", "coordinates": [[-77.0454586, 38.917779], [-77.0454183, 38.9178026], [-77.0454241, 38.9178338], [-77.0454159, 38.9178633], [-77.0453654, 38.9179302], [-77.0453097, 38.9180349], [-77.0452884, 38.9180685]]}}, {"type": "Feature", "properties": {"link_id": 317, "link_type": "midblock", "length_m": 2.16, "avg_width_m": null, "min_width_m": null, "from_node": 281, "to_node": 282}, "geometry": {"type": "LineString", "coordinates": [[-77.0452884, 38.9180685], [-77.0452773, 38.9180859]]}}, {"type": "Feature", "properties": {"link_id": 318, "link_type": "sidewalk", "length_m": 33.18, "avg_width_m": 3.11, "min_width_m": 1.07, "from_node": 282, "to_node": 184}, "geometry": {"type": "LineString", "coordinates": [[-77.0452773, 38.9180859], [-77.0452314, 38.9181581], [-77.045192, 38.9182008], [-77.0451734, 38.918249], [-77.0451056, 38.9183514]]}}, {"type": "Feature", "properties": {"link_id": 319, "link_type": "sidewalk", "length_m": 25.38, "avg_width_m": 2.51, "min_width_m": 1.76, "from_node": 187, "to_node": 241}, "geometry": {"type": "LineString", "coordinates": [[-77.0442858, 38.9187978], [-77.0444648, 38.9188027], [-77.0445782, 38.9187984]]}}, {"type": "Feature", "properties": {"link_id": 320, "link_type": "pseudo", "length_m": 1.28, "avg_width_m": null, "min_width_m": null, "from_node": 218, "to_node": 283}, "geometry": {"type": "LineString", "coordinates": [[-77.0445179, 38.9196985], [-77.0445179, 38.919687]]}}, {"type": "Feature", "properties": {"link_id": 321, "link_type": "crosswalk", "length_m": 12.69, "avg_width_m": 4.16, "min_width_m": 1.79, "from_node": 283, "to_node": 284}, "geometry": {"type": "LineString", "coordinates": [[-77.0445179, 38.919687], [-77.0445917, 38.9195882]]}}, {"type": "Feature", "properties": {"link_id": 322, "link_type": "pseudo", "length_m": 1.36, "avg_width_m": null, "min_width_m": null, "from_node": 284, "to_node": 176}, "geometry": {"type": "LineString", "coordinates": [[-77.0445917, 38.9195882], [-77.0445916, 38.919576]]}}, {"type": "Feature", "properties": {"link_id": 323, "link_type": "sidewalk", "length_m": 0.11, "avg_width_m": 3.38, "min_width_m": 3.3, "from_node": 241, "to_node": 242}, "geometry": {"type": "LineString", "coordinates": [[-77.0445782, 38.9187984], [-77.0445792, 38.9187977]]}}, {"type": "Feature", "properties": {"link_id": 324, "link_type": "sidewalk", "length_m": 0.11, "avg_width_m": 5.99, "min_width_m": 5.94, "from_node": 206, "to_node": 83}, "geometry": {"type": "LineString", "coordinates": [[-77.0455307, 38.9180961], [-77.0455317, 38.9180954]]}}]}