{"type": "FeatureCollection", "features": [{"type": "Feature", "properties": {"link_id": 0, "link_type": "sidewalk", "length_m": 48.28, "avg_width_m": 2.43, "min_width_m": 1.28, "from_node": 0, "to_node": 1}, "geometry": {"type": "LineString", "coordinates": [[395940.21, 139019.18], [395945.251, 139022.761], [395949.49, 139023.413], [395959.81, 139028.04], [395964.179, 139028.572], [395967.754, 139030.764], [395972.137, 139031.56], [395974.647, 139033.561], [395979.808, 139034.671], [395984.37, 139036.62]]}}, {"type": "Feature", "properties": {"link_id": 1, "link_type": "sidewalk", "length_m": 29.1, "avg_width_m": 2.37, "min_width_m": 1.07, "from_node": 2, "to_node": 3}, "geometry": {"type": "LineString", "coordinates": [[395948.69, 138885.34], [395950.12, 138886.713], [395953.787, 138887.81], [395959.41, 138890.789], [395972.515, 138895.273], [395975.172, 138896.822]]}}, {"type": "Feature", "properties": {"link_id": 2, "link_type": "midblock", "length_m": 5.09, "avg_width_m": null, "min_width_m": null, "from_node": 3, "to_node": 4}, "geometry": {"type": "LineString", "coordinates": [[395975.172, 138896.822], [395976.058, 138897.339], [395979.964, 138898.469]]}}, {"type": "Feature", "properties": {"link_id": 3, "link_type": "sidewalk", "length_m": 6.39, "avg_width_m": 1.94, "min_width_m": 1.37, "from_node": 4, "to_node": 5}, "geometry": {"type": "LineString", "coordinates": [[395979.964, 138898.469], [395981.955, 138899.044], [395985.879, 138900.846]]}}, {"type": "Feature", "properties": {"link_id": 4, "link_type": "midblock", "length_m": 4.4, "avg_width_m": null, "min_width_m": null, "from_node": 5, "to_node": 6}, "geometry": {"type": "LineString", "coordinates": [[395985.879, 138900.846], [395989.876, 138902.681]]}}, {"type": "Feature", "properties": {"link_id": 5, "link_type": "sidewalk", "length_m": 21.87, "avg_width_m": 2.91, "min_width_m": 2.02, "from_node": 6, "to_node": 7}, "geometry": {"type": "LineString", "coordinates": [[395989.876, 138902.681], [395990.53, 138902.981], [395996.202, 138904.159], [396000.136, 138906.436], [396008.168, 138908.69], [396010.301, 138909.935]]}}, {"type": "Feature", "properties": {"link_id": 6, "link_type": "midblock", "length_m": 5.98, "avg_width_m": null, "min_width_m": null, "from_node": 7, "to_node": 8}, "geometry": {"type": "LineString", "coordinates": [[396010.301, 138909.935], [396015.186, 138912.784], [396015.483, 138912.903]]}}, {"type": "Feature", "properties": {"link_id": 7, "link_type": "sidewalk", "length_m": 18.01, "avg_width_m": 2.97, "min_width_m": 2.02, "from_node": 8, "to_node": 9}, "geometry": {"type": "LineString", "coordinates": [[396015.483, 138912.903], [396027.89, 138917.837], [396032.45, 138918.78]]}}, {"type": "Feature", "properties": {"link_id": 8, "link_type": "sidewalk", "length_m": 5.88, "avg_width_m": 3.52, "min_width_m": 3.39, "from_node": 2, "to_node": 10}, "geometry": {"type": "LineString", "coordinates": [[395948.69, 138885.34], [395946.184, 138884.652], [395943.89, 138882.3]]}}, {"type": "Feature", "properties": {"link_id": 9, "link_type": "sidewalk", "length_m": 10.21, "avg_width_m": 1.23, "min_width_m": 0.48, "from_node": 2, "to_node": 11}, "geometry": {"type": "LineString", "coordinates": [[395948.69, 138885.34], [395949.874, 138882.937], [395949.306, 138878.86], [395950.69, 138875.74]]}}, {"type": "Feature", "properties": {"link_id": 10, "link_type": "pseudo", "length_m": 0.08, "avg_width_m": null, "min_width_m": null, "from_node": 12, "to_node": 13}, "geometry": {"type": "LineString", "coordinates": [[395985.25, 139038.14], [395985.17, 139038.14]]}}, {"type": "Feature", "properties": {"link_id": 11, "link_type": "pseudo", "length_m": 1.71, "avg_width_m": null, "min_width_m": null, "from_node": 12, "to_node": 14}, "geometry": {"type": "LineString", "coordinates": [[395985.25, 139038.14], [395986.93, 139038.46]]}}, {"type": "Feature", "properties": {"link_id": 12, "link_type": "crosswalk", "length_m": 10.1, "avg_width_m": 4.36, "min_width_m": 1.95, "from_node": 14, "to_node": 15}, "geometry": {"type": "LineString", "coordinates": [[395986.93, 139038.46], [395996.37, 139042.06]]}}, {"type": "Feature", "properties": {"link_id": 13, "link_type": "pseudo", "length_m": 1.36, "avg_width_m": null, "min_width_m": null, "from_node": 15, "to_node": 16}, "geometry": {"type": "LineString", "coordinates": [[395996.37, 139042.06], [395997.33, 139043.02]]}}, {"type": "Feature", "properties": {"link_id": 14, "link_type": "pseudo", "length_m": 0.11, "avg_width_m": null, "min_width_m": null, "from_node": 12, "to_node": 17}, "geometry": {"type": "LineString", "coordinates": [[395985.25, 139038.14], [395985.17, 139038.06]]}}, {"type": "Feature", "properties": {"link_id": 15, "link_type": "sidewalk", "length_m": 0.08, "avg_width_m": 3.04, "min_width_m": 3.01, "from_node": 18, "to_node": 19}, "geometry": {"type": "LineString", "coordinates": [[395991.17, 139024.46], [395991.17, 139024.54]]}}, {"type": "Feature", "properties": {"link_id": 16, "link_type": "sidewalk", "length_m": 0.11, "avg_width_m": 2.98, "min_width_m": 2.86, "from_node": 18, "to_node": 20}, "geometry": {"type": "LineString", "coordinates": [[395991.17, 139024.46], [395991.25, 139024.54]]}}, {"type": "Feature", "properties": {"link_id": 17, "link_type": "sidewalk", "length_m": 54.8, "avg_width_m": 2.48, "min_width_m": 1.01, "from_node": 18, "to_node": 21}, "geometry": {"type": "LineString", "coordinates": [[395991.17, 139024.46], [395992.613, 139019.838], [395994.51, 139016.54], [395996.208, 139012.22], [395996.977, 139007.85], [395999.083, 139004.609], [396000.835, 138998.723], [396002.43, 138996.113], [396003.638, 138993.1], [396004.579, 138989.201], [396006.37, 138986.501], [396007.307, 138984.38], [396008.664, 138978.886], [396010.585, 138975.808], [396011.324, 138974.05]]}}, {"type": "Feature", "properties": {"link_id": 18, "link_type": "midblock", "length_m": 5.64, "avg_width_m": null, "min_width_m": null, "from_node": 21, "to_node": 22}, "geometry": {"type": "LineString", "coordinates": [[396011.324, 138974.05], [396013.51, 138968.851]]}}, {"type": "Feature", "properties": {"link_id": 19, "link_type": "sidewalk", "length_m": 97.98, "avg_width_m": 2.95, "min_width_m": 1.48, "from_node": 22, "to_node": 23}, "geometry": {"type": "LineString", "coordinates": [[396013.51, 138968.851], [396014.28, 138967.02], [396014.891, 138965.02], [396015.421, 138961.116], [396017.746, 138957.414], [396018.763, 138954.94], [396019.584, 138951.629], [396021.101, 138949.298], [396021.911, 138947.5], [396022.844, 138943.624], [396024.598, 138940.539], [396025.799, 138937.74], [396027.04, 138933.9], [396027.193, 138932.469], [396027.037, 138931.498], [396026.068, 138930.44], [396023.17, 138929.098], [396018.459, 138928.056], [396014.527, 138925.758], [396009.253, 138924.563], [396003.882, 138921.618], [395998.29, 138920.174], [395992.85, 138918.087], [395985.65, 138914.604], [395982.29, 138913.595], [395978.29, 138911.482], [395974.081, 138909.787]]}}, {"type": "Feature", "properties": {"link_id": 20, "link_type": "midblock", "length_m": 6.53, "avg_width_m": null, "min_width_m": null, "from_node": 23, "to_node": 24}, "geometry": {"type": "LineString", "coordinates": [[395974.081, 138909.787], [395968.025, 138907.35]]}}, {"type": "Feature", "properties": {"link_id": 21, "link_type": "sidewalk", "length_m": 7.41, "avg_width_m": 2.82, "min_width_m": 2.33, "from_node": 24, "to_node": 25}, "geometry": {"type": "LineString", "coordinates": [[395968.025, 138907.35], [395966.77, 138906.844], [395962.633, 138905.652], [395961.095, 138904.821]]}}, {"type": "Feature", "properties": {"link_id": 22, "link_type": "midblock", "length_m": 5.4, "avg_width_m": null, "min_width_m": null, "from_node": 25, "to_node": 26}, "geometry": {"type": "LineString", "coordinates": [[395961.095, 138904.821], [395958.929, 138903.649], [395956.128, 138902.759]]}}, {"type": "Feature", "properties": {"link_id": 23, "link_type": "sidewalk", "length_m": 13.65, "avg_width_m": 2.86, "min_width_m": 2.08, "from_node": 26, "to_node": 27}, "geometry": {"type": "LineString", "coordinates": [[395956.128, 138902.759], [395951.89, 138901.413], [395947.81, 138899.411], [395943.25, 138898.46]]}}, {"type": "Feature", "properties": {"link_id": 24, "link_type": "pseudo", "length_m": 0.11, "avg_width_m": null, "min_width_m": null, "from_node": 28, "to_node": 29}, "geometry": {"type": "LineString", "coordinates": [[395998.53, 139042.78], [395998.45, 139042.86]]}}, {"type": "Feature", "properties": {"link_id": 25, "link_type": "pseudo", "length_m": 0.08, "avg_width_m": null, "min_width_m": null, "from_node": 28, "to_node": 30}, "geometry": {"type": "LineString", "coordinates": [[395998.53, 139042.78], [395998.53, 139042.86]]}}, {"type": "Feature", "properties": {"link_id": 26, "link_type": "pseudo", "length_m": 1.75, "avg_width_m": null, "min_width_m": null, "from_node": 28, "to_node": 31}, "geometry": {"type": "LineString", "coordinates": [[395998.53, 139042.78], [395999.01, 139041.1]]}}, {"type": "Feature", "properties": {"link_id": 27, "link_type": "crosswalk", "length_m": 9.86, "avg_width_m": 4.28, "min_width_m": 2.99, "from_node": 31, "to_node": 32}, "geometry": {"type": "LineString", "coordinates": [[395999.01, 139041.1], [396002.77, 139031.98]]}}, {"type": "Feature", "properties": {"link_id": 28, "link_type": "pseudo", "length_m": 1.38, "avg_width_m": null, "min_width_m": null, "from_node": 32, "to_node": 33}, "geometry": {"type": "LineString", "coordinates": [[396002.77, 139031.98], [396004.13, 139032.22]]}}, {"type": "Feature", "properties": {"link_id": 29, "link_type": "sidewalk", "length_m": 2.48, "avg_width_m": 2.4, "min_width_m": 2.22, "from_node": 34, "to_node": 35}, "geometry": {"type": "LineString", "coordinates": [[396094.77, 139064.86], [396092.45, 139065.74]]}}, {"type": "Feature", "properties": {"link_id": 30, "link_type": "sidewalk", "length_m": 0.11, "avg_width_m": 3.14, "min_width_m": 3.07, "from_node": 34, "to_node": 36}, "geometry": {"type": "LineString", "coordinates": [[396094.77, 139064.86], [396094.85, 139064.94]]}}, {"type": "Feature", "properties": {"link_id": 31, "link_type": "pseudo", "length_m": 1.44, "avg_width_m": null, "min_width_m": null, "from_node": 36, "to_node": 37}, "geometry": {"type": "LineString", "coordinates": [[396094.85, 139064.94], [396096.05, 139065.74]]}}, {"type": "Feature", "properties": {"link_id": 32, "link_type": "crosswalk", "length_m": 9.42, "avg_width_m": 4.24, "min_width_m": 2.5, "from_node": 37, "to_node": 38}, "geometry": {"type": "LineString", "coordinates": [[396096.05, 139065.74], [396104.85, 139069.1]]}}, {"type": "Feature", "properties": {"link_id": 33, "link_type": "pseudo", "length_m": 2.2, "avg_width_m": null, "min_width_m": null, "from_node": 38, "to_node": 39}, "geometry": {"type": "LineString", "coordinates": [[396104.85, 139069.1], [396106.05, 139067.26]]}}, {"type": "Feature", "properties": {"link_id": 34, "link_type": "sidewalk", "length_m": 44.62, "avg_width_m": 2.93, "min_width_m": 1.29, "from_node": 34, "to_node": 40}, "geometry": {"type": "LineString", "coordinates": [[396094.77, 139064.86], [396095.908, 139060.158], [396098.818, 139054.94], [396101.472, 139044.06], [396105.478, 139037.251], [396108.537, 139028.78], [396108.731, 139026.3], [396107.49, 139023.34]]}}, {"type": "Feature", "properties": {"link_id": 35, "link_type": "sidewalk", "length_m": 17.53, "avg_width_m": 3.03, "min_width_m": 2.0, "from_node": 41, "to_node": 42}, "geometry": {"type": "LineString", "coordinates": [[396159.25, 138872.46], [396157.563, 138875.363], [396156.322, 138881.245], [396154.386, 138884.254], [396153.65, 138888.78]]}}, {"type": "Feature", "properties": {"link_id": 36, "link_type": "sidewalk", "length_m": 0.11, "avg_width_m": 3.52, "min_width_m": 3.45, "from_node": 41, "to_node": 43}, "geometry": {"type": "LineString", "coordinates": [[396159.25, 138872.46], [396159.33, 138872.54]]}}, {"type": "Feature", "properties": {"link_id": 37, "link_type": "pseudo", "length_m": 1.61, "avg_width_m": null, "min_width_m": null, "from_node": 43, "to_node": 44}, "geometry": {"type": "LineString", "coordinates": [[396159.33, 138872.54], [396160.77, 138873.26]]}}, {"type": "Feature", "properties": {"link_id": 38, "link_type": "crosswalk", "length_m": 9.63, "avg_width_m": 4.53, "min_width_m": 2.72, "from_node": 44, "to_node": 45}, "geometry": {"type": "LineString", "coordinates": [[396160.77, 138873.26], [396170.21, 138875.18]]}}, {"type": "Feature", "properties": {"link_id": 39, "link_type": "pseudo", "length_m": 2.16, "avg_width_m": null, "min_width_m": null, "from_node": 45, "to_node": 46}, "geometry": {"type": "LineString", "coordinates": [[396170.21, 138875.18], [396172.37, 138875.18]]}}, {"type": "Feature", "properties": {"link_id": 40, "link_type": "sidewalk", "length_m": 4.54, "avg_width_m": 2.94, "min_width_m": 2.74, "from_node": 41, "to_node": 47}, "geometry": {"type": "LineString", "coordinates": [[396159.25, 138872.46], [396159.97, 138867.98]]}}, {"type": "Feature", "properties": {"link_id": 41, "link_type": "sidewalk", "length_m": 0.08, "avg_width_m": 3.1, "min_width_m": 3.09, "from_node": 1, "to_node": 48}, "geometry": {"type": "LineString", "coordinates": [[395984.37, 139036.62], [395984.45, 139036.62]]}}, {"type": "Feature", "properties": {"link_id": 42, "link_type": "sidewalk", "length_m": 0.11, "avg_width_m": 3.0, "min_width_m": 2.94, "from_node": 1, "to_node": 49}, "geometry": {"type": "LineString", "coordinates": [[395984.37, 139036.62], [395984.45, 139036.54]]}}, {"type": "Feature", "properties": {"link_id": 43, "link_type": "pseudo", "length_m": 0.11, "avg_width_m": null, "min_width_m": null, "from_node": 50, "to_node": 51}, "geometry": {"type": "LineString", "coordinates": [[396131.57, 138995.42], [396131.65, 138995.5]]}}, {"type": "Feature", "properties": {"link_id": 44, "link_type": "pseudo", "length_m": 0.08, "avg_width_m": null, "min_width_m": null, "from_node": 50, "to_node": 52}, "geometry": {"type": "LineString", "coordinates": [[396131.57, 138995.42], [396131.65, 138995.42]]}}, {"type": "Feature", "properties": {"link_id": 45, "link_type": "pseudo", "length_m": 1.67, "avg_width_m": null, "min_width_m": null, "from_node": 50, "to_node": 53}, "geometry": {"type": "LineString", "coordinates": [[396131.57, 138995.42], [396129.97, 138994.94]]}}, {"type": "Feature", "properties": {"link_id": 46, "link_type": "crosswalk", "length_m": 11.64, "avg_width_m": 3.81, "min_width_m": 1.93, "from_node": 53, "to_node": 54}, "geometry": {"type": "LineString", "coordinates": [[396129.97, 138994.94], [396122.45, 138986.06]]}}, {"type": "Feature", "properties": {"link_id": 47, "link_type": "pseudo", "length_m": 1.72, "avg_width_m": null, "min_width_m": null, "from_node": 54, "to_node": 55}, "geometry": {"type": "LineString", "coordinates": [[396122.45, 138986.06], [396120.93, 138985.26]]}}, {"type": "Feature", "properties": {"link_id": 48, "link_type": "sidewalk", "length_m": 9.68, "avg_width_m": 3.23, "min_width_m": 3.04, "from_node": 56, "to_node": 57}, "geometry": {"type": "LineString", "coordinates": [[396178.45, 138890.7], [396168.77, 138890.86]]}}, {"type": "Feature", "properties": {"link_id": 49, "link_type": "sidewalk", "length_m": 23.46, "avg_width_m": 2.9, "min_width_m": 2.22, "from_node": 58, "to_node": 59}, "geometry": {"type": "LineString", "coordinates": [[396031.09, 138868.38], [396034.875, 138875.98], [396035.873, 138879.349], [396037.879, 138882.228], [396041.25, 138889.42]]}}, {"type": "Feature", "properties": {"link_id": 50, "link_type": "sidewalk", "length_m": 0.08, "avg_width_m": 2.96, "min_width_m": 2.88, "from_node": 60, "to_node": 61}, "geometry": {"type": "LineString", "coordinates": [[395989.49, 139025.02], [395989.49, 139025.1]]}}, {"type": "Feature", "properties": {"link_id": 51, "link_type": "sidewalk", "length_m": 0.08, "avg_width_m": 2.88, "min_width_m": 2.88, "from_node": 60, "to_node": 62}, "geometry": {"type": "LineString", "coordinates": [[395989.49, 139025.02], [395989.57, 139025.02]]}}, {"type": "Feature", "properties": {"link_id": 52, "link_type": "sidewalk", "length_m": 54.87, "avg_width_m": 2.62, "min_width_m": 1.38, "from_node": 60, "to_node": 63}, "geometry": {"type": "LineString", "coordinates": [[395989.49, 139025.02], [395983.013, 139022.969], [395979.029, 139020.564], [395975.421, 139019.928], [395971.644, 139017.78], [395958.93, 139013.492], [395947.73, 139008.943], [395938.85, 139004.54]]}}, {"type": "Feature", "properties": {"link_id": 53, "link_type": "sidewalk", "length_m": 23.43, "avg_width_m": 2.01, "min_width_m": 1.43, "from_node": 64, "to_node": 65}, "geometry": {"type": "LineString", "coordinates": [[396130.85, 139110.78], [396130.152, 139107.199], [396121.257, 139094.62], [396119.89, 139090.46]]}}, {"type": "Feature", "properties": {"link_id": 54, "link_type": "sidewalk", "length_m": 3.11, "avg_width_m": 2.25, "min_width_m": 1.72, "from_node": 66, "to_node": 67}, "geometry": {"type": "LineString", "coordinates": [[396067.73, 138947.1], [396070.53, 138948.46]]}}, {"type": "Feature", "properties": {"link_id": 55, "link_type": "sidewalk", "length_m": 0.08, "avg_width_m": 3.01, "min_width_m": 2.99, "from_node": 66, "to_node": 68}, "geometry": {"type": "LineString", "coordinates": [[396067.73, 138947.1], [396067.65, 138947.1]]}}, {"type": "Feature", "properties": {"link_id": 56, "link_type": "sidewalk", "length_m": 0.08, "avg_width_m": 2.91, "min_width_m": 2.84, "from_node": 66, "to_node": 69}, "geometry": {"type": "LineString", "coordinates": [[396067.73, 138947.1], [396067.73, 138947.02]]}}, {"type": "Feature", "properties": {"link_id": 57, "link_type": "sidewalk", "length_m": 0.08, "avg_width_m": 4.81, "min_width_m": 4.75, "from_node": 70, "to_node": 71}, "geometry": {"type": "LineString", "coordinates": [[396102.61, 139085.5], [396102.61, 139085.58]]}}, {"type": "Feature", "properties": {"link_id": 58, "link_type": "sidewalk", "length_m": 0.08, "avg_width_m": 4.81, "min_width_m": 4.75, "from_node": 70, "to_node": 72}, "geometry": {"type": "LineString", "coordinates": [[396102.61, 139085.5], [396102.69, 139085.5]]}}, {"type": "Feature", "properties": {"link_id": 59, "link_type": "sidewalk", "length_m": 2.56, "avg_width_m": 3.92, "min_width_m": 3.22, "from_node": 70, "to_node": 73}, "geometry": {"type": "LineString", "coordinates": [[396102.61, 139085.5], [396101.515, 139085.18], [396100.13, 139085.5]]}}, {"type": "Feature", "properties": {"link_id": 60, "link_type": "sidewalk", "length_m": 17.16, "avg_width_m": 1.6, "min_width_m": 1.01, "from_node": 74, "to_node": 75}, "geometry": {"type": "LineString", "coordinates": [[396103.33, 139097.1], [396101.737, 139099.039], [396096.89, 139109.649], [396094.93, 139111.9]]}}, {"type": "Feature", "properties": {"link_id": 61, "link_type": "sidewalk", "length_m": 15.28, "avg_width_m": 1.86, "min_width_m": 1.28, "from_node": 74, "to_node": 76}, "geometry": {"type": "LineString", "coordinates": [[396103.33, 139097.1], [396105.26, 139099.287], [396107.65, 139111.42]]}}, {"type": "Feature", "properties": {"link_id": 62, "link_type": "sidewalk", "length_m": 11.54, "avg_width_m": 2.74, "min_width_m": 2.09, "from_node": 74, "to_node": 71}, "geometry": {"type": "LineString", "coordinates": [[396103.33, 139097.1], [396102.61, 139085.58]]}}, {"type": "Feature", "properties": {"link_id": 63, "link_type": "sidewalk", "length_m": 0.08, "avg_width_m": 4.64, "min_width_m": 4.61, "from_node": 77, "to_node": 78}, "geometry": {"type": "LineString", "coordinates": [[396164.77, 139096.54], [396164.77, 139096.62]]}}, {"type": "Feature", "properties": {"link_id": 64, "link_type": "sidewalk", "length_m": 0.08, "avg_width_m": 4.59, "min_width_m": 4.52, "from_node": 77, "to_node": 79}, "geometry": {"type": "LineString", "coordinates": [[396164.77, 139096.54], [396164.69, 139096.54]]}}, {"type": "Feature", "properties": {"link_id": 65, "link_type": "sidewalk", "length_m": 1.07, "avg_width_m": 5.07, "min_width_m": 4.8, "from_node": 77, "to_node": 80}, "geometry": {"type": "LineString", "coordinates": [[396164.77, 139096.54], [396165.25, 139095.58]]}}, {"type": "Feature", "properties": {"link_id": 66, "link_type": "sidewalk", "length_m": 9.17, "avg_width_m": 3.28, "min_width_m": 2.88, "from_node": 81, "to_node": 10}, "geometry": {"type": "LineString", "coordinates": [[395935.57, 138880.14], [395936.793, 138881.486], [395939.33, 138882.499], [395941.725, 138882.741], [395943.89, 138882.3]]}}, {"type": "Feature", "properties": {"link_id": 67, "link_type": "sidewalk", "length_m": 3.17, "avg_width_m": 3.4, "min_width_m": 2.24, "from_node": 82, "to_node": 83}, "geometry": {"type": "LineString", "coordinates": [[396049.17, 138912.78], [396051.41, 138915.02]]}}, {"type": "Feature", "properties": {"link_id": 68, "link_type": "sidewalk", "length_m": 0.08, "avg_width_m": 1.29, "min_width_m": 1.22, "from_node": 82, "to_node": 84}, "geometry": {"type": "LineString", "coordinates": [[396049.17, 138912.78], [396049.09, 138912.78]]}}, {"type": "Feature", "properties": {"link_id": 69, "link_type": "sidewalk", "length_m": 0.08, "avg_width_m": 1.36, "min_width_m": 1.36, "from_node": 82, "to_node": 85}, "geometry": {"type": "LineString", "coordinates": [[396049.17, 138912.78], [396049.17, 138912.7]]}}, {"type": "Feature", "properties": {"link_id": 70, "link_type": "sidewalk", "length_m": 19.8, "avg_width_m": 2.18, "min_width_m": 0.66, "from_node": 86, "to_node": 87}, "geometry": {"type": "LineString", "coordinates": [[396152.13, 139111.9], [396150.048, 139110.082], [396145.028, 139098.501], [396142.53, 139094.86]]}}, {"type": "Feature", "properties": {"link_id": 71, "link_type": "pseudo", "length_m": 0.08, "avg_width_m": null, "min_width_m": null, "from_node": 49, "to_node": 48}, "geometry": {"type": "LineString", "coordinates": [[395984.45, 139036.54], [395984.45, 139036.62]]}}, {"type": "Feature", "properties": {"link_id": 72, "link_type": "pseudo", "length_m": 1.5, "avg_width_m": null, "min_width_m": null, "from_node": 49, "to_node": 88}, "geometry": {"type": "LineString", "coordinates": [[395984.45, 139036.54], [395985.09, 139035.18]]}}, {"type": "Feature", "properties": {"link_id": 73, "link_type": "crosswalk", "length_m": 9.55, "avg_width_m": 4.59, "min_width_m": 2.6, "from_node": 88, "to_node": 89}, "geometry": {"type": "LineString", "coordinates": [[395985.09, 139035.18], [395989.17, 139026.54]]}}, {"type": "Feature", "properties": {"link_id": 74, "link_type": "pseudo", "length_m": 1.48, "avg_width_m": null, "min_width_m": null, "from_node": 89, "to_node": 61}, "geometry": {"type": "LineString", "coordinates": [[395989.17, 139026.54], [395989.49, 139025.1]]}}, {"type": "Feature", "properties": {"link_id": 75, "link_type": "sidewalk", "length_m": 0.08, "avg_width_m": 3.81, "min_width_m": 3.8, "from_node": 90, "to_node": 91}, "geometry": {"type": "LineString", "coordinates": [[396166.29, 138892.46], [396166.29, 138892.54]]}}, {"type": "Feature", "properties": {"link_id": 76, "link_type": "sidewalk", "length_m": 0.08, "avg_width_m": 3.73, "min_width_m": 3.65, "from_node": 90, "to_node": 92}, "geometry": {"type": "LineString", "coordinates": [[396166.29, 138892.46], [396166.21, 138892.46]]}}, {"type": "Feature", "properties": {"link_id": 77, "link_type": "sidewalk", "length_m": 2.88, "avg_width_m": 3.74, "min_width_m": 3.46, "from_node": 90, "to_node": 93}, "geometry": {"type": "LineString", "coordinates": [[396166.29, 138892.46], [396168.69, 138890.86]]}}, {"type": "Feature", "properties": {"link_id": 78, "link_type": "sidewalk", "length_m": 0.08, "avg_width_m": 7.52, "min_width_m": 7.52, "from_node": 94, "to_node": 95}, "geometry": {"type": "LineString", "coordinates": [[396106.53, 138976.38], [396106.53, 138976.46]]}}, {"type": "Feature", "properties": {"link_id": 79, "link_type": "sidewalk", "length_m": 0.08, "avg_width_m": 7.44, "min_width_m": 7.36, "from_node": 94, "to_node": 96}, "geometry": {"type": "LineString", "coordinates": [[396106.53, 138976.38], [396106.61, 138976.38]]}}, {"type": "Feature", "properties": {"link_id": 80, "link_type": "sidewalk", "length_m": 5.63, "avg_width_m": 6.2, "min_width_m": 5.3, "from_node": 94, "to_node": 97}, "geometry": {"type": "LineString", "coordinates": [[396106.53, 138976.38], [396103.01, 138971.98]]}}, {"type": "Feature", "properties": {"link_id": 81, "link_type": "sidewalk", "length_m": 33.24, "avg_width_m": 2.26, "min_width_m": 1.58, "from_node": 98, "to_node": 99}, "geometry": {"type": "LineString", "coordinates": [[396089.01, 139080.3], [396079.64, 139104.3], [396078.214, 139109.48], [396077.09, 139111.26]]}}, {"type": "Feature", "properties": {"link_id": 82, "link_type": "sidewalk", "length_m": 0.08, "avg_width_m": 2.48, "min_width_m": 2.4, "from_node": 98, "to_node": 100}, "geometry": {"type": "LineString", "coordinates": [[396089.01, 139080.3], [396089.09, 139080.3]]}}, {"type": "Feature", "properties": {"link_id": 83, "link_type": "sidewalk", "length_m": 0.08, "avg_width_m": 2.4, "min_width_m": 2.4, "from_node": 98, "to_node": 101}, "geometry": {"type": "LineString", "coordinates": [[396089.01, 139080.3], [396089.01, 139080.22]]}}, {"type": "Feature", "properties": {"link_id": 84, "link_type": "sidewalk", "length_m": 12.31, "avg_width_m": 1.08, "min_width_m": 0.45, "from_node": 10, "to_node": 102}, "geometry": {"type": "LineString", "coordinates": [[395943.89, 138882.3], [395948.043, 138875.5], [395948.233, 138873.663], [395947.57, 138871.26]]}}, {"type": "Feature", "properties": {"link_id": 85, "link_type": "sidewalk", "length_m": 26.21, "avg_width_m": 3.76, "min_width_m": 1.65, "from_node": 103, "to_node": 104}, "geometry": {"type": "LineString", "coordinates": [[395992.53, 139057.74], [395989.827, 139061.82], [395988.278, 139066.22], [395987.416, 139071.727], [395984.556, 139074.881], [395983.325, 139079.547], [395982.324, 139081.266]]}}, {"type": "Feature", "properties": {"link_id": 86, "link_type": "midblock", "length_m": 8.38, "avg_width_m": null, "min_width_m": null, "from_node": 104, "to_node": 105}, "geometry": {"type": "LineString", "coordinates": [[395982.324, 139081.266], [395980.881, 139083.741], [395979.126, 139088.965]]}}, {"type": "Feature", "properties": {"link_id": 87, "link_type": "sidewalk", "length_m": 22.7, "avg_width_m": 2.19, "min_width_m": 1.32, "from_node": 105, "to_node": 106}, "geometry": {"type": "LineString", "coordinates": [[395979.126, 139088.965], [395975.184, 139100.7], [395971.01, 139110.14]]}}, {"type": "Feature", "properties": {"link_id": 88, "link_type": "sidewalk", "length_m": 7.67, "avg_width_m": 2.48, "min_width_m": 1.79, "from_node": 103, "to_node": 107}, "geometry": {"type": "LineString", "coordinates": [[395992.53, 139057.74], [395996.929, 139060.146], [395998.448, 139060.222], [395999.33, 139059.5]]}}, {"type": "Feature", "properties": {"link_id": 89, "link_type": "sidewalk", "length_m": 5.28, "avg_width_m": 3.49, "min_width_m": 3.04, "from_node": 103, "to_node": 108}, "geometry": {"type": "LineString", "coordinates": [[395992.53, 139057.74], [395992.732, 139053.42], [395993.118, 139052.547]]}}, {"type": "Feature", "properties": {"link_id": 90, "link_type": "midblock", "length_m": 2.07, "avg_width_m": null, "min_width_m": null, "from_node": 108, "to_node": 109}, "geometry": {"type": "LineString", "coordinates": [[395993.118, 139052.547], [395993.954, 139050.656]]}}, {"type": "Feature", "properties": {"link_id": 91, "link_type": "sidewalk", "length_m": 8.35, "avg_width_m": 2.32, "min_width_m": 1.16, "from_node": 109, "to_node": 16}, "geometry": {"type": "LineString", "coordinates": [[395993.954, 139050.656], [395997.33, 139043.02]]}}, {"type": "Feature", "properties": {"link_id": 92, "link_type": "sidewalk", "length_m": 0.08, "avg_width_m": 3.84, "min_width_m": 3.84, "from_node": 57, "to_node": 93}, "geometry": {"type": "LineString", "coordinates": [[396168.77, 138890.86], [396168.69, 138890.86]]}}, {"type": "Feature", "properties": {"link_id": 93, "link_type": "sidewalk", "length_m": 0.11, "avg_width_m": 3.73, "min_width_m": 3.68, "from_node": 57, "to_node": 110}, "geometry": {"type": "LineString", "coordinates": [[396168.77, 138890.86], [396168.69, 138890.78]]}}, {"type": "Feature", "properties": {"link_id": 94, "link_type": "sidewalk", "length_m": 9.74, "avg_width_m": 1.45, "min_width_m": 0.68, "from_node": 111, "to_node": 112}, "geometry": {"type": "LineString", "coordinates": [[396115.81, 139070.46], [396114.554, 139070.131], [396113.664, 139069.319], [396111.699, 139064.51], [396109.81, 139063.74]]}}, {"type": "Feature", "properties": {"link_id": 95, "link_type": "sidewalk", "length_m": 15.19, "avg_width_m": 3.35, "min_width_m": 2.23, "from_node": 80, "to_node": 113}, "geometry": {"type": "LineString", "coordinates": [[396165.25, 139095.58], [396168.051, 139095.051], [396174.05, 139095.191], [396177.941, 139096.322], [396179.73, 139097.74]]}}, {"type": "Feature", "properties": {"link_id": 96, "link_type": "sidewalk", "length_m": 0.11, "avg_width_m": 4.27, "min_width_m": 4.16, "from_node": 80, "to_node": 114}, "geometry": {"type": "LineString", "coordinates": [[396165.25, 139095.58], [396165.17, 139095.5]]}}, {"type": "Feature", "properties": {"link_id": 97, "link_type": "pseudo", "length_m": 2.29, "avg_width_m": null, "min_width_m": null, "from_node": 114, "to_node": 115}, "geometry": {"type": "LineString", "coordinates": [[396165.17, 139095.5], [396163.81, 139093.66]]}}, {"type": "Feature", "properties": {"link_id": 98, "link_type": "crosswalk", "length_m": 10.32, "avg_width_m": 4.45, "min_width_m": 2.24, "from_node": 115, "to_node": 116}, "geometry": {"type": "LineString", "coordinates": [[396163.81, 139093.66], [396160.45, 139083.9]]}}, {"type": "Feature", "properties": {"link_id": 99, "link_type": "pseudo", "length_m": 1.36, "avg_width_m": null, "min_width_m": null, "from_node": 116, "to_node": 117}, "geometry": {"type": "LineString", "coordinates": [[396160.45, 139083.9], [396160.45, 139082.54]]}}, {"type": "Feature", "properties": {"link_id": 100, "link_type": "sidewalk", "length_m": 0.08, "avg_width_m": 2.47, "min_width_m": 2.45, "from_node": 118, "to_node": 40}, "geometry": {"type": "LineString", "coordinates": [[396107.49, 139023.26], [396107.49, 139023.34]]}}, {"type": "Feature", "properties": {"link_id": 101, "link_type": "sidewalk", "length_m": 0.08, "avg_width_m": 2.46, "min_width_m": 2.44, "from_node": 118, "to_node": 119}, "geometry": {"type": "LineString", "coordinates": [[396107.49, 139023.26], [396107.57, 139023.26]]}}, {"type": "Feature", "properties": {"link_id": 102, "link_type": "sidewalk", "length_m": 10.17, "avg_width_m": 2.58, "min_width_m": 2.22, "from_node": 118, "to_node": 120}, "geometry": {"type": "LineString", "coordinates": [[396107.49, 139023.26], [396103.33, 139013.98]]}}, {"type": "Feature", "properties": {"link_id": 103, "link_type": "pseudo", "length_m": 0.11, "avg_width_m": null, "min_width_m": null, "from_node": 121, "to_node": 122}, "geometry": {"type": "LineString", "coordinates": [[396116.21, 138998.06], [396116.29, 138998.14]]}}, {"type": "Feature", "properties": {"link_id": 104, "link_type": "sidewalk", "length_m": 1.13, "avg_width_m": 4.02, "min_width_m": 3.85, "from_node": 122, "to_node": 123}, "geometry": {"type": "LineString", "coordinates": [[396116.29, 138998.14], [396116.45, 138999.26]]}}, {"type": "Feature", "properties": {"link_id": 105, "link_type": "pseudo", "length_m": 1.55, "avg_width_m": null, "min_width_m": null, "from_node": 123, "to_node": 124}, "geometry": {"type": "LineString", "coordinates": [[396116.45, 138999.26], [396117.33, 139000.54]]}}, {"type": "Feature", "properties": {"link_id": 106, "link_type": "crosswalk", "length_m": 13.93, "avg_width_m": 4.01, "min_width_m": 1.29, "from_node": 124, "to_node": 125}, "geometry": {"type": "LineString", "coordinates": [[396117.33, 139000.54], [396124.13, 139012.7]]}}, {"type": "Feature", "properties": {"link_id": 107, "link_type": "pseudo", "length_m": 2.5, "avg_width_m": null, "min_width_m": null, "from_node": 125, "to_node": 126}, "geometry": {"type": "LineString", "coordinates": [[396124.13, 139012.7], [396125.25, 139014.94]]}}, {"type": "Feature", "properties": {"link_id": 108, "link_type": "pseudo", "length_m": 2.4, "avg_width_m": null, "min_width_m": null, "from_node": 121, "to_node": 127}, "geometry": {"type": "LineString", "coordinates": [[396116.21, 138998.06], [396113.81, 138998.14]]}}, {"type": "Feature", "properties": {"link_id": 109, "link_type": "crosswalk", "length_m": 25.31, "avg_width_m": 4.55, "min_width_m": 1.13, "from_node": 127, "to_node": 128}, "geometry": {"type": "LineString", "coordinates": [[396113.81, 138998.14], [396108.37, 139022.86]]}}, {"type": "Feature", "properties": {"link_id": 110, "link_type": "pseudo", "length_m": 0.89, "avg_width_m": null, "min_width_m": null, "from_node": 128, "to_node": 119}, "geometry": {"type": "LineString", "coordinates": [[396108.37, 139022.86], [396107.57, 139023.26]]}}, {"type": "Feature", "properties": {"link_id": 111, "link_type": "pseudo", "length_m": 0.11, "avg_width_m": null, "min_width_m": null, "from_node": 121, "to_node": 129}, "geometry": {"type": "LineString", "coordinates": [[396116.21, 138998.06], [396116.29, 138997.98]]}}, {"type": "Feature", "properties": {"link_id": 112, "link_type": "sidewalk", "length_m": 2.17, "avg_width_m": 5.73, "min_width_m": 5.08, "from_node": 129, "to_node": 130}, "geometry": {"type": "LineString", "coordinates": [[396116.29, 138997.98], [396116.45, 138995.82]]}}, {"type": "Feature", "properties": {"link_id": 113, "link_type": "midblock", "length_m": 1.11, "avg_width_m": null, "min_width_m": null, "from_node": 131, "to_node": 132}, "geometry": {"type": "LineString", "coordinates": [[396053.33, 138871.5], [396053.712, 138872.542]]}}, {"type": "Feature", "properties": {"link_id": 114, "link_type": "sidewalk", "length_m": 8.48, "avg_width_m": 2.77, "min_width_m": 2.08, "from_node": 132, "to_node": 133}, "geometry": {"type": "LineString", "coordinates": [[396053.712, 138872.542], [396055.215, 138876.637], [396057.73, 138879.9]]}}, {"type": "Feature", "properties": {"link_id": 115, "link_type": "midblock", "length_m": 3.3, "avg_width_m": null, "min_width_m": null, "from_node": 131, "to_node": 134}, "geometry": {"type": "LineString", "coordinates": [[396053.33, 138871.5], [396052.05, 138868.46]]}}, {"type": "Feature", "properties": {"link_id": 116, "link_type": "midblock", "length_m": 0.95, "avg_width_m": null, "min_width_m": null, "from_node": 131, "to_node": 135}, "geometry": {"type": "LineString", "coordinates": [[396053.33, 138871.5], [396054.236, 138871.211]]}}, {"type": "Feature", "properties": {"link_id": 117, "link_type": "sidewalk", "length_m": 11.4, "avg_width_m": 2.17, "min_width_m": 1.37, "from_node": 135, "to_node": 136}, "geometry": {"type": "LineString", "coordinates": [[396054.236, 138871.211], [396057.179, 138870.273], [396065.49, 138870.46]]}}, {"type": "Feature", "properties": {"link_id": 118, "link_type": "sidewalk", "length_m": 0.11, "avg_width_m": 2.51, "min_width_m": 2.4, "from_node": 101, "to_node": 100}, "geometry": {"type": "LineString", "coordinates": [[396089.01, 139080.22], [396089.09, 139080.3]]}}, {"type": "Feature", "properties": {"link_id": 119, "link_type": "sidewalk", "length_m": 2.9, "avg_width_m": 1.68, "min_width_m": 1.48, "from_node": 101, "to_node": 137}, "geometry": {"type": "LineString", "coordinates": [[396089.01, 139080.22], [396087.81, 139077.58]]}}, {"type": "Feature", "properties": {"link_id": 120, "link_type": "sidewalk", "length_m": 0.08, "avg_width_m": 3.16, "min_width_m": 3.08, "from_node": 138, "to_node": 139}, "geometry": {"type": "LineString", "coordinates": [[396092.37, 139065.74], [396092.37, 139065.82]]}}, {"type": "Feature", "properties": {"link_id": 121, "link_type": "sidewalk", "length_m": 0.08, "avg_width_m": 3.07, "min_width_m": 3.06, "from_node": 138, "to_node": 35}, "geometry": {"type": "LineString", "coordinates": [[396092.37, 139065.74], [396092.45, 139065.74]]}}, {"type": "Feature", "properties": {"link_id": 122, "link_type": "sidewalk", "length_m": 31.02, "avg_width_m": 2.51, "min_width_m": 0.97, "from_node": 138, "to_node": 140}, "geometry": {"type": "LineString", "coordinates": [[396092.37, 139065.74], [396081.094, 139061.608], [396077.401, 139059.526], [396069.173, 139056.823], [396065.479, 139054.662], [396063.721, 139054.158]]}}, {"type": "Feature", "properties": {"link_id": 123, "link_type": "midblock", "length_m": 7.39, "avg_width_m": null, "min_width_m": null, "from_node": 140, "to_node": 141}, "geometry": {"type": "LineString", "coordinates": [[396063.721, 139054.158], [396058.45, 139052.644], [396056.796, 139051.698]]}}, {"type": "Feature", "properties": {"link_id": 124, "link_type": "sidewalk", "length_m": 58.98, "avg_width_m": 2.86, "min_width_m": 1.01, "from_node": 141, "to_node": 142}, "geometry": {"type": "LineString", "coordinates": [[396056.796, 139051.698], [396053.97, 139050.083], [396048.37, 139048.538], [396035.89, 139042.838], [396024.29, 139039.037], [396008.855, 139032.911], [396003.453, 139030.13], [396002.77, 139029.02]]}}, {"type": "Feature", "properties": {"link_id": 125, "link_type": "sidewalk", "length_m": 45.28, "avg_width_m": 3.1, "min_width_m": 2.48, "from_node": 143, "to_node": 120}, "geometry": {"type": "LineString", "coordinates": [[396083.01, 138973.74], [396089.551, 138986.54], [396092.607, 138995.399], [396095.631, 138999.111], [396103.33, 139013.98]]}}, {"type": "Feature", "properties": {"link_id": 126, "link_type": "pseudo", "length_m": 1.49, "avg_width_m": null, "min_width_m": null, "from_node": 144, "to_node": 145}, "geometry": {"type": "LineString", "coordinates": [[396032.53, 138918.86], [396032.93, 138920.3]]}}, {"type": "Feature", "properties": {"link_id": 127, "link_type": "crosswalk", "length_m": 16.81, "avg_width_m": 4.22, "min_width_m": 1.28, "from_node": 145, "to_node": 146}, "geometry": {"type": "LineString", "coordinates": [[396032.93, 138920.3], [396031.17, 138937.02]]}}, {"type": "Feature", "properties": {"link_id": 128, "link_type": "pseudo", "length_m": 0.11, "avg_width_m": null, "min_width_m": null, "from_node": 144, "to_node": 9}, "geometry": {"type": "LineString", "coordinates": [[396032.53, 138918.86], [396032.45, 138918.78]]}}, {"type": "Feature", "properties": {"link_id": 129, "link_type": "pseudo", "length_m": 0.08, "avg_width_m": null, "min_width_m": null, "from_node": 144, "to_node": 147}, "geometry": {"type": "LineString", "coordinates": [[396032.53, 138918.86], [396032.53, 138918.78]]}}, {"type": "Feature", "properties": {"link_id": 130, "link_type": "pseudo", "length_m": 1.9, "avg_width_m": null, "min_width_m": null, "from_node": 148, "to_node": 149}, "geometry": {"type": "LineString", "coordinates": [[396153.73, 138888.86], [396155.41, 138889.74]]}}, {"type": "Feature", "properties": {"link_id": 131, "link_type": "crosswalk", "length_m": 9.48, "avg_width_m": 4.11, "min_width_m": 2.73, "from_node": 149, "to_node": 150}, "geometry": {"type": "LineString", "coordinates": [[396155.41, 138889.74], [396164.69, 138891.66]]}}, {"type": "Feature", "properties": {"link_id": 132, "link_type": "pseudo", "length_m": 1.72, "avg_width_m": null, "min_width_m": null, "from_node": 150, "to_node": 92}, "geometry": {"type": "LineString", "coordinates": [[396164.69, 138891.66], [396166.21, 138892.46]]}}, {"type": "Feature", "properties": {"link_id": 133, "link_type": "pseudo", "length_m": 0.08, "avg_width_m": null, "min_width_m": null, "from_node": 148, "to_node": 151}, "geometry": {"type": "LineString", "coordinates": [[396153.73, 138888.86], [396153.65, 138888.86]]}}, {"type": "Feature", "properties": {"link_id": 134, "link_type": "pseudo", "length_m": 0.11, "avg_width_m": null, "min_width_m": null, "from_node": 148, "to_node": 42}, "geometry": {"type": "LineString", "coordinates": [[396153.73, 138888.86], [396153.65, 138888.78]]}}, {"type": "Feature", "properties": {"link_id": 135, "link_type": "sidewalk", "length_m": 4.51, "avg_width_m": 1.24, "min_width_m": 0.91, "from_node": 152, "to_node": 153}, "geometry": {"type": "LineString", "coordinates": [[396043.41, 138923.74], [396046.13, 138927.34]]}}, {"type": "Feature", "properties": {"link_id": 136, "link_type": "sidewalk", "length_m": 2.08, "avg_width_m": 3.19, "min_width_m": 3.09, "from_node": 154, "to_node": 155}, "geometry": {"type": "LineString", "coordinates": [[396120.05, 138983.26], [396120.85, 138985.18]]}}, {"type": "Feature", "properties": {"link_id": 137, "link_type": "sidewalk", "length_m": 15.21, "avg_width_m": 2.71, "min_width_m": 1.13, "from_node": 154, "to_node": 96}, "geometry": {"type": "LineString", "coordinates": [[396120.05, 138983.26], [396114.849, 138979.575], [396106.61, 138976.38]]}}, {"type": "Feature", "properties": {"link_id": 138, "link_type": "sidewalk", "length_m": 0.11, "avg_width_m": 3.23, "min_width_m": 3.11, "from_node": 154, "to_node": 156}, "geometry": {"type": "LineString", "coordinates": [[396120.05, 138983.26], [396120.13, 138983.18]]}}, {"type": "Feature", "properties": {"link_id": 139, "link_type": "pseudo", "length_m": 1.24, "avg_width_m": null, "min_width_m": null, "from_node": 156, "to_node": 157}, "geometry": {"type": "LineString", "coordinates": [[396120.13, 138983.18], [396121.01, 138982.3]]}}, {"type": "Feature", "properties": {"link_id": 140, "link_type": "crosswalk", "length_m": 11.21, "avg_width_m": 4.1, "min_width_m": 2.0, "from_node": 157, "to_node": 158}, "geometry": {"type": "LineString", "coordinates": [[396121.01, 138982.3], [396123.73, 138971.42]]}}, {"type": "Feature", "properties": {"link_id": 141, "link_type": "pseudo", "length_m": 2.6, "avg_width_m": null, "min_width_m": null, "from_node": 158, "to_node": 159}, "geometry": {"type": "LineString", "coordinates": [[396123.73, 138971.42], [396124.21, 138968.86]]}}, {"type": "Feature", "properties": {"link_id": 142, "link_type": "sidewalk", "length_m": 0.08, "avg_width_m": 2.72, "min_width_m": 2.72, "from_node": 160, "to_node": 142}, "geometry": {"type": "LineString", "coordinates": [[396002.77, 139028.94], [396002.77, 139029.02]]}}, {"type": "Feature", "properties": {"link_id": 143, "link_type": "sidewalk", "length_m": 0.08, "avg_width_m": 2.8, "min_width_m": 2.72, "from_node": 160, "to_node": 161}, "geometry": {"type": "LineString", "coordinates": [[396002.77, 139028.94], [396002.69, 139028.94]]}}, {"type": "Feature", "properties": {"link_id": 144, "link_type": "sidewalk", "length_m": 42.01, "avg_width_m": 2.53, "min_width_m": 0.93, "from_node": 160, "to_node": 162}, "geometry": {"type": "LineString", "coordinates": [[396002.77, 139028.94], [396006.637, 139020.3], [396013.727, 138999.981], [396016.513, 138995.34], [396017.838, 138989.89]]}}, {"type": "Feature", "properties": {"link_id": 145, "link_type": "midblock", "length_m": 6.53, "avg_width_m": null, "min_width_m": null, "from_node": 162, "to_node": 163}, "geometry": {"type": "LineString", "coordinates": [[396017.838, 138989.89], [396020.274, 138983.836]]}}, {"type": "Feature", "properties": {"link_id": 146, "link_type": "sidewalk", "length_m": 4.62, "avg_width_m": 3.49, "min_width_m": 3.34, "from_node": 163, "to_node": 164}, "geometry": {"type": "LineString", "coordinates": [[396020.274, 138983.836], [396022.023, 138979.56]]}}, {"type": "Feature", "properties": {"link_id": 147, "link_type": "midblock", "length_m": 5.65, "avg_width_m": null, "min_width_m": null, "from_node": 164, "to_node": 165}, "geometry": {"type": "LineString", "coordinates": [[396022.023, 138979.56], [396024.187, 138974.337]]}}, {"type": "Feature", "properties": {"link_id": 148, "link_type": "sidewalk", "length_m": 30.19, "avg_width_m": 2.54, "min_width_m": 1.48, "from_node": 165, "to_node": 166}, "geometry": {"type": "LineString", "coordinates": [[396024.187, 138974.337], [396027.771, 138967.337], [396028.792, 138962.94], [396031.501, 138957.886], [396032.678, 138952.626], [396034.762, 138949.444], [396035.65, 138946.7]]}}, {"type": "Feature", "properties": {"link_id": 149, "link_type": "sidewalk", "length_m": 7.39, "avg_width_m": 2.87, "min_width_m": 2.64, "from_node": 167, "to_node": 168}, "geometry": {"type": "LineString", "coordinates": [[396125.25, 139015.02], [396125.664, 139018.3], [396127.25, 139022.06]]}}, {"type": "Feature", "properties": {"link_id": 150, "link_type": "sidewalk", "length_m": 0.08, "avg_width_m": 4.08, "min_width_m": 4.0, "from_node": 167, "to_node": 169}, "geometry": {"type": "LineString", "coordinates": [[396125.25, 139015.02], [396125.33, 139015.02]]}}, {"type": "Feature", "properties": {"link_id": 151, "link_type": "sidewalk", "length_m": 0.08, "avg_width_m": 4.13, "min_width_m": 4.11, "from_node": 167, "to_node": 126}, "geometry": {"type": "LineString", "coordinates": [[396125.25, 139015.02], [396125.25, 139014.94]]}}, {"type": "Feature", "properties": {"link_id": 152, "link_type": "sidewalk", "length_m": 80.0, "avg_width_m": 2.1, "min_width_m": 1.07, "from_node": 170, "to_node": 13}, "geometry": {"type": "LineString", "coordinates": [[395955.09, 139111.82], [395958.778, 139106.06], [395959.874, 139101.98], [395962.505, 139096.86], [395963.832, 139091.5], [395974.669, 139066.209], [395975.484, 139062.153], [395981.089, 139048.381], [395983.163, 139044.744], [395983.91, 139040.861], [395985.17, 139038.14]]}}, {"type": "Feature", "properties": {"link_id": 153, "link_type": "sidewalk", "length_m": 0.11, "avg_width_m": 2.39, "min_width_m": 2.26, "from_node": 120, "to_node": 171}, "geometry": {"type": "LineString", "coordinates": [[396103.33, 139013.98], [396103.41, 139013.9]]}}, {"type": "Feature", "properties": {"link_id": 154, "link_type": "pseudo", "length_m": 1.61, "avg_width_m": null, "min_width_m": null, "from_node": 171, "to_node": 172}, "geometry": {"type": "LineString", "coordinates": [[396103.41, 139013.9], [396104.85, 139013.18]]}}, {"type": "Feature", "properties": {"link_id": 155, "link_type": "crosswalk", "length_m": 2.79, "avg_width_m": 1.05, "min_width_m": 0.91, "from_node": 172, "to_node": 173}, "geometry": {"type": "LineString", "coordinates": [[396104.85, 139013.18], [396105.97, 139015.74]]}}, {"type": "Feature", "properties": {"link_id": 156, "link_type": "pseudo", "length_m": 1.22, "avg_width_m": null, "min_width_m": null, "from_node": 173, "to_node": 174}, "geometry": {"type": "LineString", "coordinates": [[396105.97, 139015.74], [396107.09, 139016.22]]}}, {"type": "Feature", "properties": {"link_id": 157, "link_type": "sidewalk", "length_m": 0.08, "avg_width_m": 3.31, "min_width_m": 3.24, "from_node": 175, "to_node": 176}, "geometry": {"type": "LineString", "coordinates": [[396133.01, 139079.26], [396133.01, 139079.34]]}}, {"type": "Feature", "properties": {"link_id": 158, "link_type": "sidewalk", "length_m": 0.08, "avg_width_m": 3.38, "min_width_m": 3.38, "from_node": 175, "to_node": 177}, "geometry": {"type": "LineString", "coordinates": [[396133.01, 139079.26], [396132.93, 139079.26]]}}, {"type": "Feature", "properties": {"link_id": 159, "link_type": "sidewalk", "length_m": 0.94, "avg_width_m": 3.84, "min_width_m": 3.65, "from_node": 175, "to_node": 178}, "geometry": {"type": "LineString", "coordinates": [[396133.01, 139079.26], [396133.89, 139078.94]]}}, {"type": "Feature", "properties": {"link_id": 160, "link_type": "sidewalk", "length_m": 3.81, "avg_width_m": 2.73, "min_width_m": 2.24, "from_node": 51, "to_node": 179}, "geometry": {"type": "LineString", "coordinates": [[396131.65, 138995.5], [396131.01, 138999.26]]}}, {"type": "Feature", "properties": {"link_id": 161, "link_type": "sidewalk", "length_m": 0.08, "avg_width_m": 3.98, "min_width_m": 3.96, "from_node": 51, "to_node": 52}, "geometry": {"type": "LineString", "coordinates": [[396131.65, 138995.5], [396131.65, 138995.42]]}}, {"type": "Feature", "properties": {"link_id": 162, "link_type": "sidewalk", "length_m": 11.72, "avg_width_m": 3.0, "min_width_m": 2.48, "from_node": 180, "to_node": 130}, "geometry": {"type": "LineString", "coordinates": [[396120.85, 138985.26], [396118.815, 138993.171], [396116.45, 138995.82]]}}, {"type": "Feature", "properties": {"link_id": 163, "link_type": "sidewalk", "length_m": 0.08, "avg_width_m": 3.45, "min_width_m": 3.38, "from_node": 180, "to_node": 55}, "geometry": {"type": "LineString", "coordinates": [[396120.85, 138985.26], [396120.93, 138985.26]]}}, {"type": "Feature", "properties": {"link_id": 164, "link_type": "sidewalk", "length_m": 0.08, "avg_width_m": 3.38, "min_width_m": 3.38, "from_node": 180, "to_node": 155}, "geometry": {"type": "LineString", "coordinates": [[396120.85, 138985.26], [396120.85, 138985.18]]}}, {"type": "Feature", "properties": {"link_id": 165, "link_type": "sidewalk", "length_m": 4.69, "avg_width_m": 2.38, "min_width_m": 2.15, "from_node": 181, "to_node": 182}, "geometry": {"type": "LineString", "coordinates": [[396088.37, 138943.5], [396090.37, 138947.74]]}}, {"type": "Feature", "properties": {"link_id": 166, "link_type": "sidewalk", "length_m": 0.08, "avg_width_m": 2.94, "min_width_m": 2.94, "from_node": 181, "to_node": 183}, "geometry": {"type": "LineString", "coordinates": [[396088.37, 138943.5], [396088.29, 138943.5]]}}, {"type": "Feature", "properties": {"link_id": 167, "link_type": "sidewalk", "length_m": 0.08, "avg_width_m": 2.91, "min_width_m": 2.88, "from_node": 181, "to_node": 184}, "geometry": {"type": "LineString", "coordinates": [[396088.37, 138943.5], [396088.37, 138943.42]]}}, {"type": "Feature", "properties": {"link_id": 168, "link_type": "sidewalk", "length_m": 0.11, "avg_width_m": 3.63, "min_width_m": 3.52, "from_node": 185, "to_node": 186}, "geometry": {"type": "LineString", "coordinates": [[396159.57, 138992.94], [396159.49, 138993.02]]}}, {"type": "Feature", "properties": {"link_id": 169, "link_type": "sidewalk", "length_m": 0.08, "avg_width_m": 3.52, "min_width_m": 3.52, "from_node": 185, "to_node": 187}, "geometry": {"type": "LineString", "coordinates": [[396159.57, 138992.94], [396159.49, 138992.94]]}}, {"type": "Feature", "properties": {"link_id": 170, "link_type": "sidewalk", "length_m": 19.34, "avg_width_m": 2.24, "min_width_m": 1.13, "from_node": 185, "to_node": 188}, "geometry": {"type": "LineString", "coordinates": [[396159.57, 138992.94], [396165.17, 138993.45], [396169.57, 138992.88], [396174.37, 138993.534], [396178.77, 138992.94]]}}, {"type": "Feature", "properties": {"link_id": 171, "link_type": "sidewalk", "length_m": 26.9, "avg_width_m": 2.29, "min_width_m": 1.13, "from_node": 189, "to_node": 147}, "geometry": {"type": "LineString", "coordinates": [[396042.77, 138893.9], [396032.53, 138918.78]]}}, {"type": "Feature", "properties": {"link_id": 172, "link_type": "sidewalk", "length_m": 0.08, "avg_width_m": 3.19, "min_width_m": 3.11, "from_node": 189, "to_node": 190}, "geometry": {"type": "LineString", "coordinates": [[396042.77, 138893.9], [396042.85, 138893.9]]}}, {"type": "Feature", "properties": {"link_id": 173, "link_type": "sidewalk", "length_m": 0.08, "avg_width_m": 3.09, "min_width_m": 3.08, "from_node": 189, "to_node": 191}, "geometry": {"type": "LineString", "coordinates": [[396042.77, 138893.9], [396042.77, 138893.82]]}}, {"type": "Feature", "properties": {"link_id": 174, "link_type": "sidewalk", "length_m": 0.08, "avg_width_m": 2.88, "min_width_m": 2.88, "from_node": 13, "to_node": 17}, "geometry": {"type": "LineString", "coordinates": [[395985.17, 139038.14], [395985.17, 139038.06]]}}, {"type": "Feature", "properties": {"link_id": 175, "link_type": "pseudo", "length_m": 0.08, "avg_width_m": null, "min_width_m": null, "from_node": 159, "to_node": 192}, "geometry": {"type": "LineString", "coordinates": [[396124.21, 138968.86], [396124.21, 138968.78]]}}, {"type": "Feature", "properties": {"link_id": 176, "link_type": "pseudo", "length_m": 0.11, "avg_width_m": null, "min_width_m": null, "from_node": 159, "to_node": 193}, "geometry": {"type": "LineString", "coordinates": [[396124.21, 138968.86], [396124.29, 138968.78]]}}, {"type": "Feature", "properties": {"link_id": 177, "link_type": "pseudo", "length_m": 1.43, "avg_width_m": null, "min_width_m": null, "from_node": 20, "to_node": 194}, "geometry": {"type": "LineString", "coordinates": [[395991.25, 139024.54], [395992.53, 139025.18]]}}, {"type": "Feature", "properties": {"link_id": 178, "link_type": "crosswalk", "length_m": 9.4, "avg_width_m": 4.54, "min_width_m": 2.79, "from_node": 194, "to_node": 195}, "geometry": {"type": "LineString", "coordinates": [[395992.53, 139025.18], [396001.25, 139028.7]]}}, {"type": "Feature", "properties": {"link_id": 179, "link_type": "pseudo", "length_m": 1.46, "avg_width_m": null, "min_width_m": null, "from_node": 195, "to_node": 161}, "geometry": {"type": "LineString", "coordinates": [[396001.25, 139028.7], [396002.69, 139028.94]]}}, {"type": "Feature", "properties": {"link_id": 180, "link_type": "pseudo", "length_m": 0.08, "avg_width_m": null, "min_width_m": null, "from_node": 20, "to_node": 19}, "geometry": {"type": "LineString", "coordinates": [[395991.25, 139024.54], [395991.17, 139024.54]]}}, {"type": "Feature", "properties": {"link_id": 181, "link_type": "sidewalk", "length_m": 0.08, "avg_width_m": 4.13, "min_width_m": 4.1, "from_node": 196, "to_node": 97}, "geometry": {"type": "LineString", "coordinates": [[396103.01, 138971.9], [396103.01, 138971.98]]}}, {"type": "Feature", "properties": {"link_id": 182, "link_type": "sidewalk", "length_m": 0.08, "avg_width_m": 4.09, "min_width_m": 4.01, "from_node": 196, "to_node": 197}, "geometry": {"type": "LineString", "coordinates": [[396103.01, 138971.9], [396102.93, 138971.9]]}}, {"type": "Feature", "properties": {"link_id": 183, "link_type": "sidewalk", "length_m": 0.23, "avg_width_m": 4.08, "min_width_m": 4.01, "from_node": 196, "to_node": 198}, "geometry": {"type": "LineString", "coordinates": [[396103.01, 138971.9], [396103.09, 138971.82], [396103.01, 138971.74]]}}, {"type": "Feature", "properties": {"link_id": 184, "link_type": "pseudo", "length_m": 2.62, "avg_width_m": null, "min_width_m": null, "from_node": 198, "to_node": 199}, "geometry": {"type": "LineString", "coordinates": [[396103.01, 138971.74], [396101.65, 138969.5]]}}, {"type": "Feature", "properties": {"link_id": 185, "link_type": "crosswalk", "length_m": 22.33, "avg_width_m": 3.57, "min_width_m": 0.16, "from_node": 199, "to_node": 200}, "geometry": {"type": "LineString", "coordinates": [[396101.65, 138969.5], [396092.21, 138949.26]]}}, {"type": "Feature", "properties": {"link_id": 186, "link_type": "sidewalk", "length_m": 19.12, "avg_width_m": 1.93, "min_width_m": 1.29, "from_node": 201, "to_node": 112}, "geometry": {"type": "LineString", "coordinates": [[396116.93, 139046.06], [396113.818, 139051.82], [396109.81, 139063.74]]}}, {"type": "Feature", "properties": {"link_id": 187, "link_type": "sidewalk", "length_m": 37.61, "avg_width_m": 2.95, "min_width_m": 1.38, "from_node": 201, "to_node": 178}, "geometry": {"type": "LineString", "coordinates": [[396116.93, 139046.06], [396118.917, 139047.714], [396125.144, 139056.46], [396126.642, 139062.413], [396132.65, 139073.9], [396133.89, 139078.94]]}}, {"type": "Feature", "properties": {"link_id": 188, "link_type": "sidewalk", "length_m": 3.51, "avg_width_m": 1.85, "min_width_m": 1.07, "from_node": 201, "to_node": 202}, "geometry": {"type": "LineString", "coordinates": [[396116.93, 139046.06], [396113.49, 139045.34]]}}, {"type": "Feature", "properties": {"link_id": 189, "link_type": "pseudo", "length_m": 3.38, "avg_width_m": null, "min_width_m": null, "from_node": 202, "to_node": 203}, "geometry": {"type": "LineString", "coordinates": [[396113.49, 139045.34], [396112.69, 139042.06]]}}, {"type": "Feature", "properties": {"link_id": 190, "link_type": "crosswalk", "length_m": 24.26, "avg_width_m": 2.19, "min_width_m": 0.16, "from_node": 203, "to_node": 204}, "geometry": {"type": "LineString", "coordinates": [[396112.69, 139042.06], [396126.77, 139022.3]]}}, {"type": "Feature", "properties": {"link_id": 191, "link_type": "pseudo", "length_m": 0.54, "avg_width_m": null, "min_width_m": null, "from_node": 204, "to_node": 168}, "geometry": {"type": "LineString", "coordinates": [[396126.77, 139022.3], [396127.25, 139022.06]]}}, {"type": "Feature", "properties": {"link_id": 192, "link_type": "sidewalk", "length_m": 0.08, "avg_width_m": 5.93, "min_width_m": 5.93, "from_node": 205, "to_node": 206}, "geometry": {"type": "LineString", "coordinates": [[396051.49, 138915.02], [396051.49, 138915.1]]}}, {"type": "Feature", "properties": {"link_id": 193, "link_type": "sidewalk", "length_m": 0.08, "avg_width_m": 6.01, "min_width_m": 5.93, "from_node": 205, "to_node": 83}, "geometry": {"type": "LineString", "coordinates": [[396051.49, 138915.02], [396051.41, 138915.02]]}}, {"type": "Feature", "properties": {"link_id": 194, "link_type": "sidewalk", "length_m": 7.21, "avg_width_m": 3.82, "min_width_m": 1.6, "from_node": 205, "to_node": 207}, "geometry": {"type": "LineString", "coordinates": [[396051.49, 138915.02], [396051.89, 138907.82]]}}, {"type": "Feature", "properties": {"link_id": 195, "link_type": "sidewalk", "length_m": 0.08, "avg_width_m": 5.12, "min_width_m": 5.08, "from_node": 193, "to_node": 192}, "geometry": {"type": "LineString", "coordinates": [[396124.29, 138968.78], [396124.21, 138968.78]]}}, {"type": "Feature", "properties": {"link_id": 196, "link_type": "sidewalk", "length_m": 17.79, "avg_width_m": 3.78, "min_width_m": 1.73, "from_node": 193, "to_node": 208}, "geometry": {"type": "LineString", "coordinates": [[396124.29, 138968.78], [396126.659, 138966.905], [396129.482, 138960.7], [396130.435, 138955.518], [396131.775, 138953.19]]}}, {"type": "Feature", "properties": {"link_id": 197, "link_type": "midblock", "length_m": 4.53, "avg_width_m": null, "min_width_m": null, "from_node": 208, "to_node": 209}, "geometry": {"type": "LineString", "coordinates": [[396131.775, 138953.19], [396132.248, 138952.368], [396133.069, 138948.88]]}}, {"type": "Feature", "properties": {"link_id": 198, "link_type": "sidewalk", "length_m": 64.24, "avg_width_m": 2.8, "min_width_m": 1.6, "from_node": 209, "to_node": 151}, "geometry": {"type": "LineString", "coordinates": [[396133.069, 138948.88], [396133.763, 138945.934], [396135.498, 138943.077], [396136.556, 138937.518], [396138.779, 138933.814], [396139.548, 138928.629], [396141.658, 138924.618], [396142.807, 138919.348], [396144.985, 138915.098], [396145.892, 138910.161], [396147.611, 138907.158], [396148.797, 138901.667], [396150.794, 138897.895], [396151.605, 138892.953], [396153.65, 138888.86]]}}, {"type": "Feature", "properties": {"link_id": 199, "link_type": "sidewalk", "length_m": 36.09, "avg_width_m": 3.04, "min_width_m": 1.37, "from_node": 68, "to_node": 210}, "geometry": {"type": "LineString", "coordinates": [[396067.65, 138947.1], [396058.85, 138943.397], [396054.537, 138942.301], [396049.09, 138939.303], [396042.85, 138936.866], [396040.627, 138936.819], [396039.39, 138937.404], [396037.679, 138940.469], [396037.09, 138942.46]]}}, {"type": "Feature", "properties": {"link_id": 200, "link_type": "sidewalk", "length_m": 0.11, "avg_width_m": 2.97, "min_width_m": 2.84, "from_node": 68, "to_node": 69}, "geometry": {"type": "LineString", "coordinates": [[396067.65, 138947.1], [396067.73, 138947.02]]}}, {"type": "Feature", "properties": {"link_id": 201, "link_type": "sidewalk", "length_m": 2.04, "avg_width_m": 2.64, "min_width_m": 2.53, "from_node": 211, "to_node": 212}, "geometry": {"type": "LineString", "coordinates": [[396080.29, 138968.22], [396081.17, 138970.06]]}}, {"type": "Feature", "properties": {"link_id": 202, "link_type": "sidewalk", "length_m": 9.82, "avg_width_m": 2.39, "min_width_m": 1.37, "from_node": 211, "to_node": 213}, "geometry": {"type": "LineString", "coordinates": [[396080.29, 138968.22], [396075.94, 138959.414]]}}, {"type": "Feature", "properties": {"link_id": 203, "link_type": "midblock", "length_m": 5.35, "avg_width_m": null, "min_width_m": null, "from_node": 213, "to_node": 214}, "geometry": {"type": "LineString", "coordinates": [[396075.94, 138959.414], [396073.571, 138954.617]]}}, {"type": "Feature", "properties": {"link_id": 204, "link_type": "sidewalk", "length_m": 6.87, "avg_width_m": 2.73, "min_width_m": 2.41, "from_node": 214, "to_node": 67}, "geometry": {"type": "LineString", "coordinates": [[396073.571, 138954.617], [396070.53, 138948.46]]}}, {"type": "Feature", "properties": {"link_id": 205, "link_type": "sidewalk", "length_m": 0.11, "avg_width_m": 2.67, "min_width_m": 2.58, "from_node": 211, "to_node": 215}, "geometry": {"type": "LineString", "coordinates": [[396080.29, 138968.22], [396080.37, 138968.14]]}}, {"type": "Feature", "properties": {"link_id": 206, "link_type": "pseudo", "length_m": 1.18, "avg_width_m": null, "min_width_m": null, "from_node": 215, "to_node": 216}, "geometry": {"type": "LineString", "coordinates": [[396080.37, 138968.14], [396081.41, 138967.58]]}}, {"type": "Feature", "properties": {"link_id": 207, "link_type": "crosswalk", "length_m": 19.55, "avg_width_m": 4.69, "min_width_m": 2.29, "from_node": 216, "to_node": 217}, "geometry": {"type": "LineString", "coordinates": [[396081.41, 138967.58], [396100.61, 138971.26]]}}, {"type": "Feature", "properties": {"link_id": 208, "link_type": "pseudo", "length_m": 2.41, "avg_width_m": null, "min_width_m": null, "from_node": 217, "to_node": 197}, "geometry": {"type": "LineString", "coordinates": [[396100.61, 138971.26], [396102.93, 138971.9]]}}, {"type": "Feature", "properties": {"link_id": 209, "link_type": "sidewalk", "length_m": 18.03, "avg_width_m": 1.97, "min_width_m": 1.37, "from_node": 65, "to_node": 72}, "geometry": {"type": "LineString", "coordinates": [[396119.89, 139090.46], [396109.17, 139086.283], [396102.69, 139085.5]]}}, {"type": "Feature", "properties": {"link_id": 210, "link_type": "sidewalk", "length_m": 19.81, "avg_width_m": 2.06, "min_width_m": 1.29, "from_node": 65, "to_node": 218}, "geometry": {"type": "LineString", "coordinates": [[396119.89, 139090.46], [396122.691, 139090.204], [396132.45, 139092.479], [396139.41, 139092.94]]}}, {"type": "Feature", "properties": {"link_id": 211, "link_type": "pseudo", "length_m": 0.11, "avg_width_m": null, "min_width_m": null, "from_node": 61, "to_node": 62}, "geometry": {"type": "LineString", "coordinates": [[395989.49, 139025.1], [395989.57, 139025.02]]}}, {"type": "Feature", "properties": {"link_id": 212, "link_type": "sidewalk", "length_m": 6.55, "avg_width_m": 3.08, "min_width_m": 2.84, "from_node": 219, "to_node": 220}, "geometry": {"type": "LineString", "coordinates": [[396179.17, 138877.58], [396177.002, 138878.352], [396172.77, 138877.98]]}}, {"type": "Feature", "properties": {"link_id": 213, "link_type": "sidewalk", "length_m": 0.11, "avg_width_m": 4.75, "min_width_m": 4.75, "from_node": 71, "to_node": 72}, "geometry": {"type": "LineString", "coordinates": [[396102.61, 139085.58], [396102.69, 139085.5]]}}, {"type": "Feature", "properties": {"link_id": 214, "link_type": "crosswalk", "length_m": 0.23, "avg_width_m": null, "min_width_m": null, "from_node": 221, "to_node": 222}, "geometry": {"type": "LineString", "coordinates": [[396091.97, 138949.02], [396092.13, 138949.18]]}}, {"type": "Feature", "properties": {"link_id": 215, "link_type": "sidewalk", "length_m": 0.11, "avg_width_m": 2.58, "min_width_m": 2.58, "from_node": 222, "to_node": 200}, "geometry": {"type": "LineString", "coordinates": [[396092.13, 138949.18], [396092.21, 138949.26]]}}, {"type": "Feature", "properties": {"link_id": 216, "link_type": "crosswalk", "length_m": 0.08, "avg_width_m": null, "min_width_m": null, "from_node": 221, "to_node": 223}, "geometry": {"type": "LineString", "coordinates": [[396091.97, 138949.02], [396091.89, 138949.02]]}}, {"type": "Feature", "properties": {"link_id": 217, "link_type": "crosswalk", "length_m": 0.08, "avg_width_m": null, "min_width_m": null, "from_node": 221, "to_node": 224}, "geometry": {"type": "LineString", "coordinates": [[396091.97, 138949.02], [396091.97, 138948.94]]}}, {"type": "Feature", "properties": {"link_id": 218, "link_type": "sidewalk", "length_m": 1.61, "avg_width_m": 2.74, "min_width_m": 2.58, "from_node": 48, "to_node": 17}, "geometry": {"type": "LineString", "coordinates": [[395984.45, 139036.62], [395985.17, 139038.06]]}}, {"type": "Feature", "properties": {"link_id": 219, "link_type": "sidewalk", "length_m": 0.11, "avg_width_m": 3.19, "min_width_m": 3.08, "from_node": 191, "to_node": 190}, "geometry": {"type": "LineString", "coordinates": [[396042.77, 138893.82], [396042.85, 138893.9]]}}, {"type": "Feature", "properties": {"link_id": 220, "link_type": "sidewalk", "length_m": 4.66, "avg_width_m": 2.39, "min_width_m": 2.23, "from_node": 191, "to_node": 59}, "geometry": {"type": "LineString", "coordinates": [[396042.77, 138893.82], [396041.25, 138889.42]]}}, {"type": "Feature", "properties": {"link_id": 221, "link_type": "sidewalk", "length_m": 0.08, "avg_width_m": 4.19, "min_width_m": 4.15, "from_node": 9, "to_node": 147}, "geometry": {"type": "LineString", "coordinates": [[396032.45, 138918.78], [396032.53, 138918.78]]}}, {"type": "Feature", "properties": {"link_id": 222, "link_type": "sidewalk", "length_m": 96.03, "avg_width_m": 2.22, "min_width_m": 0.93, "from_node": 137, "to_node": 30}, "geometry": {"type": "LineString", "coordinates": [[396087.81, 139077.58], [396076.704, 139073.96], [396044.85, 139060.317], [396033.826, 139057.408], [396031.317, 139055.759], [396027.895, 139054.943], [396011.904, 139047.695], [395998.53, 139042.86]]}}, {"type": "Feature", "properties": {"link_id": 223, "link_type": "sidewalk", "length_m": 0.11, "avg_width_m": 2.88, "min_width_m": 2.83, "from_node": 137, "to_node": 225}, "geometry": {"type": "LineString", "coordinates": [[396087.81, 139077.58], [396087.89, 139077.5]]}}, {"type": "Feature", "properties": {"link_id": 224, "link_type": "pseudo", "length_m": 1.04, "avg_width_m": null, "min_width_m": null, "from_node": 225, "to_node": 226}, "geometry": {"type": "LineString", "coordinates": [[396087.89, 139077.5], [396088.45, 139076.62]]}}, {"type": "Feature", "properties": {"link_id": 225, "link_type": "crosswalk", "length_m": 10.19, "avg_width_m": 4.3, "min_width_m": 2.22, "from_node": 226, "to_node": 227}, "geometry": {"type": "LineString", "coordinates": [[396088.45, 139076.62], [396092.29, 139067.18]]}}, {"type": "Feature", "properties": {"link_id": 226, "link_type": "pseudo", "length_m": 1.36, "avg_width_m": null, "min_width_m": null, "from_node": 227, "to_node": 139}, "geometry": {"type": "LineString", "coordinates": [[396092.29, 139067.18], [396092.37, 139065.82]]}}, {"type": "Feature", "properties": {"link_id": 227, "link_type": "sidewalk", "length_m": 1.13, "avg_width_m": 2.76, "min_width_m": 2.5, "from_node": 29, "to_node": 16}, "geometry": {"type": "LineString", "coordinates": [[395998.45, 139042.86], [395997.33, 139043.02]]}}, {"type": "Feature", "properties": {"link_id": 228, "link_type": "sidewalk", "length_m": 0.08, "avg_width_m": 2.43, "min_width_m": 2.42, "from_node": 29, "to_node": 30}, "geometry": {"type": "LineString", "coordinates": [[395998.45, 139042.86], [395998.53, 139042.86]]}}, {"type": "Feature", "properties": {"link_id": 229, "link_type": "sidewalk", "length_m": 8.19, "avg_width_m": 0.82, "min_width_m": 0.48, "from_node": 186, "to_node": 228}, "geometry": {"type": "LineString", "coordinates": [[396159.49, 138993.02], [396158.85, 139001.18]]}}, {"type": "Feature", "properties": {"link_id": 230, "link_type": "sidewalk", "length_m": 0.08, "avg_width_m": 3.6, "min_width_m": 3.52, "from_node": 186, "to_node": 187}, "geometry": {"type": "LineString", "coordinates": [[396159.49, 138993.02], [396159.49, 138992.94]]}}, {"type": "Feature", "properties": {"link_id": 231, "link_type": "sidewalk", "length_m": 1.99, "avg_width_m": 2.55, "min_width_m": 2.49, "from_node": 182, "to_node": 223}, "geometry": {"type": "LineString", "coordinates": [[396090.37, 138947.74], [396091.89, 138949.02]]}}, {"type": "Feature", "properties": {"link_id": 232, "link_type": "sidewalk", "length_m": 0.11, "avg_width_m": 2.73, "min_width_m": 2.58, "from_node": 182, "to_node": 229}, "geometry": {"type": "LineString", "coordinates": [[396090.37, 138947.74], [396090.45, 138947.66]]}}, {"type": "Feature", "properties": {"link_id": 233, "link_type": "pseudo", "length_m": 0.79, "avg_width_m": null, "min_width_m": null, "from_node": 229, "to_node": 230}, "geometry": {"type": "LineString", "coordinates": [[396090.45, 138947.66], [396091.17, 138947.34]]}}, {"type": "Feature", "properties": {"link_id": 234, "link_type": "crosswalk", "length_m": 1.79, "avg_width_m": null, "min_width_m": null, "from_node": 230, "to_node": 224}, "geometry": {"type": "LineString", "coordinates": [[396091.17, 138947.34], [396091.97, 138948.94]]}}, {"type": "Feature", "properties": {"link_id": 235, "link_type": "sidewalk", "length_m": 18.41, "avg_width_m": 2.25, "min_width_m": 1.28, "from_node": 231, "to_node": 117}, "geometry": {"type": "LineString", "coordinates": [[396178.85, 139081.82], [396160.45, 139082.54]]}}, {"type": "Feature", "properties": {"link_id": 236, "link_type": "sidewalk", "length_m": 22.39, "avg_width_m": 3.88, "min_width_m": 2.42, "from_node": 95, "to_node": 130}, "geometry": {"type": "LineString", "coordinates": [[396106.53, 138976.46], [396107.525, 138981.249], [396110.724, 138986.234], [396112.146, 138991.02], [396114.092, 138994.172], [396116.45, 138995.82]]}}, {"type": "Feature", "properties": {"link_id": 237, "link_type": "sidewalk", "length_m": 0.11, "avg_width_m": 7.47, "min_width_m": 7.36, "from_node": 95, "to_node": 96}, "geometry": {"type": "LineString", "coordinates": [[396106.53, 138976.46], [396106.61, 138976.38]]}}, {"type": "Feature", "properties": {"link_id": 238, "link_type": "sidewalk", "length_m": 38.56, "avg_width_m": 4.76, "min_width_m": 2.88, "from_node": 200, "to_node": 192}, "geometry": {"type": "LineString", "coordinates": [[396092.21, 138949.26], [396095.141, 138950.19], [396097.707, 138952.184], [396101.412, 138953.631], [396103.768, 138955.371], [396107.516, 138956.463], [396112.45, 138960.469], [396117.923, 138963.185], [396120.656, 138967.639], [396124.21, 138968.78]]}}, {"type": "Feature", "properties": {"link_id": 239, "link_type": "pseudo", "length_m": 0.11, "avg_width_m": null, "min_width_m": null, "from_node": 232, "to_node": 233}, "geometry": {"type": "LineString", "coordinates": [[396059.73, 138927.42], [396059.65, 138927.5]]}}, {"type": "Feature", "properties": {"link_id": 240, "link_type": "sidewalk", "length_m": 3.33, "avg_width_m": 2.1, "min_width_m": 1.65, "from_node": 233, "to_node": 234}, "geometry": {"type": "LineString", "coordinates": [[396059.65, 138927.5], [396058.29, 138930.54]]}}, {"type": "Feature", "properties": {"link_id": 241, "link_type": "pseudo", "length_m": 1.36, "avg_width_m": null, "min_width_m": null, "from_node": 232, "to_node": 235}, "geometry": {"type": "LineString", "coordinates": [[396059.73, 138927.42], [396061.09, 138927.5]]}}, {"type": "Feature", "properties": {"link_id": 242, "link_type": "crosswalk", "length_m": 19.2, "avg_width_m": 2.82, "min_width_m": 0.45, "from_node": 235, "to_node": 236}, "geometry": {"type": "LineString", "coordinates": [[396061.09, 138927.5], [396067.97, 138945.42]]}}, {"type": "Feature", "properties": {"link_id": 243, "link_type": "pseudo", "length_m": 1.62, "avg_width_m": null, "min_width_m": null, "from_node": 236, "to_node": 69}, "geometry": {"type": "LineString", "coordinates": [[396067.97, 138945.42], [396067.73, 138947.02]]}}, {"type": "Feature", "properties": {"link_id": 244, "link_type": "pseudo", "length_m": 0.11, "avg_width_m": null, "min_width_m": null, "from_node": 232, "to_node": 237}, "geometry": {"type": "LineString", "coordinates": [[396059.73, 138927.42], [396059.65, 138927.34]]}}, {"type": "Feature", "properties": {"link_id": 245, "link_type": "sidewalk", "length_m": 15.61, "avg_width_m": 3.08, "min_width_m": 0.36, "from_node": 237, "to_node": 206}, "geometry": {"type": "LineString", "coordinates": [[396059.65, 138927.34], [396058.24, 138922.195], [396052.156, 138917.783], [396051.49, 138915.1]]}}, {"type": "Feature", "properties": {"link_id": 246, "link_type": "sidewalk", "length_m": 2.09, "avg_width_m": 0.88, "min_width_m": 0.45, "from_node": 238, "to_node": 239}, "geometry": {"type": "LineString", "coordinates": [[396098.53, 139086.94], [396100.05, 139085.5]]}}, {"type": "Feature", "properties": {"link_id": 247, "link_type": "sidewalk", "length_m": 3.39, "avg_width_m": 2.99, "min_width_m": 2.72, "from_node": 240, "to_node": 52}, "geometry": {"type": "LineString", "coordinates": [[396134.05, 138993.02], [396131.65, 138995.42]]}}, {"type": "Feature", "properties": {"link_id": 248, "link_type": "sidewalk", "length_m": 0.08, "avg_width_m": 3.32, "min_width_m": 3.3, "from_node": 240, "to_node": 241}, "geometry": {"type": "LineString", "coordinates": [[396134.05, 138993.02], [396134.13, 138993.02]]}}, {"type": "Feature", "properties": {"link_id": 249, "link_type": "sidewalk", "length_m": 0.08, "avg_width_m": 3.42, "min_width_m": 3.34, "from_node": 240, "to_node": 242}, "geometry": {"type": "LineString", "coordinates": [[396134.05, 138993.02], [396134.05, 138992.94]]}}, {"type": "Feature", "properties": {"link_id": 250, "link_type": "sidewalk", "length_m": 0.11, "avg_width_m": 2.46, "min_width_m": 2.44, "from_node": 40, "to_node": 119}, "geometry": {"type": "LineString", "coordinates": [[396107.49, 139023.34], [396107.57, 139023.26]]}}, {"type": "Feature", "properties": {"link_id": 251, "link_type": "sidewalk", "length_m": 34.19, "avg_width_m": 1.83, "min_width_m": 1.28, "from_node": 112, "to_node": 177}, "geometry": {"type": "LineString", "coordinates": [[396109.81, 139063.74], [396108.534, 139065.523], [396107.626, 139069.638], [396107.911, 139070.698], [396109.101, 139071.716], [396112.05, 139073.416], [396117.281, 139075.455], [396132.93, 139079.26]]}}, {"type": "Feature", "properties": {"link_id": 252, "link_type": "pseudo", "length_m": 1.3, "avg_width_m": null, "min_width_m": null, "from_node": 100, "to_node": 243}, "geometry": {"type": "LineString", "coordinates": [[396089.09, 139080.3], [396090.37, 139080.54]]}}, {"type": "Feature", "properties": {"link_id": 253, "link_type": "crosswalk", "length_m": 9.86, "avg_width_m": 4.41, "min_width_m": 2.22, "from_node": 243, "to_node": 244}, "geometry": {"type": "LineString", "coordinates": [[396090.37, 139080.54], [396099.49, 139084.3]]}}, {"type": "Feature", "properties": {"link_id": 254, "link_type": "pseudo", "length_m": 1.25, "avg_width_m": null, "min_width_m": null, "from_node": 244, "to_node": 245}, "geometry": {"type": "LineString", "coordinates": [[396099.49, 139084.3], [396100.05, 139085.42]]}}, {"type": "Feature", "properties": {"link_id": 255, "link_type": "crosswalk", "length_m": 0.11, "avg_width_m": null, "min_width_m": null, "from_node": 224, "to_node": 223}, "geometry": {"type": "LineString", "coordinates": [[396091.97, 138948.94], [396091.89, 138949.02]]}}, {"type": "Feature", "properties": {"link_id": 256, "link_type": "sidewalk", "length_m": 0.8, "avg_width_m": 0.53, "min_width_m": 0.32, "from_node": 246, "to_node": 84}, "geometry": {"type": "LineString", "coordinates": [[396048.29, 138912.86], [396049.09, 138912.78]]}}, {"type": "Feature", "properties": {"link_id": 257, "link_type": "pseudo", "length_m": 0.11, "avg_width_m": null, "min_width_m": null, "from_node": 92, "to_node": 91}, "geometry": {"type": "LineString", "coordinates": [[396166.21, 138892.46], [396166.29, 138892.54]]}}, {"type": "Feature", "properties": {"link_id": 258, "link_type": "sidewalk", "length_m": 0.08, "avg_width_m": 2.43, "min_width_m": 2.42, "from_node": 73, "to_node": 239}, "geometry": {"type": "LineString", "coordinates": [[396100.13, 139085.5], [396100.05, 139085.5]]}}, {"type": "Feature", "properties": {"link_id": 259, "link_type": "sidewalk", "length_m": 0.11, "avg_width_m": 2.47, "min_width_m": 2.45, "from_node": 73, "to_node": 245}, "geometry": {"type": "LineString", "coordinates": [[396100.13, 139085.5], [396100.05, 139085.42]]}}, {"type": "Feature", "properties": {"link_id": 260, "link_type": "pseudo", "length_m": 0.08, "avg_width_m": null, "min_width_m": null, "from_node": 245, "to_node": 239}, "geometry": {"type": "LineString", "coordinates": [[396100.05, 139085.42], [396100.05, 139085.5]]}}, {"type": "Feature", "properties": {"link_id": 261, "link_type": "pseudo", "length_m": 0.11, "avg_width_m": null, "min_width_m": null, "from_node": 139, "to_node": 35}, "geometry": {"type": "LineString", "coordinates": [[396092.37, 139065.82], [396092.45, 139065.74]]}}, {"type": "Feature", "properties": {"link_id": 262, "link_type": "sidewalk", "length_m": 0.08, "avg_width_m": 3.82, "min_width_m": 3.8, "from_node": 151, "to_node": 42}, "geometry": {"type": "LineString", "coordinates": [[396153.65, 138888.86], [396153.65, 138888.78]]}}, {"type": "Feature", "properties": {"link_id": 263, "link_type": "sidewalk", "length_m": 0.11, "avg_width_m": 3.33, "min_width_m": 3.24, "from_node": 177, "to_node": 176}, "geometry": {"type": "LineString", "coordinates": [[396132.93, 139079.26], [396133.01, 139079.34]]}}, {"type": "Feature", "properties": {"link_id": 264, "link_type": "pseudo", "length_m": 1.5, "avg_width_m": null, "min_width_m": null, "from_node": 183, "to_node": 247}, "geometry": {"type": "LineString", "coordinates": [[396088.29, 138943.5], [396086.93, 138944.14]]}}, {"type": "Feature", "properties": {"link_id": 265, "link_type": "crosswalk", "length_m": 16.17, "avg_width_m": 5.3, "min_width_m": 2.27, "from_node": 247, "to_node": 248}, "geometry": {"type": "LineString", "coordinates": [[396086.93, 138944.14], [396071.17, 138947.74]]}}, {"type": "Feature", "properties": {"link_id": 266, "link_type": "pseudo", "length_m": 0.96, "avg_width_m": null, "min_width_m": null, "from_node": 248, "to_node": 67}, "geometry": {"type": "LineString", "coordinates": [[396071.17, 138947.74], [396070.53, 138948.46]]}}, {"type": "Feature", "properties": {"link_id": 267, "link_type": "pseudo", "length_m": 0.11, "avg_width_m": null, "min_width_m": null, "from_node": 183, "to_node": 184}, "geometry": {"type": "LineString", "coordinates": [[396088.29, 138943.5], [396088.37, 138943.42]]}}, {"type": "Feature", "properties": {"link_id": 268, "link_type": "sidewalk", "length_m": 8.77, "avg_width_m": 2.56, "min_width_m": 2.02, "from_node": 78, "to_node": 249}, "geometry": {"type": "LineString", "coordinates": [[396164.77, 139096.62], [396166.69, 139105.18]]}}, {"type": "Feature", "properties": {"link_id": 269, "link_type": "sidewalk", "length_m": 0.11, "avg_width_m": 4.6, "min_width_m": 4.52, "from_node": 78, "to_node": 79}, "geometry": {"type": "LineString", "coordinates": [[396164.77, 139096.62], [396164.69, 139096.54]]}}, {"type": "Feature", "properties": {"link_id": 270, "link_type": "pseudo", "length_m": 2.25, "avg_width_m": null, "min_width_m": null, "from_node": 79, "to_node": 250}, "geometry": {"type": "LineString", "coordinates": [[396164.69, 139096.54], [396162.45, 139096.3]]}}, {"type": "Feature", "properties": {"link_id": 271, "link_type": "crosswalk", "length_m": 19.53, "avg_width_m": 4.38, "min_width_m": 0.36, "from_node": 250, "to_node": 251}, "geometry": {"type": "LineString", "coordinates": [[396162.45, 139096.3], [396143.01, 139094.38]]}}, {"type": "Feature", "properties": {"link_id": 272, "link_type": "pseudo", "length_m": 0.68, "avg_width_m": null, "min_width_m": null, "from_node": 251, "to_node": 87}, "geometry": {"type": "LineString", "coordinates": [[396143.01, 139094.38], [396142.53, 139094.86]]}}, {"type": "Feature", "properties": {"link_id": 273, "link_type": "sidewalk", "length_m": 0.11, "avg_width_m": 1.28, "min_width_m": 1.22, "from_node": 84, "to_node": 85}, "geometry": {"type": "LineString", "coordinates": [[396049.09, 138912.78], [396049.17, 138912.7]]}}, {"type": "Feature", "properties": {"link_id": 274, "link_type": "sidewalk", "length_m": 10.18, "avg_width_m": 3.58, "min_width_m": 1.79, "from_node": 252, "to_node": 46}, "geometry": {"type": "LineString", "coordinates": [[396177.17, 138866.62], [396174.344, 138868.994], [396172.37, 138875.18]]}}, {"type": "Feature", "properties": {"link_id": 275, "link_type": "sidewalk", "length_m": 1.67, "avg_width_m": 2.63, "min_width_m": 2.53, "from_node": 19, "to_node": 62}, "geometry": {"type": "LineString", "coordinates": [[395991.17, 139024.54], [395989.57, 139025.02]]}}, {"type": "Feature", "properties": {"link_id": 276, "link_type": "sidewalk", "length_m": 3.52, "avg_width_m": 1.84, "min_width_m": 1.28, "from_node": 253, "to_node": 169}, "geometry": {"type": "LineString", "coordinates": [[396128.61, 139016.3], [396125.33, 139015.02]]}}, {"type": "Feature", "properties": {"link_id": 277, "link_type": "pseudo", "length_m": 0.11, "avg_width_m": null, "min_width_m": null, "from_node": 197, "to_node": 97}, "geometry": {"type": "LineString", "coordinates": [[396102.93, 138971.9], [396103.01, 138971.98]]}}, {"type": "Feature", "properties": {"link_id": 278, "link_type": "pseudo", "length_m": 1.7, "avg_width_m": null, "min_width_m": null, "from_node": 85, "to_node": 254}, "geometry": {"type": "LineString", "coordinates": [[396049.17, 138912.7], [396049.73, 138911.1]]}}, {"type": "Feature", "properties": {"link_id": 279, "link_type": "crosswalk", "length_m": 17.81, "avg_width_m": 4.01, "min_width_m": 1.01, "from_node": 254, "to_node": 255}, "geometry": {"type": "LineString", "coordinates": [[396049.73, 138911.1], [396044.29, 138894.14]]}}, {"type": "Feature", "properties": {"link_id": 280, "link_type": "pseudo", "length_m": 1.46, "avg_width_m": null, "min_width_m": null, "from_node": 255, "to_node": 190}, "geometry": {"type": "LineString", "coordinates": [[396044.29, 138894.14], [396042.85, 138893.9]]}}, {"type": "Feature", "properties": {"link_id": 281, "link_type": "pseudo", "length_m": 0.11, "avg_width_m": null, "min_width_m": null, "from_node": 126, "to_node": 169}, "geometry": {"type": "LineString", "coordinates": [[396125.25, 139014.94], [396125.33, 139015.02]]}}, {"type": "Feature", "properties": {"link_id": 282, "link_type": "sidewalk", "length_m": 0.11, "avg_width_m": 3.49, "min_width_m": 3.39, "from_node": 155, "to_node": 55}, "geometry": {"type": "LineString", "coordinates": [[396120.85, 138985.18], [396120.93, 138985.26]]}}, {"type": "Feature", "properties": {"link_id": 283, "link_type": "sidewalk", "length_m": 3.66, "avg_width_m": 3.1, "min_width_m": 2.94, "from_node": 87, "to_node": 218}, "geometry": {"type": "LineString", "coordinates": [[396142.53, 139094.86], [396139.41, 139092.94]]}}, {"type": "Feature", "properties": {"link_id": 284, "link_type": "sidewalk", "length_m": 0.08, "avg_width_m": 4.29, "min_width_m": 4.27, "from_node": 178, "to_node": 256}, "geometry": {"type": "LineString", "coordinates": [[396133.89, 139078.94], [396133.97, 139078.94]]}}, {"type": "Feature", "properties": {"link_id": 285, "link_type": "pseudo", "length_m": 2.8, "avg_width_m": null, "min_width_m": null, "from_node": 256, "to_node": 257}, "geometry": {"type": "LineString", "coordinates": [[396133.97, 139078.94], [396136.77, 139079.02]]}}, {"type": "Feature", "properties": {"link_id": 286, "link_type": "crosswalk", "length_m": 20.76, "avg_width_m": 4.5, "min_width_m": 0.16, "from_node": 257, "to_node": 258}, "geometry": {"type": "LineString", "coordinates": [[396136.77, 139079.02], [396157.41, 139081.26]]}}, {"type": "Feature", "properties": {"link_id": 287, "link_type": "pseudo", "length_m": 0.49, "avg_width_m": null, "min_width_m": null, "from_node": 258, "to_node": 259}, "geometry": {"type": "LineString", "coordinates": [[396157.41, 139081.26], [396157.33, 139081.74]]}}, {"type": "Feature", "properties": {"link_id": 288, "link_type": "sidewalk", "length_m": 3.22, "avg_width_m": 2.79, "min_width_m": 2.64, "from_node": 259, "to_node": 117}, "geometry": {"type": "LineString", "coordinates": [[396157.33, 139081.74], [396160.45, 139082.54]]}}, {"type": "Feature", "properties": {"link_id": 289, "link_type": "sidewalk", "length_m": 0.11, "avg_width_m": 2.58, "min_width_m": 2.5, "from_node": 59, "to_node": 260}, "geometry": {"type": "LineString", "coordinates": [[396041.25, 138889.42], [396041.33, 138889.34]]}}, {"type": "Feature", "properties": {"link_id": 290, "link_type": "pseudo", "length_m": 1.43, "avg_width_m": null, "min_width_m": null, "from_node": 260, "to_node": 261}, "geometry": {"type": "LineString", "coordinates": [[396041.33, 138889.34], [396042.61, 138888.7]]}}, {"type": "Feature", "properties": {"link_id": 291, "link_type": "crosswalk", "length_m": 15.14, "avg_width_m": 5.35, "min_width_m": 3.24, "from_node": 261, "to_node": 262}, "geometry": {"type": "LineString", "coordinates": [[396042.61, 138888.7], [396055.97, 138881.58]]}}, {"type": "Feature", "properties": {"link_id": 292, "link_type": "pseudo", "length_m": 2.43, "avg_width_m": null, "min_width_m": null, "from_node": 262, "to_node": 133}, "geometry": {"type": "LineString", "coordinates": [[396055.97, 138881.58], [396057.73, 138879.9]]}}, {"type": "Feature", "properties": {"link_id": 293, "link_type": "pseudo", "length_m": 0.11, "avg_width_m": null, "min_width_m": null, "from_node": 46, "to_node": 263}, "geometry": {"type": "LineString", "coordinates": [[396172.37, 138875.18], [396172.45, 138875.26]]}}, {"type": "Feature", "properties": {"link_id": 294, "link_type": "sidewalk", "length_m": 2.74, "avg_width_m": 3.13, "min_width_m": 3.04, "from_node": 263, "to_node": 220}, "geometry": {"type": "LineString", "coordinates": [[396172.45, 138875.26], [396172.77, 138877.98]]}}, {"type": "Feature", "properties": {"link_id": 295, "link_type": "sidewalk", "length_m": 0.08, "avg_width_m": 3.76, "min_width_m": 3.68, "from_node": 93, "to_node": 110}, "geometry": {"type": "LineString", "coordinates": [[396168.69, 138890.86], [396168.69, 138890.78]]}}, {"type": "Feature", "properties": {"link_id": 296, "link_type": "sidewalk", "length_m": 0.11, "avg_width_m": 3.36, "min_width_m": 3.24, "from_node": 220, "to_node": 264}, "geometry": {"type": "LineString", "coordinates": [[396172.77, 138877.98], [396172.69, 138878.06]]}}, {"type": "Feature", "properties": {"link_id": 297, "link_type": "pseudo", "length_m": 1.65, "avg_width_m": null, "min_width_m": null, "from_node": 264, "to_node": 265}, "geometry": {"type": "LineString", "coordinates": [[396172.69, 138878.06], [396171.65, 138879.34]]}}, {"type": "Feature", "properties": {"link_id": 298, "link_type": "crosswalk", "length_m": 10.53, "avg_width_m": 4.2, "min_width_m": 2.24, "from_node": 265, "to_node": 266}, "geometry": {"type": "LineString", "coordinates": [[396171.65, 138879.34], [396168.13, 138889.26]]}}, {"type": "Feature", "properties": {"link_id": 299, "link_type": "pseudo", "length_m": 1.62, "avg_width_m": null, "min_width_m": null, "from_node": 266, "to_node": 110}, "geometry": {"type": "LineString", "coordinates": [[396168.13, 138889.26], [396168.69, 138890.78]]}}, {"type": "Feature", "properties": {"link_id": 300, "link_type": "sidewalk", "length_m": 0.11, "avg_width_m": 4.3, "min_width_m": 4.19, "from_node": 267, "to_node": 268}, "geometry": {"type": "LineString", "coordinates": [[396139.01, 138979.5], [396138.93, 138979.58]]}}, {"type": "Feature", "properties": {"link_id": 301, "link_type": "pseudo", "length_m": 1.87, "avg_width_m": null, "min_width_m": null, "from_node": 268, "to_node": 269}, "geometry": {"type": "LineString", "coordinates": [[396138.93, 138979.58], [396137.57, 138980.86]]}}, {"type": "Feature", "properties": {"link_id": 302, "link_type": "crosswalk", "length_m": 11.94, "avg_width_m": 4.06, "min_width_m": 0.48, "from_node": 269, "to_node": 270}, "geometry": {"type": "LineString", "coordinates": [[396137.57, 138980.86], [396133.89, 138992.22]]}}, {"type": "Feature", "properties": {"link_id": 303, "link_type": "pseudo", "length_m": 0.74, "avg_width_m": null, "min_width_m": null, "from_node": 270, "to_node": 242}, "geometry": {"type": "LineString", "coordinates": [[396133.89, 138992.22], [396134.05, 138992.94]]}}, {"type": "Feature", "properties": {"link_id": 304, "link_type": "sidewalk", "length_m": 42.18, "avg_width_m": 3.17, "min_width_m": 1.79, "from_node": 267, "to_node": 271}, "geometry": {"type": "LineString", "coordinates": [[396139.01, 138979.5], [396141.413, 138980.321], [396145.81, 138980.534], [396156.93, 138979.751], [396162.13, 138980.441], [396166.05, 138979.776], [396170.05, 138980.252], [396176.687, 138979.942], [396178.513, 138980.434], [396179.97, 138982.22]]}}, {"type": "Feature", "properties": {"link_id": 305, "link_type": "sidewalk", "length_m": 2.08, "avg_width_m": 4.23, "min_width_m": 4.15, "from_node": 267, "to_node": 272}, "geometry": {"type": "LineString", "coordinates": [[396139.01, 138979.5], [396138.05, 138977.66]]}}, {"type": "Feature", "properties": {"link_id": 306, "link_type": "sidewalk", "length_m": 40.27, "avg_width_m": 3.48, "min_width_m": 1.72, "from_node": 273, "to_node": 274}, "geometry": {"type": "LineString", "coordinates": [[396155.81, 139076.54], [396152.704, 139073.331], [396151.051, 139068.887], [396148.235, 139064.62], [396142.945, 139053.221], [396140.422, 139049.578], [396136.799, 139041.388]]}}, {"type": "Feature", "properties": {"link_id": 307, "link_type": "midblock", "length_m": 9.84, "avg_width_m": null, "min_width_m": null, "from_node": 274, "to_node": 275}, "geometry": {"type": "LineString", "coordinates": [[396136.799, 139041.388], [396132.821, 139032.393]]}}, {"type": "Feature", "properties": {"link_id": 308, "link_type": "sidewalk", "length_m": 11.75, "avg_width_m": 2.41, "min_width_m": 1.79, "from_node": 275, "to_node": 168}, "geometry": {"type": "LineString", "coordinates": [[396132.821, 139032.393], [396131.754, 139029.98], [396127.25, 139022.06]]}}, {"type": "Feature", "properties": {"link_id": 309, "link_type": "sidewalk", "length_m": 40.49, "avg_width_m": 3.04, "min_width_m": 1.93, "from_node": 91, "to_node": 276}, "geometry": {"type": "LineString", "coordinates": [[396166.29, 138892.54], [396164.284, 138897.9], [396163.353, 138904.22], [396161.025, 138908.7], [396160.207, 138912.677], [396157.902, 138916.541], [396156.794, 138922.213], [396155.292, 138925.515], [396154.795, 138929.418], [396154.012, 138930.607]]}}, {"type": "Feature", "properties": {"link_id": 310, "link_type": "midblock", "length_m": 8.17, "avg_width_m": null, "min_width_m": null, "from_node": 276, "to_node": 277}, "geometry": {"type": "LineString", "coordinates": [[396154.012, 138930.607], [396152.445, 138932.986], [396150.638, 138937.991]]}}, {"type": "Feature", "properties": {"link_id": 311, "link_type": "sidewalk", "length_m": 41.77, "avg_width_m": 2.87, "min_width_m": 1.65, "from_node": 277, "to_node": 272}, "geometry": {"type": "LineString", "coordinates": [[396150.638, 138937.991], [396147.071, 138950.455], [396145.224, 138954.065], [396144.232, 138958.931], [396138.609, 138974.06], [396138.05, 138977.66]]}}, {"type": "Feature", "properties": {"link_id": 312, "link_type": "sidewalk", "length_m": 0.11, "avg_width_m": 2.83, "min_width_m": 2.72, "from_node": 142, "to_node": 161}, "geometry": {"type": "LineString", "coordinates": [[396002.77, 139029.02], [396002.69, 139028.94]]}}, {"type": "Feature", "properties": {"link_id": 313, "link_type": "pseudo", "length_m": 2.08, "avg_width_m": null, "min_width_m": null, "from_node": 272, "to_node": 278}, "geometry": {"type": "LineString", "coordinates": [[396138.05, 138977.66], [396135.97, 138977.66]]}}, {"type": "Feature", "properties": {"link_id": 314, "link_type": "crosswalk", "length_m": 11.12, "avg_width_m": 3.63, "min_width_m": 2.58, "from_node": 278, "to_node": 279}, "geometry": {"type": "LineString", "coordinates": [[396135.97, 138977.66], [396127.57, 138970.38]]}}, {"type": "Feature", "properties": {"link_id": 315, "link_type": "pseudo", "length_m": 2.11, "avg_width_m": null, "min_width_m": null, "from_node": 279, "to_node": 280}, "geometry": {"type": "LineString", "coordinates": [[396127.57, 138970.38], [396129.41, 138969.34]]}}, {"type": "Feature", "properties": {"link_id": 316, "link_type": "sidewalk", "length_m": 36.58, "avg_width_m": 3.99, "min_width_m": 1.79, "from_node": 133, "to_node": 281}, "geometry": {"type": "LineString", "coordinates": [[396057.73, 138879.9], [396061.221, 138882.512], [396060.722, 138885.98], [396061.435, 138889.251], [396065.819, 138896.675], [396070.652, 138908.3], [396072.504, 138912.023]]}}, {"type": "Feature", "properties": {"link_id": 317, "link_type": "midblock", "length_m": 2.16, "avg_width_m": null, "min_width_m": null, "from_node": 281, "to_node": 282}, "geometry": {"type": "LineString", "coordinates": [[396072.504, 138912.023], [396073.465, 138913.956]]}}, {"type": "Feature", "properties": {"link_id": 318, "link_type": "sidewalk", "length_m": 33.18, "avg_width_m": 3.11, "min_width_m": 1.07, "from_node": 282, "to_node": 184}, "geometry": {"type": "LineString", "coordinates": [[396073.465, 138913.956], [396077.453, 138921.976], [396080.871, 138926.712], [396082.491, 138932.06], [396088.37, 138943.42]]}}, {"type": "Feature", "properties": {"link_id": 319, "link_type": "sidewalk", "length_m": 25.38, "avg_width_m": 2.51, "min_width_m": 1.76, "from_node": 187, "to_node": 241}, "geometry": {"type": "LineString", "coordinates": [[396159.49, 138992.94], [396143.97, 138993.496], [396134.13, 138993.02]]}}, {"type": "Feature", "properties": {"link_id": 320, "link_type": "pseudo", "length_m": 1.28, "avg_width_m": null, "min_width_m": null, "from_node": 218, "to_node": 283}, "geometry": {"type": "LineString", "coordinates": [[396139.41, 139092.94], [396139.41, 139091.66]]}}, {"type": "Feature", "properties": {"link_id": 321, "link_type": "crosswalk", "length_m": 12.69, "avg_width_m": 4.16, "min_width_m": 1.79, "from_node": 283, "to_node": 284}, "geometry": {"type": "LineString", "coordinates": [[396139.41, 139091.66], [396133.01, 139080.7]]}}, {"type": "Feature", "properties": {"link_id": 322, "link_type": "pseudo", "length_m": 1.36, "avg_width_m": null, "min_width_m": null, "from_node": 284, "to_node": 176}, "geometry": {"type": "LineString", "coordinates": [[396133.01, 139080.7], [396133.01, 139079.34]]}}, {"type": "Feature", "properties": {"link_id": 323, "link_type": "sidewalk", "length_m": 0.11, "avg_width_m": 3.38, "min_width_m": 3.3, "from_node": 241, "to_node": 242}, "geometry": {"type": "LineString", "coordinates": [[396134.13, 138993.02], [396134.05, 138992.94]]}}, {"type": "Feature", "properties": {"link_id": 324, "link_type": "sidewalk", "length_m": 0.11, "avg_width_m": 5.99, "min_width_m": 5.94, "from_node": 206, "to_node": 83}, "geometry": {"type": "LineString", "coordinates": [[396051.49, 138915.1], [396051.41, 138915.02]]}}], "crs": {"type": "name", "properties": {"name": "EPSG:26985"}}}