{"type": "FeatureCollection", "features": [{"type": "Feature", "properties": {"node_id": 0, "node_type": "endpoint", "degree": 1, "link_types": "sidewalk"}, "geometry": {"type": "Point", "coordinates": [-77.0468145, 38.9190332]}}, {"type": "Feature", "properties": {"node_id": 1, "node_type": "junction", "degree": 3, "link_types": "sidewalk"}, "geometry": {"type": "Point", "coordinates": [-77.0463054, 38.9191905]}}, {"type": "Feature", "properties": {"node_id": 2, "node_type": "junction", "degree": 3, "link_types": "sidewalk"}, "geometry": {"type": "Point", "coordinates": [-77.046716, 38.9178275]}}, {"type": "Feature", "properties": {"node_id": 3, "node_type": "type_change", "degree": 2, "link_types": "midblock+sidewalk"}, "geometry": {"type": "Point", "coordinates": [-77.0464107, 38.9179311]}}, {"type": "Feature", "properties": {"node_id": 4, "node_type": "type_change", "degree": 2, "link_types": "midblock+sidewalk"}, "geometry": {"type": "Point", "coordinates": [-77.0463554, 38.9179459]}}, {"type": "Feature", "properties": {"node_id": 5, "node_type": "type_change", "degree": 2, "link_types": "midblock+sidewalk"}, "geometry": {"type": "Point", "coordinates": [-77.0462872, 38.9179674]}}, {"type": "Feature", "properties": {"node_id": 6, "node_type": "type_change", "degree": 2, "link_types": "midblock+sidewalk"}, "geometry": {"type": "Point", "coordinates": [-77.0462411, 38.9179839]}}, {"type": "Feature", "properties": {"node_id": 7, "node_type": "type_change", "degree": 2, "link_types": "midblock+sidewalk"}, "geometry": {"type": "Point", "coordinates": [-77.0460057, 38.9180494]}}, {"type": "Feature", "properties": {"node_id": 8, "node_type": "type_change", "degree": 2, "link_types": "midblock+sidewalk"}, "geometry": {"type": "Point", "coordinates": [-77.0459459, 38.9180761]}}, {"type": "Feature", "properties": {"node_id": 9, "node_type": "type_change", "degree": 3, "link_types": "pseudo+sidewalk"}, "geometry": {"type": "Point", "coordinates": [-77.0457503, 38.9181292]}}, {"type": "Feature", "properties": {"node_id": 10, "node_type": "junction", "degree": 3, "link_types": "sidewalk"}, "geometry": {"type": "Point", "coordinates": [-77.0467713, 38.9178001]}}, {"type": "Feature", "properties": {"node_id": 11, "node_type": "endpoint", "degree": 1, "link_types": "sidewalk"}, "geometry": {"type": "Point", "coordinates": [-77.0466928, 38.9177411]}}, {"type": "Feature", "properties": {"node_id": 12, "node_type": "junction", "degree": 3, "link_types": "pseudo"}, "geometry": {"type": "Point", "coordinates": [-77.0462953, 38.9192042]}}, {"type": "Feature", "properties": {"node_id": 13, "node_type": "type_change", "degree": 3, "link_types": "pseudo+sidewalk"}, "geometry": {"type": "Point", "coordinates": [-77.0462962, 38.9192042]}}, {"type": "Feature", "properties": {"node_id": 14, "node_type": "type_change", "degree": 2, "link_types": "crosswalk+pseudo"}, "geometry": {"type": "Point", "coordinates": [-77.0462759, 38.9192071]}}, {"type": "Feature", "properties": {"node_id": 15, "node_type": "type_change", "degree": 2, "link_types": "crosswalk+pseudo"}, "geometry": {"type": "Point", "coordinates": [-77.0461671, 38.9192395]}}, {"type": "Feature", "properties": {"node_id": 16, "node_type": "type_change", "degree": 3, "link_types": "pseudo+sidewalk"}, "geometry": {"type": "Point", "coordinates": [-77.046156, 38.9192482]}}, {"type": "Feature", "properties": {"node_id": 17, "node_type": "type_change", "degree": 3, "link_types": "pseudo+sidewalk"}, "geometry": {"type": "Point", "coordinates": [-77.0462962, 38.9192034]}}, {"type": "Feature", "properties": {"node_id": 18, "node_type": "junction", "degree": 3, "link_types": "sidewalk"}, "geometry": {"type": "Point", "coordinates": [-77.0462269, 38.919081]}}, {"type": "Feature", "properties": {"node_id": 19, "node_type": "type_change", "degree": 3, "link_types": "pseudo+sidewalk"}, "geometry": {"type": "Point", "coordinates": [-77.0462269, 38.9190817]}}, {"type": "Feature", "properties": {"node_id": 20, "node_type": "type_change", "degree": 3, "link_types": "pseudo+sidewalk"}, "geometry": {"type": "Point", "coordinates": [-77.046226, 38.9190817]}}, {"type": "Feature", "properties": {"node_id": 21, "node_type": "type_change", "degree": 2, "link_types": "midblock+sidewalk"}, "geometry": {"type": "Point", "coordinates": [-77.0459942, 38.9186269]}}, {"type": "Feature", "properties": {"node_id": 22, "node_type": "type_change", "degree": 2, "link_types": "midblock+sidewalk"}, "geometry": {"type": "Point", "coordinates": [-77.045969, 38.9185801]}}, {"type": "Feature", "properties": {"node_id": 23, "node_type": "type_change", "degree": 2, "link_types": "midblock+sidewalk"}, "geometry": {"type": "Point", "coordinates": [-77.0464233, 38.9180479]}}, {"type": "Feature", "properties": {"node_id": 24, "node_type": "type_change", "degree": 2, "link_types": "midblock+sidewalk"}, "geometry": {"type": "Point", "coordinates": [-77.0464931, 38.9180259]}}, {"type": "Feature", "properties": {"node_id": 25, "node_type": "type_change", "degree": 2, "link_types": "midblock+sidewalk"}, "geometry": {"type": "Point", "coordinates": [-77.046573, 38.9180031]}}, {"type": "Feature", "properties": {"node_id": 26, "node_type": "type_change", "degree": 2, "link_types": "midblock+sidewalk"}, "geometry": {"type": "Point", "coordinates": [-77.0466303, 38.9179845]}}, {"type": "Feature", "properties": {"node_id": 27, "node_type": "endpoint", "degree": 1, "link_types": "sidewalk"}, "geometry": {"type": "Point", "coordinates": [-77.0467788, 38.9179457]}}, {"type": "Feature", "properties": {"node_id": 28, "node_type": "junction", "degree": 3, "link_types": "pseudo"}, "geometry": {"type": "Point", "coordinates": [-77.0461422, 38.919246]}}, {"type": "Feature", "properties": {"node_id": 29, "node_type": "type_change", "degree": 3, "link_types": "pseudo+sidewalk"}, "geometry": {"type": "Point", "coordinates": [-77.0461431, 38.9192468]}}, {"type": "Feature", "properties": {"node_id": 30, "node_type": "type_change", "degree": 3, "link_types": "pseudo+sidewalk"}, "geometry": {"type": "Point", "coordinates": [-77.0461422, 38.9192468]}}, {"type": "Feature", "properties": {"node_id": 31, "node_type": "type_change", "degree": 2, "link_types": "crosswalk+pseudo"}, "geometry": {"type": "Point", "coordinates": [-77.0461366, 38.9192309]}}, {"type": "Feature", "properties": {"node_id": 32, "node_type": "type_change", "degree": 2, "link_types": "crosswalk+pseudo"}, "geometry": {"type": "Point", "coordinates": [-77.0460932, 38.9191488]}}, {"type": "Feature", "properties": {"node_id": 33, "node_type": "endpoint", "degree": 1, "link_types": "pseudo"}, "geometry": {"type": "Point", "coordinates": [-77.0460775, 38.9191509]}}, {"type": "Feature", "properties": {"node_id": 34, "node_type": "junction", "degree": 3, "link_types": "sidewalk"}, "geometry": {"type": "Point", "coordinates": [-77.0450325, 38.9194454]}}, {"type": "Feature", "properties": {"node_id": 35, "node_type": "type_change", "degree": 3, "link_types": "pseudo+sidewalk"}, "geometry": {"type": "Point", "coordinates": [-77.0450593, 38.9194533]}}, {"type": "Feature", "properties": {"node_id": 36, "node_type": "type_change", "degree": 2, "link_types": "pseudo+sidewalk"}, "geometry": {"type": "Point", "coordinates": [-77.0450316, 38.9194461]}}, {"type": "Feature", "properties": {"node_id": 37, "node_type": "type_change", "degree": 2, "link_types": "crosswalk+pseudo"}, "geometry": {"type": "Point", "coordinates": [-77.0450178, 38.9194533]}}, {"type": "Feature", "properties": {"node_id": 38, "node_type": "type_change", "degree": 2, "link_types": "crosswalk+pseudo"}, "geometry": {"type": "Point", "coordinates": [-77.0449163, 38.9194836]}}, {"type": "Feature", "properties": {"node_id": 39, "node_type": "endpoint", "degree": 1, "link_types": "pseudo"}, "geometry": {"type": "Point", "coordinates": [-77.0449025, 38.919467]}}, {"type": "Feature", "properties": {"node_id": 40, "node_type": "junction", "degree": 3, "link_types": "sidewalk"}, "geometry": {"type": "Point", "coordinates": [-77.0448856, 38.9190714]}}, {"type": "Feature", "properties": {"node_id": 41, "node_type": "junction", "degree": 3, "link_types": "sidewalk"}, "geometry": {"type": "Point", "coordinates": [-77.0442879, 38.9177124]}}, {"type": "Feature", "properties": {"node_id": 42, "node_type": "type_change", "degree": 3, "link_types": "pseudo+sidewalk"}, "geometry": {"type": "Point", "coordinates": [-77.0443526, 38.9178594]}}, {"type": "Feature", "properties": {"node_id": 43, "node_type": "type_change", "degree": 2, "link_types": "pseudo+sidewalk"}, "geometry": {"type": "Point", "coordinates": [-77.044287, 38.9177132]}}, {"type": "Feature", "properties": {"node_id": 44, "node_type": "type_change", "degree": 2, "link_types": "crosswalk+pseudo"}, "geometry": {"type": "Point", "coordinates": [-77.0442704, 38.9177197]}}, {"type": "Feature", "properties": {"node_id": 45, "node_type": "type_change", "degree": 2, "link_types": "crosswalk+pseudo"}, "geometry": {"type": "Point", "coordinates": [-77.0441615, 38.917737]}}, {"type": "Feature", "properties": {"node_id": 46, "node_type": "type_change", "degree": 3, "link_types": "pseudo+sidewalk"}, "geometry": {"type": "Point", "coordinates": [-77.0441366, 38.917737]}}, {"type": "Feature", "properties": {"node_id": 47, "node_type": "endpoint", "degree": 1, "link_types": "sidewalk"}, "geometry": {"type": "Point", "coordinates": [-77.0442796, 38.9176721]}}, {"type": "Feature", "properties": {"node_id": 48, "node_type": "type_change", "degree": 3, "link_types": "pseudo+sidewalk"}, "geometry": {"type": "Point", "coordinates": [-77.0463045, 38.9191905]}}, {"type": "Feature", "properties": {"node_id": 49, "node_type": "type_change", "degree": 3, "link_types": "pseudo+sidewalk"}, "geometry": {"type": "Point", "coordinates": [-77.0463045, 38.9191898]}}, {"type": "Feature", "properties": {"node_id": 50, "node_type": "junction", "degree": 3, "link_types": "pseudo"}, "geometry": {"type": "Point", "coordinates": [-77.0446078, 38.91882]}}, {"type": "Feature", "properties": {"node_id": 51, "node_type": "type_change", "degree": 3, "link_types": "pseudo+sidewalk"}, "geometry": {"type": "Point", "coordinates": [-77.0446069, 38.9188207]}}, {"type": "Feature", "properties": {"node_id": 52, "node_type": "type_change", "degree": 3, "link_types": "pseudo+sidewalk"}, "geometry": {"type": "Point", "coordinates": [-77.0446069, 38.91882]}}, {"type": "Feature", "properties": {"node_id": 53, "node_type": "type_change", "degree": 2, "link_types": "crosswalk+pseudo"}, "geometry": {"type": "Point", "coordinates": [-77.0446262, 38.9188157]}}, {"type": "Feature", "properties": {"node_id": 54, "node_type": "type_change", "degree": 2, "link_types": "crosswalk+pseudo"}, "geometry": {"type": "Point", "coordinates": [-77.0447129, 38.9187356]}}, {"type": "Feature", "properties": {"node_id": 55, "node_type": "type_change", "degree": 3, "link_types": "pseudo+sidewalk"}, "geometry": {"type": "Point", "coordinates": [-77.0447304, 38.9187284]}}, {"type": "Feature", "properties": {"node_id": 56, "node_type": "endpoint", "degree": 1, "link_types": "sidewalk"}, "geometry": {"type": "Point", "coordinates": [-77.0440666, 38.9178768]}}, {"type": "Feature", "properties": {"node_id": 57, "node_type": "junction", "degree": 3, "link_types": "sidewalk"}, "geometry": {"type": "Point", "coordinates": [-77.0441782, 38.9178782]}}, {"type": "Feature", "properties": {"node_id": 58, "node_type": "endpoint", "degree": 1, "link_types": "sidewalk"}, "geometry": {"type": "Point", "coordinates": [-77.0457657, 38.9176751]}}, {"type": "Feature", "properties": {"node_id": 59, "node_type": "junction", "degree": 3, "link_types": "sidewalk"}, "geometry": {"type": "Point", "coordinates": [-77.0456487, 38.9178647]}}, {"type": "Feature", "properties": {"node_id": 60, "node_type": "junction", "degree": 3, "link_types": "sidewalk"}, "geometry": {"type": "Point", "coordinates": [-77.0462463, 38.919086]}}, {"type": "Feature", "properties": {"node_id": 61, "node_type": "type_change", "degree": 3, "link_types": "pseudo+sidewalk"}, "geometry": {"type": "Point", "coordinates": [-77.0462463, 38.9190867]}}, {"type": "Feature", "properties": {"node_id": 62, "node_type": "type_change", "degree": 3, "link_types": "pseudo+sidewalk"}, "geometry": {"type": "Point", "coordinates": [-77.0462454, 38.919086]}}, {"type": "Feature", "properties": {"node_id": 63, "node_type": "endpoint", "degree": 1, "link_types": "sidewalk"}, "geometry": {"type": "Point", "coordinates": [-77.0468301, 38.9189013]}}, {"type": "Feature", "properties": {"node_id": 64, "node_type": "endpoint", "degree": 1, "link_types": "sidewalk"}, "geometry": {"type": "Point", "coordinates": [-77.0446167, 38.9198592]}}, {"type": "Feature", "properties": {"node_id": 65, "node_type": "junction", "degree": 3, "link_types": "sidewalk"}, "geometry": {"type": "Point", "coordinates": [-77.044743, 38.9196761]}}, {"type": "Feature", "properties": {"node_id": 66, "node_type": "junction", "degree": 3, "link_types": "sidewalk"}, "geometry": {"type": "Point", "coordinates": [-77.0453437, 38.9183844]}}, {"type": "Feature", "properties": {"node_id": 67, "node_type": "type_change", "degree": 3, "link_types": "pseudo+sidewalk"}, "geometry": {"type": "Point", "coordinates": [-77.0453114, 38.9183967]}}, {"type": "Feature", "properties": {"node_id": 68, "node_type": "junction", "degree": 3, "link_types": "sidewalk"}, "geometry": {"type": "Point", "coordinates": [-77.0453446, 38.9183844]}}, {"type": "Feature", "properties": {"node_id": 69, "node_type": "type_change", "degree": 3, "link_types": "pseudo+sidewalk"}, "geometry": {"type": "Point", "coordinates": [-77.0453437, 38.9183837]}}, {"type": "Feature", "properties": {"node_id": 70, "node_type": "junction", "degree": 3, "link_types": "sidewalk"}, "geometry": {"type": "Point", "coordinates": [-77.0449422, 38.9196313]}}, {"type": "Feature", "properties": {"node_id": 71, "node_type": "junction", "degree": 3, "link_types": "sidewalk"}, "geometry": {"type": "Point", "coordinates": [-77.0449422, 38.9196321]}}, {"type": "Feature", "properties": {"node_id": 72, "node_type": "junction", "degree": 3, "link_types": "sidewalk"}, "geometry": {"type": "Point", "coordinates": [-77.0449413, 38.9196313]}}, {"type": "Feature", "properties": {"node_id": 73, "node_type": "junction", "degree": 3, "link_types": "sidewalk"}, "geometry": {"type": "Point", "coordinates": [-77.0449708, 38.9196313]}}, {"type": "Feature", "properties": {"node_id": 74, "node_type": "junction", "degree": 3, "link_types": "sidewalk"}, "geometry": {"type": "Point", "coordinates": [-77.044934, 38.9197358]}}, {"type": "Feature", "properties": {"node_id": 75, "node_type": "endpoint", "degree": 1, "link_types": "sidewalk"}, "geometry": {"type": "Point", "coordinates": [-77.0450309, 38.9198691]}}, {"type": "Feature", "properties": {"node_id": 76, "node_type": "endpoint", "degree": 1, "link_types": "sidewalk"}, "geometry": {"type": "Point", "coordinates": [-77.0448843, 38.9198649]}}, {"type": "Feature", "properties": {"node_id": 77, "node_type": "junction", "degree": 3, "link_types": "sidewalk"}, "geometry": {"type": "Point", "coordinates": [-77.0442255, 38.9197311]}}, {"type": "Feature", "properties": {"node_id": 78, "node_type": "junction", "degree": 3, "link_types": "sidewalk"}, "geometry": {"type": "Point", "coordinates": [-77.0442255, 38.9197318]}}, {"type": "Feature", "properties": {"node_id": 79, "node_type": "type_change", "degree": 3, "link_types": "pseudo+sidewalk"}, "geometry": {"type": "Point", "coordinates": [-77.0442264, 38.9197311]}}, {"type": "Feature", "properties": {"node_id": 80, "node_type": "junction", "degree": 3, "link_types": "sidewalk"}, "geometry": {"type": "Point", "coordinates": [-77.04422, 38.9197224]}}, {"type": "Feature", "properties": {"node_id": 81, "node_type": "endpoint", "degree": 1, "link_types": "sidewalk"}, "geometry": {"type": "Point", "coordinates": [-77.0468672, 38.9177806]}}, {"type": "Feature", "properties": {"node_id": 82, "node_type": "junction", "degree": 3, "link_types": "sidewalk"}, "geometry": {"type": "Point", "coordinates": [-77.0455575, 38.9180752]}}, {"type": "Feature", "properties": {"node_id": 83, "node_type": "junction", "degree": 3, "link_types": "sidewalk"}, "geometry": {"type": "Point", "coordinates": [-77.0455317, 38.9180954]}}, {"type": "Feature", "properties": {"node_id": 84, "node_type": "junction", "degree": 3, "link_types": "sidewalk"}, "geometry": {"type": "Point", "coordinates": [-77.0455584, 38.9180752]}}, {"type": "Feature", "properties": {"node_id": 85, "node_type": "type_change", "degree": 3, "link_types": "pseudo+sidewalk"}, "geometry": {"type": "Point", "coordinates": [-77.0455575, 38.9180745]}}, {"type": "Feature", "properties": {"node_id": 86, "node_type": "endpoint", "degree": 1, "link_types": "sidewalk"}, "geometry": {"type": "Point", "coordinates": [-77.0443713, 38.9198694]}}, {"type": "Feature", "properties": {"node_id": 87, "node_type": "type_change", "degree": 3, "link_types": "pseudo+sidewalk"}, "geometry": {"type": "Point", "coordinates": [-77.044482, 38.9197158]}}, {"type": "Feature", "properties": {"node_id": 88, "node_type": "type_change", "degree": 2, "link_types": "crosswalk+pseudo"}, "geometry": {"type": "Point", "coordinates": [-77.0462971, 38.9191775]}}, {"type": "Feature", "properties": {"node_id": 89, "node_type": "type_change", "degree": 2, "link_types": "crosswalk+pseudo"}, "geometry": {"type": "Point", "coordinates": [-77.04625, 38.9190997]}}, {"type": "Feature", "properties": {"node_id": 90, "node_type": "junction", "degree": 3, "link_types": "sidewalk"}, "geometry": {"type": "Point", "coordinates": [-77.0442068, 38.9178926]}}, {"type": "Feature", "properties": {"node_id": 91, "node_type": "type_change", "degree": 3, "link_types": "pseudo+sidewalk"}, "geometry": {"type": "Point", "coordinates": [-77.0442068, 38.9178934]}}, {"type": "Feature", "properties": {"node_id": 92, "node_type": "type_change", "degree": 3, "link_types": "pseudo+sidewalk"}, "geometry": {"type": "Point", "coordinates": [-77.0442078, 38.9178926]}}, {"type": "Feature", "properties": {"node_id": 93, "node_type": "junction", "degree": 3, "link_types": "sidewalk"}, "geometry": {"type": "Point", "coordinates": [-77.0441792, 38.9178782]}}, {"type": "Feature", "properties": {"node_id": 94, "node_type": "junction", "degree": 3, "link_types": "sidewalk"}, "geometry": {"type": "Point", "coordinates": [-77.0448964, 38.9186484]}}, {"type": "Feature", "properties": {"node_id": 95, "node_type": "junction", "degree": 3, "link_types": "sidewalk"}, "geometry": {"type": "Point", "coordinates": [-77.0448964, 38.9186491]}}, {"type": "Feature", "properties": {"node_id": 96, "node_type": "junction", "degree": 3, "link_types": "sidewalk"}, "geometry": {"type": "Point", "coordinates": [-77.0448955, 38.9186484]}}, {"type": "Feature", "properties": {"node_id": 97, "node_type": "type_change", "degree": 3, "link_types": "pseudo+sidewalk"}, "geometry": {"type": "Point", "coordinates": [-77.044937, 38.9186087]}}, {"type": "Feature", "properties": {"node_id": 98, "node_type": "junction", "degree": 3, "link_types": "sidewalk"}, "geometry": {"type": "Point", "coordinates": [-77.045099, 38.9195844]}}, {"type": "Feature", "properties": {"node_id": 99, "node_type": "endpoint", "degree": 1, "link_types": "sidewalk"}, "geometry": {"type": "Point", "coordinates": [-77.0452367, 38.9198633]}}, {"type": "Feature", "properties": {"node_id": 100, "node_type": "type_change", "degree": 3, "link_types": "pseudo+sidewalk"}, "geometry": {"type": "Point", "coordinates": [-77.0450981, 38.9195844]}}, {"type": "Feature", "properties": {"node_id": 101, "node_type": "junction", "degree": 3, "link_types": "sidewalk"}, "geometry": {"type": "Point", "coordinates": [-77.045099, 38.9195837]}}, {"type": "Feature", "properties": {"node_id": 102, "node_type": "endpoint", "degree": 1, "link_types": "sidewalk"}, "geometry": {"type": "Point", "coordinates": [-77.0467288, 38.9177007]}}, {"type": "Feature", "properties": {"node_id": 103, "node_type": "junction", "degree": 3, "link_types": "sidewalk"}, "geometry": {"type": "Point", "coordinates": [-77.0462114, 38.9193808]}}, {"type": "Feature", "properties": {"node_id": 104, "node_type": "type_change", "degree": 2, "link_types": "midblock+sidewalk"}, "geometry": {"type": "Point", "coordinates": [-77.0463293, 38.9195927]}}, {"type": "Feature", "properties": {"node_id": 105, "node_type": "type_change", "degree": 2, "link_types": "midblock+sidewalk"}, "geometry": {"type": "Point", "coordinates": [-77.0463662, 38.919662]}}, {"type": "Feature", "properties": {"node_id": 106, "node_type": "endpoint", "degree": 1, "link_types": "sidewalk"}, "geometry": {"type": "Point", "coordinates": [-77.0464599, 38.9198527]}}, {"type": "Feature", "properties": {"node_id": 107, "node_type": "endpoint", "degree": 1, "link_types": "sidewalk"}, "geometry": {"type": "Point", "coordinates": [-77.046133, 38.9193967]}}, {"type": "Feature", "properties": {"node_id": 108, "node_type": "type_change", "degree": 2, "link_types": "midblock+sidewalk"}, "geometry": {"type": "Point", "coordinates": [-77.0462046, 38.919334]}}, {"type": "Feature", "properties": {"node_id": 109, "node_type": "type_change", "degree": 2, "link_types": "midblock+sidewalk"}, "geometry": {"type": "Point", "coordinates": [-77.046195, 38.919317]}}, {"type": "Feature", "properties": {"node_id": 110, "node_type": "type_change", "degree": 3, "link_types": "pseudo+sidewalk"}, "geometry": {"type": "Point", "coordinates": [-77.0441792, 38.9178775]}}, {"type": "Feature", "properties": {"node_id": 111, "node_type": "endpoint", "degree": 1, "link_types": "sidewalk"}, "geometry": {"type": "Point", "coordinates": [-77.0447899, 38.9194959]}}, {"type": "Feature", "properties": {"node_id": 112, "node_type": "junction", "degree": 3, "link_types": "sidewalk"}, "geometry": {"type": "Point", "coordinates": [-77.0448591, 38.9194353]}}, {"type": "Feature", "properties": {"node_id": 113, "node_type": "endpoint", "degree": 1, "link_types": "sidewalk"}, "geometry": {"type": "Point", "coordinates": [-77.044053, 38.9197419]}}, {"type": "Feature", "properties": {"node_id": 114, "node_type": "type_change", "degree": 2, "link_types": "pseudo+sidewalk"}, "geometry": {"type": "Point", "coordinates": [-77.0442209, 38.9197217]}}, {"type": "Feature", "properties": {"node_id": 115, "node_type": "type_change", "degree": 2, "link_types": "crosswalk+pseudo"}, "geometry": {"type": "Point", "coordinates": [-77.0442366, 38.9197051]}}, {"type": "Feature", "properties": {"node_id": 116, "node_type": "type_change", "degree": 2, "link_types": "crosswalk+pseudo"}, "geometry": {"type": "Point", "coordinates": [-77.0442753, 38.9196172]}}, {"type": "Feature", "properties": {"node_id": 117, "node_type": "type_change", "degree": 3, "link_types": "pseudo+sidewalk"}, "geometry": {"type": "Point", "coordinates": [-77.0442752, 38.9196049]}}, {"type": "Feature", "properties": {"node_id": 118, "node_type": "junction", "degree": 3, "link_types": "sidewalk"}, "geometry": {"type": "Point", "coordinates": [-77.0448856, 38.9190707]}}, {"type": "Feature", "properties": {"node_id": 119, "node_type": "type_change", "degree": 3, "link_types": "pseudo+sidewalk"}, "geometry": {"type": "Point", "coordinates": [-77.0448847, 38.9190707]}}, {"type": "Feature", "properties": {"node_id": 120, "node_type": "junction", "degree": 3, "link_types": "sidewalk"}, "geometry": {"type": "Point", "coordinates": [-77.0449335, 38.9189871]}}, {"type": "Feature", "properties": {"node_id": 121, "node_type": "junction", "degree": 3, "link_types": "pseudo"}, "geometry": {"type": "Point", "coordinates": [-77.0447849, 38.9188437]}}, {"type": "Feature", "properties": {"node_id": 122, "node_type": "type_change", "degree": 2, "link_types": "pseudo+sidewalk"}, "geometry": {"type": "Point", "coordinates": [-77.044784, 38.9188444]}}, {"type": "Feature", "properties": {"node_id": 123, "node_type": "type_change", "degree": 2, "link_types": "pseudo+sidewalk"}, "geometry": {"type": "Point", "coordinates": [-77.0447822, 38.9188545]}}, {"type": "Feature", "properties": {"node_id": 124, "node_type": "type_change", "degree": 2, "link_types": "crosswalk+pseudo"}, "geometry": {"type": "Point", "coordinates": [-77.044772, 38.9188661]}}, {"type": "Feature", "properties": {"node_id": 125, "node_type": "type_change", "degree": 2, "link_types": "crosswalk+pseudo"}, "geometry": {"type": "Point", "coordinates": [-77.0446937, 38.9189756]}}, {"type": "Feature", "properties": {"node_id": 126, "node_type": "type_change", "degree": 3, "link_types": "pseudo+sidewalk"}, "geometry": {"type": "Point", "coordinates": [-77.0446808, 38.9189958]}}, {"type": "Feature", "properties": {"node_id": 127, "node_type": "type_change", "degree": 2, "link_types": "crosswalk+pseudo"}, "geometry": {"type": "Point", "coordinates": [-77.0448126, 38.9188444]}}, {"type": "Feature", "properties": {"node_id": 128, "node_type": "type_change", "degree": 2, "link_types": "crosswalk+pseudo"}, "geometry": {"type": "Point", "coordinates": [-77.0448755, 38.9190671]}}, {"type": "Feature", "properties": {"node_id": 129, "node_type": "type_change", "degree": 2, "link_types": "pseudo+sidewalk"}, "geometry": {"type": "Point", "coordinates": [-77.044784, 38.918843]}}, {"type": "Feature", "properties": {"node_id": 130, "node_type": "junction", "degree": 3, "link_types": "sidewalk"}, "geometry": {"type": "Point", "coordinates": [-77.0447821, 38.9188235]}}, {"type": "Feature", "properties": {"node_id": 131, "node_type": "junction", "degree": 3, "link_types": "midblock"}, "geometry": {"type": "Point", "coordinates": [-77.0455093, 38.9177033]}}, {"type": "Feature", "properties": {"node_id": 132, "node_type": "type_change", "degree": 2, "link_types": "midblock+sidewalk"}, "geometry": {"type": "Point", "coordinates": [-77.0455049, 38.9177127]}}, {"type": "Feature", "properties": {"node_id": 133, "node_type": "type_change", "degree": 3, "link_types": "pseudo+sidewalk"}, "geometry": {"type": "Point", "coordinates": [-77.0454586, 38.917779]}}, {"type": "Feature", "properties": {"node_id": 134, "node_type": "endpoint", "degree": 1, "link_types": "midblock"}, "geometry": {"type": "Point", "coordinates": [-77.045524, 38.9176759]}}, {"type": "Feature", "properties": {"node_id": 135, "node_type": "type_change", "degree": 2, "link_types": "midblock+sidewalk"}, "geometry": {"type": "Point", "coordinates": [-77.0454988, 38.9177007]}}, {"type": "Feature", "properties": {"node_id": 136, "node_type": "endpoint", "degree": 1, "link_types": "sidewalk"}, "geometry": {"type": "Point", "coordinates": [-77.045369, 38.917694]}}, {"type": "Feature", "properties": {"node_id": 137, "node_type": "junction", "degree": 3, "link_types": "sidewalk"}, "geometry": {"type": "Point", "coordinates": [-77.0451129, 38.9195599]}}, {"type": "Feature", "properties": {"node_id": 138, "node_type": "junction", "degree": 3, "link_types": "sidewalk"}, "geometry": {"type": "Point", "coordinates": [-77.0450602, 38.9194533]}}, {"type": "Feature", "properties": {"node_id": 139, "node_type": "type_change", "degree": 3, "link_types": "pseudo+sidewalk"}, "geometry": {"type": "Point", "coordinates": [-77.0450602, 38.919454]}}, {"type": "Feature", "properties": {"node_id": 140, "node_type": "type_change", "degree": 2, "link_types": "midblock+sidewalk"}, "geometry": {"type": "Point", "coordinates": [-77.0453905, 38.9193488]}}, {"type": "Feature", "properties": {"node_id": 141, "node_type": "type_change", "degree": 2, "link_types": "midblock+sidewalk"}, "geometry": {"type": "Point", "coordinates": [-77.0454703, 38.9193266]}}, {"type": "Feature", "properties": {"node_id": 142, "node_type": "junction", "degree": 3, "link_types": "sidewalk"}, "geometry": {"type": "Point", "coordinates": [-77.0460932, 38.9191221]}}, {"type": "Feature", "properties": {"node_id": 143, "node_type": "endpoint", "degree": 1, "link_types": "sidewalk"}, "geometry": {"type": "Point", "coordinates": [-77.0451676, 38.9186245]}}, {"type": "Feature", "properties": {"node_id": 144, "node_type": "junction", "degree": 3, "link_types": "pseudo"}, "geometry": {"type": "Point", "coordinates": [-77.0457494, 38.9181299]}}, {"type": "Feature", "properties": {"node_id": 145, "node_type": "type_change", "degree": 2, "link_types": "crosswalk+pseudo"}, "geometry": {"type": "Point", "coordinates": [-77.0457448, 38.9181428]}}, {"type": "Feature", "properties": {"node_id": 146, "node_type": "endpoint", "degree": 1, "link_types": "crosswalk"}, "geometry": {"type": "Point", "coordinates": [-77.0457652, 38.9182935]}}, {"type": "Feature", "properties": {"node_id": 147, "node_type": "type_change", "degree": 3, "link_types": "pseudo+sidewalk"}, "geometry": {"type": "Point", "coordinates": [-77.0457494, 38.9181292]}}, {"type": "Feature", "properties": {"node_id": 148, "node_type": "junction", "degree": 3, "link_types": "pseudo"}, "geometry": {"type": "Point", "coordinates": [-77.0443516, 38.9178602]}}, {"type": "Feature", "properties": {"node_id": 149, "node_type": "type_change", "degree": 2, "link_types": "crosswalk+pseudo"}, "geometry": {"type": "Point", "coordinates": [-77.0443323, 38.9178681]}}, {"type": "Feature", "properties": {"node_id": 150, "node_type": "type_change", "degree": 2, "link_types": "crosswalk+pseudo"}, "geometry": {"type": "Point", "coordinates": [-77.0442253, 38.9178854]}}, {"type": "Feature", "properties": {"node_id": 151, "node_type": "type_change", "degree": 3, "link_types": "pseudo+sidewalk"}, "geometry": {"type": "Point", "coordinates": [-77.0443526, 38.9178602]}}, {"type": "Feature", "properties": {"node_id": 152, "node_type": "endpoint", "degree": 1, "link_types": "sidewalk"}, "geometry": {"type": "Point", "coordinates": [-77.045624, 38.9181739]}}, {"type": "Feature", "properties": {"node_id": 153, "node_type": "endpoint", "degree": 1, "link_types": "sidewalk"}, "geometry": {"type": "Point", "coordinates": [-77.0455926, 38.9182063]}}, {"type": "Feature", "properties": {"node_id": 154, "node_type": "junction", "degree": 3, "link_types": "sidewalk"}, "geometry": {"type": "Point", "coordinates": [-77.0447405, 38.9187104]}}, {"type": "Feature", "properties": {"node_id": 155, "node_type": "junction", "degree": 3, "link_types": "sidewalk"}, "geometry": {"type": "Point", "coordinates": [-77.0447313, 38.9187277]}}, {"type": "Feature", "properties": {"node_id": 156, "node_type": "type_change", "degree": 2, "link_types": "pseudo+sidewalk"}, "geometry": {"type": "Point", "coordinates": [-77.0447396, 38.9187097]}}, {"type": "Feature", "properties": {"node_id": 157, "node_type": "type_change", "degree": 2, "link_types": "crosswalk+pseudo"}, "geometry": {"type": "Point", "coordinates": [-77.0447295, 38.9187018]}}, {"type": "Feature", "properties": {"node_id": 158, "node_type": "type_change", "degree": 2, "link_types": "crosswalk+pseudo"}, "geometry": {"type": "Point", "coordinates": [-77.044698, 38.9186038]}}, {"type": "Feature", "properties": {"node_id": 159, "node_type": "junction", "degree": 3, "link_types": "pseudo"}, "geometry": {"type": "Point", "coordinates": [-77.0446925, 38.9185807]}}, {"type": "Feature", "properties": {"node_id": 160, "node_type": "junction", "degree": 3, "link_types": "sidewalk"}, "geometry": {"type": "Point", "coordinates": [-77.0460932, 38.9191214]}}, {"type": "Feature", "properties": {"node_id": 161, "node_type": "type_change", "degree": 3, "link_types": "pseudo+sidewalk"}, "geometry": {"type": "Point", "coordinates": [-77.0460941, 38.9191214]}}, {"type": "Feature", "properties": {"node_id": 162, "node_type": "type_change", "degree": 2, "link_types": "midblock+sidewalk"}, "geometry": {"type": "Point", "coordinates": [-77.0459192, 38.9187697]}}, {"type": "Feature", "properties": {"node_id": 163, "node_type": "type_change", "degree": 2, "link_types": "midblock+sidewalk"}, "geometry": {"type": "Point", "coordinates": [-77.0458911, 38.9187151]}}, {"type": "Feature", "properties": {"node_id": 164, "node_type": "type_change", "degree": 2, "link_types": "midblock+sidewalk"}, "geometry": {"type": "Point", "coordinates": [-77.0458709, 38.9186766]}}, {"type": "Feature", "properties": {"node_id": 165, "node_type": "type_change", "degree": 2, "link_types": "midblock+sidewalk"}, "geometry": {"type": "Point", "coordinates": [-77.0458459, 38.9186296]}}, {"type": "Feature", "properties": {"node_id": 166, "node_type": "endpoint", "degree": 1, "link_types": "sidewalk"}, "geometry": {"type": "Point", "coordinates": [-77.0457136, 38.9183807]}}, {"type": "Feature", "properties": {"node_id": 167, "node_type": "junction", "degree": 3, "link_types": "sidewalk"}, "geometry": {"type": "Point", "coordinates": [-77.0446808, 38.9189965]}}, {"type": "Feature", "properties": {"node_id": 168, "node_type": "type_change", "degree": 3, "link_types": "pseudo+sidewalk"}, "geometry": {"type": "Point", "coordinates": [-77.0446577, 38.91906]}}, {"type": "Feature", "properties": {"node_id": 169, "node_type": "type_change", "degree": 3, "link_types": "pseudo+sidewalk"}, "geometry": {"type": "Point", "coordinates": [-77.0446798, 38.9189965]}}, {"type": "Feature", "properties": {"node_id": 170, "node_type": "endpoint", "degree": 1, "link_types": "sidewalk"}, "geometry": {"type": "Point", "coordinates": [-77.0466435, 38.9198678]}}, {"type": "Feature", "properties": {"node_id": 171, "node_type": "type_change", "degree": 2, "link_types": "pseudo+sidewalk"}, "geometry": {"type": "Point", "coordinates": [-77.0449326, 38.9189863]}}, {"type": "Feature", "properties": {"node_id": 172, "node_type": "type_change", "degree": 2, "link_types": "crosswalk+pseudo"}, "geometry": {"type": "Point", "coordinates": [-77.044916, 38.9189799]}}, {"type": "Feature", "properties": {"node_id": 173, "node_type": "type_change", "degree": 2, "link_types": "crosswalk+pseudo"}, "geometry": {"type": "Point", "coordinates": [-77.0449031, 38.9190029]}}, {"type": "Feature", "properties": {"node_id": 174, "node_type": "endpoint", "degree": 1, "link_types": "pseudo"}, "geometry": {"type": "Point", "coordinates": [-77.0448902, 38.9190073]}}, {"type": "Feature", "properties": {"node_id": 175, "node_type": "junction", "degree": 3, "link_types": "sidewalk"}, "geometry": {"type": "Point", "coordinates": [-77.0445916, 38.9195753]}}, {"type": "Feature", "properties": {"node_id": 176, "node_type": "type_change", "degree": 3, "link_types": "pseudo+sidewalk"}, "geometry": {"type": "Point", "coordinates": [-77.0445916, 38.919576]}}, {"type": "Feature", "properties": {"node_id": 177, "node_type": "junction", "degree": 3, "link_types": "sidewalk"}, "geometry": {"type": "Point", "coordinates": [-77.0445926, 38.9195753]}}, {"type": "Feature", "properties": {"node_id": 178, "node_type": "junction", "degree": 3, "link_types": "sidewalk"}, "geometry": {"type": "Point", "coordinates": [-77.0445815, 38.9195724]}}, {"type": "Feature", "properties": {"node_id": 179, "node_type": "endpoint", "degree": 1, "link_types": "sidewalk"}, "geometry": {"type": "Point", "coordinates": [-77.0446143, 38.9188546]}}, {"type": "Feature", "properties": {"node_id": 180, "node_type": "junction", "degree": 3, "link_types": "sidewalk"}, "geometry": {"type": "Point", "coordinates": [-77.0447313, 38.9187284]}}, {"type": "Feature", "properties": {"node_id": 181, "node_type": "junction", "degree": 3, "link_types": "sidewalk"}, "geometry": {"type": "Point", "coordinates": [-77.0451056, 38.9183521]}}, {"type": "Feature", "properties": {"node_id": 182, "node_type": "junction", "degree": 3, "link_types": "sidewalk"}, "geometry": {"type": "Point", "coordinates": [-77.0450826, 38.9183903]}}, {"type": "Feature", "properties": {"node_id": 183, "node_type": "type_change", "degree": 3, "link_types": "pseudo+sidewalk"}, "geometry": {"type": "Point", "coordinates": [-77.0451066, 38.9183521]}}, {"type": "Feature", "properties": {"node_id": 184, "node_type": "type_change", "degree": 3, "link_types": "pseudo+sidewalk"}, "geometry": {"type": "Point", "coordinates": [-77.0451056, 38.9183514]}}, {"type": "Feature", "properties": {"node_id": 185, "node_type": "junction", "degree": 3, "link_types": "sidewalk"}, "geometry": {"type": "Point", "coordinates": [-77.0442849, 38.9187978]}}, {"type": "Feature", "properties": {"node_id": 186, "node_type": "junction", "degree": 3, "link_types": "sidewalk"}, "geometry": {"type": "Point", "coordinates": [-77.0442858, 38.9187985]}}, {"type": "Feature", "properties": {"node_id": 187, "node_type": "junction", "degree": 3, "link_types": "sidewalk"}, "geometry": {"type": "Point", "coordinates": [-77.0442858, 38.9187978]}}, {"type": "Feature", "properties": {"node_id": 188, "node_type": "endpoint", "degree": 1, "link_types": "sidewalk"}, "geometry": {"type": "Point", "coordinates": [-77.0440635, 38.9187979]}}, {"type": "Feature", "properties": {"node_id": 189, "node_type": "junction", "degree": 3, "link_types": "sidewalk"}, "geometry": {"type": "Point", "coordinates": [-77.0456312, 38.9179051]}}, {"type": "Feature", "properties": {"node_id": 190, "node_type": "type_change", "degree": 3, "link_types": "pseudo+sidewalk"}, "geometry": {"type": "Point", "coordinates": [-77.0456302, 38.9179051]}}, {"type": "Feature", "properties": {"node_id": 191, "node_type": "junction", "degree": 3, "link_types": "sidewalk"}, "geometry": {"type": "Point", "coordinates": [-77.0456312, 38.9179044]}}, {"type": "Feature", "properties": {"node_id": 192, "node_type": "type_change", "degree": 3, "link_types": "pseudo+sidewalk"}, "geometry": {"type": "Point", "coordinates": [-77.0446925, 38.91858]}}, {"type": "Feature", "properties": {"node_id": 193, "node_type": "type_change", "degree": 3, "link_types": "pseudo+sidewalk"}, "geometry": {"type": "Point", "coordinates": [-77.0446916, 38.91858]}}, {"type": "Feature", "properties": {"node_id": 194, "node_type": "type_change", "degree": 2, "link_types": "crosswalk+pseudo"}, "geometry": {"type": "Point", "coordinates": [-77.0462113, 38.9190875]}}, {"type": "Feature", "properties": {"node_id": 195, "node_type": "type_change", "degree": 2, "link_types": "crosswalk+pseudo"}, "geometry": {"type": "Point", "coordinates": [-77.0461107, 38.9191192]}}, {"type": "Feature", "properties": {"node_id": 196, "node_type": "junction", "degree": 3, "link_types": "sidewalk"}, "geometry": {"type": "Point", "coordinates": [-77.044937, 38.918608]}}, {"type": "Feature", "properties": {"node_id": 197, "node_type": "type_change", "degree": 3, "link_types": "pseudo+sidewalk"}, "geometry": {"type": "Point", "coordinates": [-77.0449379, 38.918608]}}, {"type": "Feature", "properties": {"node_id": 198, "node_type": "type_change", "degree": 2, "link_types": "pseudo+sidewalk"}, "geometry": {"type": "Point", "coordinates": [-77.044937, 38.9186065]}}, {"type": "Feature", "properties": {"node_id": 199, "node_type": "type_change", "degree": 2, "link_types": "crosswalk+pseudo"}, "geometry": {"type": "Point", "coordinates": [-77.0449526, 38.9185864]}}, {"type": "Feature", "properties": {"node_id": 200, "node_type": "type_change", "degree": 3, "link_types": "crosswalk+sidewalk"}, "geometry": {"type": "Point", "coordinates": [-77.0450614, 38.918404]}}, {"type": "Feature", "properties": {"node_id": 201, "node_type": "junction", "degree": 3, "link_types": "sidewalk"}, "geometry": {"type": "Point", "coordinates": [-77.0447769, 38.9192761]}}, {"type": "Feature", "properties": {"node_id": 202, "node_type": "type_change", "degree": 2, "link_types": "pseudo+sidewalk"}, "geometry": {"type": "Point", "coordinates": [-77.0448165, 38.9192696]}}, {"type": "Feature", "properties": {"node_id": 203, "node_type": "type_change", "degree": 2, "link_types": "crosswalk+pseudo"}, "geometry": {"type": "Point", "coordinates": [-77.0448258, 38.9192401]}}, {"type": "Feature", "properties": {"node_id": 204, "node_type": "type_change", "degree": 2, "link_types": "crosswalk+pseudo"}, "geometry": {"type": "Point", "coordinates": [-77.0446633, 38.9190621]}}, {"type": "Feature", "properties": {"node_id": 205, "node_type": "junction", "degree": 3, "link_types": "sidewalk"}, "geometry": {"type": "Point", "coordinates": [-77.0455307, 38.9180954]}}, {"type": "Feature", "properties": {"node_id": 206, "node_type": "junction", "degree": 3, "link_types": "sidewalk"}, "geometry": {"type": "Point", "coordinates": [-77.0455307, 38.9180961]}}, {"type": "Feature", "properties": {"node_id": 207, "node_type": "endpoint", "degree": 1, "link_types": "sidewalk"}, "geometry": {"type": "Point", "coordinates": [-77.0455261, 38.9180305]}}, {"type": "Feature", "properties": {"node_id": 208, "node_type": "type_change", "degree": 2, "link_types": "midblock+sidewalk"}, "geometry": {"type": "Point", "coordinates": [-77.0446052, 38.9184396]}}, {"type": "Feature", "properties": {"node_id": 209, "node_type": "type_change", "degree": 2, "link_types": "midblock+sidewalk"}, "geometry": {"type": "Point", "coordinates": [-77.0445902, 38.9184008]}}, {"type": "Feature", "properties": {"node_id": 210, "node_type": "endpoint", "degree": 1, "link_types": "sidewalk"}, "geometry": {"type": "Point", "coordinates": [-77.0456969, 38.9183425]}}, {"type": "Feature", "properties": {"node_id": 211, "node_type": "junction", "degree": 3, "link_types": "sidewalk"}, "geometry": {"type": "Point", "coordinates": [-77.0451989, 38.9185747]}}, {"type": "Feature", "properties": {"node_id": 212, "node_type": "endpoint", "degree": 1, "link_types": "sidewalk"}, "geometry": {"type": "Point", "coordinates": [-77.0451888, 38.9185913]}}, {"type": "Feature", "properties": {"node_id": 213, "node_type": "type_change", "degree": 2, "link_types": "midblock+sidewalk"}, "geometry": {"type": "Point", "coordinates": [-77.0452491, 38.9184954]}}, {"type": "Feature", "properties": {"node_id": 214, "node_type": "type_change", "degree": 2, "link_types": "midblock+sidewalk"}, "geometry": {"type": "Point", "coordinates": [-77.0452763, 38.9184522]}}, {"type": "Feature", "properties": {"node_id": 215, "node_type": "type_change", "degree": 2, "link_types": "pseudo+sidewalk"}, "geometry": {"type": "Point", "coordinates": [-77.045198, 38.918574]}}, {"type": "Feature", "properties": {"node_id": 216, "node_type": "type_change", "degree": 2, "link_types": "crosswalk+pseudo"}, "geometry": {"type": "Point", "coordinates": [-77.045186, 38.918569]}}, {"type": "Feature", "properties": {"node_id": 217, "node_type": "type_change", "degree": 2, "link_types": "crosswalk+pseudo"}, "geometry": {"type": "Point", "coordinates": [-77.0449646, 38.9186022]}}, {"type": "Feature", "properties": {"node_id": 218, "node_type": "type_change", "degree": 3, "link_types": "pseudo+sidewalk"}, "geometry": {"type": "Point", "coordinates": [-77.0445179, 38.9196985]}}, {"type": "Feature", "properties": {"node_id": 219, "node_type": "endpoint", "degree": 1, "link_types": "sidewalk"}, "geometry": {"type": "Point", "coordinates": [-77.0440582, 38.9177587]}}, {"type": "Feature", "properties": {"node_id": 220, "node_type": "junction", "degree": 3, "link_types": "sidewalk"}, "geometry": {"type": "Point", "coordinates": [-77.044132, 38.9177622]}}, {"type": "Feature", "properties": {"node_id": 221, "node_type": "junction", "degree": 3, "link_types": "crosswalk"}, "geometry": {"type": "Point", "coordinates": [-77.0450642, 38.9184018]}}, {"type": "Feature", "properties": {"node_id": 222, "node_type": "type_change", "degree": 2, "link_types": "crosswalk+sidewalk"}, "geometry": {"type": "Point", "coordinates": [-77.0450623, 38.9184033]}}, {"type": "Feature", "properties": {"node_id": 223, "node_type": "type_change", "degree": 3, "link_types": "crosswalk+sidewalk"}, "geometry": {"type": "Point", "coordinates": [-77.0450651, 38.9184018]}}, {"type": "Feature", "properties": {"node_id": 224, "node_type": "junction", "degree": 3, "link_types": "crosswalk"}, "geometry": {"type": "Point", "coordinates": [-77.0450641, 38.9184011]}}, {"type": "Feature", "properties": {"node_id": 225, "node_type": "type_change", "degree": 2, "link_types": "pseudo+sidewalk"}, "geometry": {"type": "Point", "coordinates": [-77.0451119, 38.9195592]}}, {"type": "Feature", "properties": {"node_id": 226, "node_type": "type_change", "degree": 2, "link_types": "crosswalk+pseudo"}, "geometry": {"type": "Point", "coordinates": [-77.0451055, 38.9195513]}}, {"type": "Feature", "properties": {"node_id": 227, "node_type": "type_change", "degree": 2, "link_types": "crosswalk+pseudo"}, "geometry": {"type": "Point", "coordinates": [-77.0450611, 38.9194663]}}, {"type": "Feature", "properties": {"node_id": 228, "node_type": "endpoint", "degree": 1, "link_types": "sidewalk"}, "geometry": {"type": "Point", "coordinates": [-77.0442932, 38.918872]}}, {"type": "Feature", "properties": {"node_id": 229, "node_type": "type_change", "degree": 2, "link_types": "pseudo+sidewalk"}, "geometry": {"type": "Point", "coordinates": [-77.0450817, 38.9183896]}}, {"type": "Feature", "properties": {"node_id": 230, "node_type": "type_change", "degree": 2, "link_types": "crosswalk+pseudo"}, "geometry": {"type": "Point", "coordinates": [-77.0450734, 38.9183867]}}, {"type": "Feature", "properties": {"node_id": 231, "node_type": "endpoint", "degree": 1, "link_types": "sidewalk"}, "geometry": {"type": "Point", "coordinates": [-77.0440631, 38.9195985]}}, {"type": "Feature", "properties": {"node_id": 232, "node_type": "junction", "degree": 3, "link_types": "pseudo"}, "geometry": {"type": "Point", "coordinates": [-77.0454358, 38.9182071]}}, {"type": "Feature", "properties": {"node_id": 233, "node_type": "type_change", "degree": 2, "link_types": "pseudo+sidewalk"}, "geometry": {"type": "Point", "coordinates": [-77.0454367, 38.9182078]}}, {"type": "Feature", "properties": {"node_id": 234, "node_type": "endpoint", "degree": 1, "link_types": "sidewalk"}, "geometry": {"type": "Point", "coordinates": [-77.0454524, 38.9182352]}}, {"type": "Feature", "properties": {"node_id": 235, "node_type": "type_change", "degree": 2, "link_types": "crosswalk+pseudo"}, "geometry": {"type": "Point", "coordinates": [-77.0454201, 38.9182078]}}, {"type": "Feature", "properties": {"node_id": 236, "node_type": "type_change", "degree": 2, "link_types": "crosswalk+pseudo"}, "geometry": {"type": "Point", "coordinates": [-77.0453409, 38.9183693]}}, {"type": "Feature", "properties": {"node_id": 237, "node_type": "type_change", "degree": 2, "link_types": "pseudo+sidewalk"}, "geometry": {"type": "Point", "coordinates": [-77.0454367, 38.9182064]}}, {"type": "Feature", "properties": {"node_id": 238, "node_type": "endpoint", "degree": 1, "link_types": "sidewalk"}, "geometry": {"type": "Point", "coordinates": [-77.0449893, 38.9196443]}}, {"type": "Feature", "properties": {"node_id": 239, "node_type": "type_change", "degree": 3, "link_types": "pseudo+sidewalk"}, "geometry": {"type": "Point", "coordinates": [-77.0449718, 38.9196313]}}, {"type": "Feature", "properties": {"node_id": 240, "node_type": "junction", "degree": 3, "link_types": "sidewalk"}, "geometry": {"type": "Point", "coordinates": [-77.0445792, 38.9187984]}}, {"type": "Feature", "properties": {"node_id": 241, "node_type": "junction", "degree": 3, "link_types": "sidewalk"}, "geometry": {"type": "Point", "coordinates": [-77.0445782, 38.9187984]}}, {"type": "Feature", "properties": {"node_id": 242, "node_type": "type_change", "degree": 3, "link_types": "pseudo+sidewalk"}, "geometry": {"type": "Point", "coordinates": [-77.0445792, 38.9187977]}}, {"type": "Feature", "properties": {"node_id": 243, "node_type": "type_change", "degree": 2, "link_types": "crosswalk+pseudo"}, "geometry": {"type": "Point", "coordinates": [-77.0450833, 38.9195866]}}, {"type": "Feature", "properties": {"node_id": 244, "node_type": "type_change", "degree": 2, "link_types": "crosswalk+pseudo"}, "geometry": {"type": "Point", "coordinates": [-77.0449782, 38.9196205]}}, {"type": "Feature", "properties": {"node_id": 245, "node_type": "type_change", "degree": 3, "link_types": "pseudo+sidewalk"}, "geometry": {"type": "Point", "coordinates": [-77.0449718, 38.9196306]}}, {"type": "Feature", "properties": {"node_id": 246, "node_type": "endpoint", "degree": 1, "link_types": "sidewalk"}, "geometry": {"type": "Point", "coordinates": [-77.0455676, 38.9180759]}}, {"type": "Feature", "properties": {"node_id": 247, "node_type": "type_change", "degree": 2, "link_types": "crosswalk+pseudo"}, "geometry": {"type": "Point", "coordinates": [-77.0451222, 38.9183578]}}, {"type": "Feature", "properties": {"node_id": 248, "node_type": "type_change", "degree": 2, "link_types": "crosswalk+pseudo"}, "geometry": {"type": "Point", "coordinates": [-77.045304, 38.9183902]}}, {"type": "Feature", "properties": {"node_id": 249, "node_type": "endpoint", "degree": 1, "link_types": "sidewalk"}, "geometry": {"type": "Point", "coordinates": [-77.0442034, 38.9198089]}}, {"type": "Feature", "properties": {"node_id": 250, "node_type": "type_change", "degree": 2, "link_types": "crosswalk+pseudo"}, "geometry": {"type": "Point", "coordinates": [-77.0442523, 38.9197289]}}, {"type": "Feature", "properties": {"node_id": 251, "node_type": "type_change", "degree": 2, "link_types": "crosswalk+pseudo"}, "geometry": {"type": "Point", "coordinates": [-77.0444764, 38.9197115]}}, {"type": "Feature", "properties": {"node_id": 252, "node_type": "endpoint", "degree": 1, "link_types": "sidewalk"}, "geometry": {"type": "Point", "coordinates": [-77.0440812, 38.9176599]}}, {"type": "Feature", "properties": {"node_id": 253, "node_type": "endpoint", "degree": 1, "link_types": "sidewalk"}, "geometry": {"type": "Point", "coordinates": [-77.044642, 38.9190081]}}, {"type": "Feature", "properties": {"node_id": 254, "node_type": "type_change", "degree": 2, "link_types": "crosswalk+pseudo"}, "geometry": {"type": "Point", "coordinates": [-77.045551, 38.91806]}}, {"type": "Feature", "properties": {"node_id": 255, "node_type": "type_change", "degree": 2, "link_types": "crosswalk+pseudo"}, "geometry": {"type": "Point", "coordinates": [-77.0456136, 38.9179072]}}, {"type": "Feature", "properties": {"node_id": 256, "node_type": "type_change", "degree": 2, "link_types": "pseudo+sidewalk"}, "geometry": {"type": "Point", "coordinates": [-77.0445806, 38.9195724]}}, {"type": "Feature", "properties": {"node_id": 257, "node_type": "type_change", "degree": 2, "link_types": "crosswalk+pseudo"}, "geometry": {"type": "Point", "coordinates": [-77.0445483, 38.9195731]}}, {"type": "Feature", "properties": {"node_id": 258, "node_type": "type_change", "degree": 2, "link_types": "crosswalk+pseudo"}, "geometry": {"type": "Point", "coordinates": [-77.0443103, 38.9195934]}}, {"type": "Feature", "properties": {"node_id": 259, "node_type": "type_change", "degree": 2, "link_types": "pseudo+sidewalk"}, "geometry": {"type": "Point", "coordinates": [-77.0443112, 38.9195977]}}, {"type": "Feature", "properties": {"node_id": 260, "node_type": "type_change", "degree": 2, "link_types": "pseudo+sidewalk"}, "geometry": {"type": "Point", "coordinates": [-77.0456477, 38.917864]}}, {"type": "Feature", "properties": {"node_id": 261, "node_type": "type_change", "degree": 2, "link_types": "crosswalk+pseudo"}, "geometry": {"type": "Point", "coordinates": [-77.045633, 38.9178582]}}, {"type": "Feature", "properties": {"node_id": 262, "node_type": "type_change", "degree": 2, "link_types": "crosswalk+pseudo"}, "geometry": {"type": "Point", "coordinates": [-77.0454789, 38.9177941]}}, {"type": "Feature", "properties": {"node_id": 263, "node_type": "type_change", "degree": 2, "link_types": "pseudo+sidewalk"}, "geometry": {"type": "Point", "coordinates": [-77.0441357, 38.9177377]}}, {"type": "Feature", "properties": {"node_id": 264, "node_type": "type_change", "degree": 2, "link_types": "pseudo+sidewalk"}, "geometry": {"type": "Point", "coordinates": [-77.044133, 38.917763]}}, {"type": "Feature", "properties": {"node_id": 265, "node_type": "type_change", "degree": 2, "link_types": "crosswalk+pseudo"}, "geometry": {"type": "Point", "coordinates": [-77.044145, 38.9177745]}}, {"type": "Feature", "properties": {"node_id": 266, "node_type": "type_change", "degree": 2, "link_types": "crosswalk+pseudo"}, "geometry": {"type": "Point", "coordinates": [-77.0441856, 38.9178638]}}, {"type": "Feature", "properties": {"node_id": 267, "node_type": "junction", "degree": 3, "link_types": "sidewalk"}, "geometry": {"type": "Point", "coordinates": [-77.0445219, 38.9186766]}}, {"type": "Feature", "properties": {"node_id": 268, "node_type": "type_change", "degree": 2, "link_types": "pseudo+sidewalk"}, "geometry": {"type": "Point", "coordinates": [-77.0445228, 38.9186773]}}, {"type": "Feature", "properties": {"node_id": 269, "node_type": "type_change", "degree": 2, "link_types": "crosswalk+pseudo"}, "geometry": {"type": "Point", "coordinates": [-77.0445385, 38.9186889]}}, {"type": "Feature", "properties": {"node_id": 270, "node_type": "type_change", "degree": 2, "link_types": "crosswalk+pseudo"}, "geometry": {"type": "Point", "coordinates": [-77.044581, 38.9187912]}}, {"type": "Feature", "properties": {"node_id": 271, "node_type": "endpoint", "degree": 1, "link_types": "sidewalk"}, "geometry": {"type": "Point", "coordinates": [-77.0440496, 38.9187013]}}, {"type": "Feature", "properties": {"node_id": 272, "node_type": "type_change", "degree": 3, "link_types": "pseudo+sidewalk"}, "geometry": {"type": "Point", "coordinates": [-77.044533, 38.91866]}}, {"type": "Feature", "properties": {"node_id": 273, "node_type": "endpoint", "degree": 1, "link_types": "sidewalk"}, "geometry": {"type": "Point", "coordinates": [-77.0443287, 38.9195509]}}, {"type": "Feature", "properties": {"node_id": 274, "node_type": "type_change", "degree": 2, "link_types": "midblock+sidewalk"}, "geometry": {"type": "Point", "coordinates": [-77.0445477, 38.9192341]}}, {"type": "Feature", "properties": {"node_id": 275, "node_type": "type_change", "degree": 2, "link_types": "midblock+sidewalk"}, "geometry": {"type": "Point", "coordinates": [-77.0445936, 38.9191531]}}, {"type": "Feature", "properties": {"node_id": 276, "node_type": "type_change", "degree": 2, "link_types": "midblock+sidewalk"}, "geometry": {"type": "Point", "coordinates": [-77.0443486, 38.9182362]}}, {"type": "Feature", "properties": {"node_id": 277, "node_type": "type_change", "degree": 2, "link_types": "midblock+sidewalk"}, "geometry": {"type": "Point", "coordinates": [-77.0443876, 38.9183027]}}, {"type": "Feature", "properties": {"node_id": 278, "node_type": "type_change", "degree": 2, "link_types": "crosswalk+pseudo"}, "geometry": {"type": "Point", "coordinates": [-77.0445569, 38.91866]}}, {"type": "Feature", "properties": {"node_id": 279, "node_type": "type_change", "degree": 2, "link_types": "crosswalk+pseudo"}, "geometry": {"type": "Point", "coordinates": [-77.0446538, 38.9185944]}}, {"type": "Feature", "properties": {"node_id": 280, "node_type": "endpoint", "degree": 1, "link_types": "pseudo"}, "geometry": {"type": "Point", "coordinates": [-77.0446325, 38.918585]}}, {"type": "Feature", "properties": {"node_id": 281, "node_type": "type_change", "degree": 2, "link_types": "midblock+sidewalk"}, "geometry": {"type": "Point", "coordinates": [-77.0452884, 38.9180685]}}, {"type": "Feature", "properties": {"node_id": 282, "node_type": "type_change", "degree": 2, "link_types": "midblock+sidewalk"}, "geometry": {"type": "Point", "coordinates": [-77.0452773, 38.9180859]}}, {"type": "Feature", "properties": {"node_id": 283, "node_type": "type_change", "degree": 2, "link_types": "crosswalk+pseudo"}, "geometry": {"type": "Point", "coordinates": [-77.0445179, 38.919687]}}, {"type": "Feature", "properties": {"node_id": 284, "node_type": "type_change", "degree": 2, "link_types": "crosswalk+pseudo"}, "geometry": {"type": "Point", "coordinates": [-77.0445917, 38.9195882]}}]}