{"type": "FeatureCollection", "features": [{"type": "Feature", "properties": {"poly_type": "sidewalk", "area_m2": 116.59, "segment_id": null}, "geometry": {"type": "MultiPolygon", "coordinates": [[[[396162.01, 139094.82], [396163.29, 139100.66], [396164.17, 139101.94], [396164.97, 139104.58], [396164.41, 139106.82], [396167.13, 139107.22], [396169.45, 139109.78], [396169.93, 139109.78], [396169.93, 139109.06], [396168.65, 139106.18], [396168.41, 139103.7], [396166.49, 139099.78], [396166.49, 139098.66], [396167.37, 139097.22], [396168.49, 139096.66], [396172.01, 139096.74], [396180.25, 139098.1], [396180.25, 139094.74], [396177.21, 139094.42], [396176.41, 139093.38], [396167.05, 139093.14], [396163.21, 139093.62], [396162.01, 139094.82]]], [[[396163.61, 139108.74], [396164.09, 139112.1], [396166.89, 139112.1], [396167.13, 139109.22], [396166.01, 139109.94], [396164.97, 139107.46], [396164.41, 139107.46], [396163.61, 139108.74]]]]}}, {"type": "Feature", "properties": {"poly_type": "sidewalk", "area_m2": 59.37, "segment_id": null}, "geometry": {"type": "Polygon", "coordinates": [[[395969.29, 139109.46], [395969.21, 139110.02], [395969.93, 139110.5], [395969.93, 139112.1], [395972.09, 139112.1], [395972.89, 139108.26], [395977.13, 139099.62], [395977.21, 139097.46], [395978.73, 139094.5], [395980.17, 139089.94], [395979.45, 139088.9], [395978.41, 139088.82], [395976.89, 139092.82], [395975.61, 139093.78], [395975.69, 139095.3], [395974.09, 139100.34], [395972.49, 139103.06], [395972.25, 139104.58], [395971.29, 139104.82], [395971.45, 139106.34], [395970.65, 139108.66], [395969.29, 139109.46]]]}}, {"type": "Feature", "properties": {"poly_type": "sidewalk", "area_m2": 331.63, "segment_id": null}, "geometry": {"type": "Polygon", "coordinates": [[[396094.89, 139112.1], [396096.73, 139112.1], [396101.05, 139103.86], [396102.65, 139099.46], [396103.45, 139098.98], [396104.25, 139099.3], [396104.33, 139101.3], [396104.97, 139102.42], [396106.41, 139112.1], [396108.17, 139112.1], [396106.41, 139098.02], [396105.21, 139095.46], [396103.93, 139090.1], [396104.01, 139087.62], [396104.49, 139087.06], [396106.09, 139086.82], [396108.41, 139087.14], [396116.57, 139089.86], [396117.21, 139090.42], [396128.17, 139106.26], [396128.65, 139107.86], [396129.53, 139108.5], [396128.97, 139112.1], [396132.73, 139112.1], [396131.61, 139108.26], [396131.69, 139106.42], [396132.57, 139106.02], [396132.65, 139105.22], [396131.21, 139105.78], [396128.41, 139103.14], [396121.69, 139093.7], [396121.77, 139091.3], [396126.09, 139092.5], [396138.89, 139094.5], [396141.13, 139095.7], [396142.57, 139096.9], [396144.17, 139099.46], [396149.21, 139112.1], [396152.17, 139112.1], [396152.17, 139111.54], [396148.25, 139102.34], [396146.97, 139102.26], [396146.57, 139100.34], [396147.05, 139099.38], [396146.41, 139097.46], [396145.77, 139097.3], [396144.01, 139094.1], [396142.09, 139091.94], [396136.25, 139091.06], [396135.29, 139091.06], [396135.29, 139091.78], [396133.69, 139091.78], [396130.65, 139091.14], [396130.09, 139090.1], [396129.37, 139089.78], [396128.65, 139089.86], [396128.65, 139090.58], [396127.05, 139090.58], [396125.93, 139090.18], [396124.73, 139088.98], [396120.89, 139088.74], [396118.01, 139087.06], [396117.21, 139087.06], [396116.89, 139088.02], [396116.09, 139088.02], [396114.25, 139087.54], [396113.21, 139086.26], [396109.93, 139085.06], [396107.69, 139084.98], [396104.65, 139084.02], [396104.25, 139083.7], [396104.33, 139082.26], [396102.57, 139081.86], [396099.29, 139083.78], [396098.33, 139086.34], [396098.33, 139087.06], [396099.93, 139086.66], [396101.21, 139087.46], [396101.45, 139095.46], [396099.21, 139103.14], [396094.89, 139112.1]]]}}, {"type": "Feature", "properties": {"poly_type": "sidewalk", "area_m2": 0.0, "segment_id": null}, "geometry": {"type": "Polygon", "coordinates": [[[396101.68999999994, 139081.94], [396101.61, 139081.86000000002], [396101.68999999994, 139081.86000000002], [396101.68999999994, 139081.94]]]}}, {"type": "Feature", "properties": {"poly_type": "sidewalk", "area_m2": 79.58, "segment_id": null}, "geometry": {"type": "Polygon", "coordinates": [[[396155.05, 139082.26], [396157.85, 139084.1], [396166.41, 139084.42], [396167.13, 139084.26], [396167.21, 139082.9], [396168.57, 139082.9], [396171.45, 139083.06], [396171.93, 139084.34], [396175.29, 139084.5], [396176.09, 139084.26], [396176.01, 139082.74], [396176.73, 139082.66], [396178.97, 139084.1], [396180.25, 139084.18], [396180.25, 139080.5], [396178.41, 139080.34], [396164.09, 139080.98], [396159.29, 139080.9], [396158.57, 139080.26], [396156.33, 139080.02], [396155.21, 139081.14], [396155.05, 139082.26]]]}}, {"type": "Feature", "properties": {"poly_type": "sidewalk", "area_m2": 0.01, "segment_id": null}, "geometry": {"type": "Polygon", "coordinates": [[[396097.85, 139063.7], [396097.61, 139063.54], [396097.85, 139063.62000000002], [396097.85, 139063.7]]]}}, {"type": "Feature", "properties": {"poly_type": "sidewalk", "area_m2": 298.04, "segment_id": null}, "geometry": {"type": "Polygon", "coordinates": [[[396104.65, 139069.3], [396104.25, 139072.02], [396104.97, 139072.9], [396106.97, 139073.06], [396107.29, 139072.1], [396107.77, 139072.1], [396111.69, 139074.34], [396116.01, 139075.86], [396116.57, 139076.74], [396118.01, 139076.5], [396129.37, 139079.22], [396129.61, 139080.58], [396130.41, 139080.82], [396135.77, 139081.22], [396136.49, 139080.5], [396136.57, 139078.82], [396135.69, 139077.06], [396135.77, 139076.02], [396135.21, 139076.02], [396134.49, 139074.82], [396129.45, 139063.7], [396127.93, 139061.94], [396128.25, 139060.42], [396127.45, 139058.58], [396128.49, 139057.94], [396128.57, 139057.3], [396127.61, 139056.66], [396127.29, 139055.22], [396125.77, 139052.82], [396124.17, 139051.62], [396123.85, 139049.14], [396122.49, 139048.74], [396121.53, 139049.38], [396120.81, 139049.22], [396119.77, 139047.22], [396120.33, 139045.62], [396119.85, 139045.62], [396119.13, 139044.1], [396117.69, 139042.98], [396115.45, 139043.38], [396113.69, 139045.3], [396113.77, 139046.1], [396114.81, 139046.42], [396114.65, 139047.62], [396112.09, 139053.14], [396110.81, 139058.18], [396109.53, 139059.62], [396108.17, 139063.62], [396107.21, 139063.94], [396107.61, 139065.06], [396106.97, 139067.78], [396106.17, 139068.18], [396106.17, 139067.62], [396105.69, 139067.62], [396104.65, 139069.3]], [[396108.89, 139069.86], [396109.29, 139066.1], [396109.77, 139065.14], [396110.57, 139065.06], [396113.13, 139070.34], [396115.45, 139070.74], [396115.45, 139070.18], [396114.01, 139068.9], [396113.05, 139065.86], [396114.25, 139061.14], [396113.53, 139061.14], [396112.17, 139062.9], [396111.29, 139062.82], [396111.13, 139061.86], [396114.97, 139051.62], [396116.25, 139050.26], [396116.65, 139048.58], [396117.93, 139048.26], [396119.05, 139049.22], [396118.97, 139051.3], [396119.69, 139052.42], [396119.85, 139053.78], [396121.37, 139054.18], [396124.97, 139061.22], [396124.49, 139062.02], [396122.41, 139061.94], [396122.41, 139062.9], [396123.85, 139065.06], [396124.73, 139065.14], [396125.61, 139064.34], [396126.65, 139064.66], [396126.57, 139067.22], [396127.77, 139069.46], [396128.97, 139069.7], [396129.69, 139070.66], [396131.93, 139075.22], [396132.17, 139076.74], [396131.45, 139077.62], [396129.69, 139077.78], [396117.93, 139074.74], [396112.57, 139072.82], [396110.09, 139071.22], [396108.89, 139069.86]]]}}, {"type": "Feature", "properties": {"poly_type": "sidewalk", "area_m2": 599.82, "segment_id": null}, "geometry": {"type": "Polygon", "coordinates": [[[395981.53, 139079.7], [395982.89, 139082.02], [395983.61, 139082.18], [395986.81, 139075.14], [395993.37, 139077.46], [395994.09, 139077.38], [395995.05, 139075.94], [395996.09, 139073.14], [395996.01, 139072.18], [395990.09, 139069.54], [395989.85, 139067.06], [395992.09, 139060.9], [395992.97, 139060.18], [395993.13, 139059.38], [395993.93, 139059.62], [395995.05, 139061.46], [395999.13, 139063.3], [396000.17, 139063.06], [396001.13, 139060.98], [396001.69, 139058.98], [396001.45, 139058.02], [395997.77, 139057.3], [395997.53, 139058.66], [395996.81, 139058.74], [395994.09, 139056.98], [395995.29, 139052.18], [395998.65, 139044.02], [396010.97, 139048.66], [396011.29, 139049.7], [396010.41, 139050.34], [396010.09, 139051.62], [396009.37, 139052.26], [396009.37, 139052.82], [396010.33, 139053.38], [396012.65, 139054.26], [396013.61, 139054.02], [396014.89, 139052.66], [396014.17, 139050.42], [396015.69, 139050.5], [396017.69, 139051.7], [396020.73, 139052.5], [396024.89, 139054.42], [396027.37, 139056.74], [396029.69, 139057.14], [396036.17, 139059.54], [396039.53, 139060.1], [396044.81, 139062.02], [396052.01, 139065.22], [396059.13, 139067.7], [396061.69, 139069.38], [396066.73, 139070.66], [396068.33, 139071.86], [396071.45, 139072.42], [396073.93, 139073.46], [396075.05, 139074.26], [396075.13, 139074.98], [396076.89, 139074.9], [396080.49, 139076.02], [396087.53, 139078.98], [396087.69, 139080.98], [396086.73, 139082.1], [396083.37, 139092.26], [396081.77, 139094.9], [396081.53, 139096.58], [396077.77, 139105.78], [396076.41, 139110.1], [396076.33, 139112.1], [396079.05, 139112.1], [396079.61, 139110.82], [396079.77, 139107.86], [396081.13, 139106.18], [396081.13, 139105.78], [396080.33, 139105.62], [396080.33, 139104.82], [396082.49, 139102.82], [396083.29, 139100.18], [396082.89, 139098.5], [396083.93, 139096.74], [396084.01, 139095.22], [396084.81, 139094.26], [396086.01, 139090.5], [396087.13, 139090.26], [396088.33, 139086.26], [396088.09, 139085.22], [396089.29, 139084.26], [396090.57, 139079.46], [396089.61, 139077.3], [396087.77, 139075.78], [396086.57, 139075.7], [396086.57, 139076.18], [396086.09, 139076.18], [396080.41, 139073.78], [396078.65, 139073.7], [396074.41, 139071.7], [396072.57, 139070.34], [396068.01, 139068.98], [396065.93, 139067.38], [396063.61, 139067.3], [396056.89, 139064.58], [396055.61, 139062.82], [396053.13, 139063.38], [396052.97, 139062.42], [396051.93, 139062.1], [396051.29, 139061.22], [396047.45, 139059.7], [396046.01, 139058.58], [396040.73, 139057.14], [396038.65, 139057.3], [396037.77, 139056.42], [396034.33, 139056.66], [396033.61, 139055.3], [396034.97, 139054.9], [396034.41, 139052.9], [396032.33, 139052.58], [396032.01, 139053.78], [396029.85, 139053.06], [396029.53, 139053.78], [396028.25, 139053.94], [396027.05, 139052.82], [396023.45, 139051.86], [396022.01, 139050.82], [396018.25, 139049.38], [396016.49, 139047.54], [396012.33, 139045.62], [396011.53, 139045.54], [396010.89, 139046.42], [396009.45, 139046.34], [396006.97, 139044.9], [396003.21, 139043.94], [396002.09, 139041.94], [396000.41, 139042.1], [395998.97, 139041.06], [395997.45, 139041.06], [395995.77, 139042.1], [395996.09, 139043.7], [395995.53, 139045.7], [395993.93, 139046.18], [395993.05, 139048.18], [395993.45, 139050.18], [395994.25, 139050.82], [395994.33, 139051.7], [395992.25, 139053.3], [395990.65, 139053.46], [395990.25, 139056.66], [395990.89, 139057.06], [395990.89, 139057.62], [395990.17, 139057.7], [395988.89, 139058.9], [395985.45, 139067.54], [395985.45, 139069.06], [395983.29, 139071.7], [395982.97, 139073.86], [395981.61, 139074.42], [395982.49, 139077.46], [395982.49, 139079.3], [395981.53, 139079.7]]]}}, {"type": "Feature", "properties": {"poly_type": "sidewalk", "area_m2": 156.8, "segment_id": null}, "geometry": {"type": "Polygon", "coordinates": [[[396136.41, 139043.86], [396138.73, 139051.78], [396139.85, 139053.14], [396141.13, 139053.78], [396141.53, 139056.34], [396142.49, 139057.38], [396143.13, 139059.3], [396144.25, 139060.58], [396148.25, 139068.42], [396149.69, 139068.66], [396150.49, 139069.78], [396150.57, 139070.5], [396149.77, 139070.9], [396149.77, 139071.7], [396151.61, 139075.06], [396151.37, 139076.5], [396153.37, 139076.58], [396154.17, 139077.14], [396154.33, 139077.94], [396156.01, 139077.86], [396156.97, 139077.14], [396156.65, 139075.78], [396155.61, 139074.98], [396153.61, 139071.38], [396148.09, 139060.18], [396147.85, 139058.82], [396149.69, 139059.46], [396150.17, 139059.14], [396150.09, 139058.42], [396149.45, 139057.94], [396147.45, 139057.86], [396146.81, 139057.3], [396145.61, 139052.9], [396144.81, 139051.46], [396143.29, 139050.34], [396141.45, 139046.5], [396141.21, 139044.82], [396139.93, 139043.62], [396138.73, 139040.98], [396136.57, 139041.62], [396136.41, 139043.86]]]}}, {"type": "Feature", "properties": {"poly_type": "sidewalk", "area_m2": 0.0, "segment_id": null}, "geometry": {"type": "Polygon", "coordinates": [[[396002.00999999995, 139025.78000000003], [396001.93, 139025.7], [396002.00999999995, 139025.7], [396002.00999999995, 139025.78000000003]]]}}, {"type": "Feature", "properties": {"poly_type": "sidewalk", "area_m2": 347.78, "segment_id": null}, "geometry": {"type": "Polygon", "coordinates": [[[395939.77, 139018.82], [395940.09, 139020.26], [395941.21, 139020.98], [395941.77, 139022.18], [395944.81, 139024.02], [395947.37, 139024.5], [395950.89, 139026.1], [395953.53, 139026.18], [395954.41, 139027.38], [395959.05, 139029.3], [395963.69, 139029.54], [395963.93, 139030.34], [395965.53, 139031.46], [395972.09, 139032.74], [395972.73, 139034.34], [395975.69, 139034.66], [395983.77, 139038.1], [395982.09, 139044.1], [395978.73, 139050.98], [395977.13, 139056.1], [395976.01, 139058.34], [395974.97, 139059.3], [395973.85, 139064.66], [395972.81, 139066.26], [395971.45, 139070.66], [395970.01, 139073.22], [395964.25, 139088.42], [395962.73, 139090.82], [395961.05, 139097.14], [395959.93, 139098.9], [395957.21, 139106.02], [395955.29, 139109.3], [395954.89, 139112.1], [395956.97, 139112.1], [395957.21, 139110.66], [395958.73, 139109.3], [395960.81, 139106.18], [395960.97, 139105.14], [395960.33, 139104.02], [395960.73, 139102.02], [395961.05, 139101.46], [395962.25, 139101.22], [395962.41, 139099.7], [395963.61, 139098.66], [395964.81, 139091.7], [395967.29, 139087.86], [395968.01, 139084.74], [395969.13, 139083.14], [395970.01, 139078.42], [395971.29, 139077.06], [395972.01, 139073.94], [395972.65, 139072.82], [395973.69, 139072.9], [395974.33, 139071.94], [395974.57, 139070.1], [395974.01, 139069.14], [395975.69, 139068.34], [395976.97, 139065.86], [395977.05, 139064.5], [395975.93, 139064.26], [395976.01, 139063.38], [395976.89, 139062.02], [395978.41, 139061.54], [395978.57, 139060.58], [395978.01, 139058.98], [395979.05, 139056.26], [395980.01, 139055.86], [395979.69, 139054.5], [395980.57, 139053.46], [395980.57, 139052.1], [395981.61, 139049.46], [395983.13, 139046.66], [395983.93, 139046.66], [395984.49, 139046.1], [395985.45, 139043.62], [395985.61, 139042.66], [395984.49, 139042.02], [395984.81, 139040.34], [395986.81, 139039.46], [395987.05, 139037.62], [395986.17, 139035.78], [395983.21, 139034.58], [395983.05, 139033.86], [395977.93, 139032.02], [395977.45, 139032.02], [395977.21, 139033.3], [395976.17, 139033.22], [395974.17, 139032.1], [395973.77, 139030.42], [395971.29, 139029.78], [395968.17, 139030.1], [395967.69, 139028.5], [395966.17, 139027.94], [395965.05, 139026.9], [395960.57, 139027.14], [395958.33, 139025.14], [395955.93, 139023.86], [395952.73, 139023.62], [395951.85, 139021.94], [395949.77, 139021.06], [395947.61, 139021.3], [395945.85, 139022.1], [395942.97, 139019.62], [395939.77, 139018.82]]]}}, {"type": "Feature", "properties": {"poly_type": "sidewalk", "area_m2": 0.01, "segment_id": null}, "geometry": {"type": "Polygon", "coordinates": [[[396122.32999999996, 139016.10000000003], [396122.24999999994, 139015.94000000003], [396122.32999999996, 139015.94000000003], [396122.32999999996, 139016.10000000003]]]}}, {"type": "Feature", "properties": {"poly_type": "sidewalk", "area_m2": 0.0, "segment_id": null}, "geometry": {"type": "Polygon", "coordinates": [[[396122.41, 139015.94000000003], [396122.32999999996, 139015.86000000002], [396122.41, 139015.86000000002], [396122.41, 139015.94000000003]]]}}, {"type": "Feature", "properties": {"poly_type": "sidewalk", "area_m2": 0.02, "segment_id": null}, "geometry": {"type": "Polygon", "coordinates": [[[396122.41, 139014.90000000002], [396122.24999999994, 139015.06000000003], [396122.24999999994, 139014.82000000004], [396122.41, 139014.90000000002]]]}}, {"type": "Feature", "properties": {"poly_type": "sidewalk", "area_m2": 88.32, "segment_id": null}, "geometry": {"type": "Polygon", "coordinates": [[[396122.49, 139015.14], [396124.17, 139019.46], [396127.53, 139025.7], [396127.85, 139027.54], [396130.01, 139028.98], [396131.05, 139030.5], [396131.53, 139032.34], [396133.69, 139032.1], [396132.49, 139028.74], [396131.37, 139027.22], [396126.89, 139017.62], [396127.37, 139016.58], [396129.21, 139016.5], [396129.05, 139015.86], [396127.21, 139014.5], [396127.29, 139012.98], [396129.05, 139008.02], [396125.29, 139007.14], [396124.49, 139010.5], [396122.49, 139015.14]]]}}, {"type": "Feature", "properties": {"poly_type": "sidewalk", "area_m2": 0.0, "segment_id": null}, "geometry": {"type": "Polygon", "coordinates": [[[396125.44999999995, 139006.90000000002], [396125.36999999994, 139006.82000000004], [396125.44999999995, 139006.82000000004], [396125.44999999995, 139006.90000000002]]]}}, {"type": "Feature", "properties": {"poly_type": "sidewalk", "area_m2": 0.0, "segment_id": null}, "geometry": {"type": "Polygon", "coordinates": [[[396119.12999999995, 138998.50000000003], [396119.04999999993, 138998.42000000004], [396119.12999999995, 138998.42000000004], [396119.12999999995, 138998.50000000003]]]}}, {"type": "Feature", "properties": {"poly_type": "sidewalk", "area_m2": 179.56, "segment_id": null}, "geometry": {"type": "Polygon", "coordinates": [[[396130.25, 138993.22], [396129.29, 138997.38], [396130.09, 138997.54], [396130.01, 138998.9], [396130.89, 138999.54], [396132.09, 138999.54], [396133.93, 138996.34], [396134.09, 138994.82], [396134.81, 138994.5], [396148.81, 138994.42], [396149.77, 138995.06], [396151.77, 138995.06], [396154.09, 138994.42], [396157.69, 138994.42], [396158.65, 138997.54], [396158.09, 138998.98], [396158.09, 139000.9], [396158.57, 139001.78], [396159.13, 139001.78], [396159.29, 138997.7], [396160.09, 138994.74], [396180.25, 138994.34], [396180.25, 138991.22], [396176.57, 138991.54], [396176.41, 138992.66], [396174.01, 138992.74], [396170.97, 138990.98], [396165.93, 138991.3], [396165.53, 138992.58], [396164.57, 138992.5], [396164.73, 138991.22], [396164.25, 138991.06], [396156.65, 138990.9], [396155.69, 138991.3], [396155.69, 138992.26], [396154.65, 138992.26], [396154.01, 138991.46], [396151.13, 138991.14], [396146.09, 138991.22], [396144.89, 138992.5], [396142.01, 138992.42], [396141.29, 138991.3], [396140.49, 138991.06], [396134.17, 138991.06], [396131.77, 138991.94], [396130.25, 138993.22]]]}}, {"type": "Feature", "properties": {"poly_type": "sidewalk", "area_m2": 0.0, "segment_id": null}, "geometry": {"type": "Polygon", "coordinates": [[[396019.69, 138989.70000000004], [396019.61, 138989.62000000002], [396019.69, 138989.62000000002], [396019.69, 138989.70000000004]]]}}, {"type": "Feature", "properties": {"poly_type": "sidewalk", "area_m2": 0.0, "segment_id": null}, "geometry": {"type": "Polygon", "coordinates": [[[396019.76999999996, 138989.62000000002], [396019.69, 138989.54000000004], [396019.76999999996, 138989.54000000004], [396019.76999999996, 138989.62000000002]]]}}, {"type": "Feature", "properties": {"poly_type": "sidewalk", "area_m2": 322.03, "segment_id": null}, "geometry": {"type": "Polygon", "coordinates": [[[396001.05, 139030.02], [396001.45, 139031.14], [396002.57, 139031.94], [396003.45, 139032.02], [396004.25, 139031.46], [396005.69, 139031.86], [396005.69, 139033.3], [396006.17, 139033.7], [396011.13, 139035.38], [396012.97, 139036.74], [396014.49, 139036.1], [396015.37, 139036.98], [396017.21, 139037.14], [396017.77, 139038.42], [396024.57, 139040.82], [396025.29, 139041.7], [396026.81, 139041.78], [396027.37, 139040.82], [396028.17, 139040.82], [396030.17, 139041.7], [396030.41, 139043.06], [396032.17, 139044.02], [396034.65, 139044.42], [396035.93, 139045.38], [396038.73, 139045.86], [396039.53, 139046.58], [396041.29, 139046.26], [396042.17, 139047.62], [396043.85, 139046.66], [396044.01, 139048.82], [396048.73, 139050.74], [396050.89, 139051.22], [396053.05, 139051.06], [396055.37, 139052.82], [396055.85, 139052.82], [396056.01, 139052.18], [396057.85, 139050.82], [396057.77, 139050.26], [396055.61, 139049.3], [396054.17, 139047.94], [396052.49, 139048.1], [396051.53, 139047.46], [396049.77, 139047.3], [396047.77, 139045.86], [396044.49, 139045.22], [396041.93, 139043.86], [396040.73, 139042.58], [396036.49, 139040.74], [396035.77, 139040.02], [396034.17, 139040.5], [396031.77, 139040.1], [396023.29, 139036.98], [396022.01, 139035.7], [396020.01, 139035.46], [396017.85, 139034.26], [396014.97, 139033.7], [396004.17, 139029.14], [396005.37, 139025.38], [396008.33, 139021.86], [396008.49, 139019.62], [396010.41, 139012.34], [396012.33, 139009.3], [396013.05, 139005.54], [396014.97, 139000.66], [396015.85, 138999.14], [396017.45, 138998.02], [396017.93, 138995.7], [396019.29, 138994.42], [396018.81, 138991.38], [396019.45, 138990.1], [396016.09, 138989.7], [396016.01, 138992.18], [396015.13, 138994.66], [396014.09, 138996.58], [396012.81, 138997.7], [396011.69, 139002.02], [396012.01, 139003.54], [396011.53, 139004.98], [396010.25, 139004.9], [396009.45, 139006.18], [396007.77, 139010.58], [396007.77, 139011.62], [396008.49, 139011.94], [396008.25, 139013.46], [396006.57, 139014.42], [396006.01, 139017.3], [396005.13, 139018.42], [396004.73, 139020.82], [396003.93, 139021.94], [396004.25, 139023.54], [396003.45, 139025.62], [396002.33, 139025.3], [396001.05, 139030.02]]]}}, {"type": "Feature", "properties": {"poly_type": "sidewalk", "area_m2": 15.27, "segment_id": null}, "geometry": {"type": "Polygon", "coordinates": [[[396019.05, 138982.82], [396019.93, 138983.78], [396022.25, 138984.58], [396023.45, 138980.58], [396021.85, 138979.46], [396020.25, 138979.38], [396019.05, 138982.82]]]}}, {"type": "Feature", "properties": {"poly_type": "sidewalk", "area_m2": 0.01, "segment_id": null}, "geometry": {"type": "Polygon", "coordinates": [[[396025.85, 138975.30000000005], [396025.76999999996, 138975.14000000004], [396025.85, 138975.14000000004], [396025.85, 138975.30000000005]]]}}, {"type": "Feature", "properties": {"poly_type": "sidewalk", "area_m2": 373.08, "segment_id": null}, "geometry": {"type": "Polygon", "coordinates": [[[395937.77, 139003.78], [395934.49, 139003.14], [395934.49, 139005.86], [395937.37, 139005.06], [395940.25, 139007.7], [395942.33, 139007.94], [395946.73, 139010.58], [395949.93, 139011.38], [395968.89, 139018.98], [395969.45, 139018.98], [395969.77, 139018.1], [395970.41, 139018.1], [395972.73, 139019.22], [395972.81, 139020.66], [395976.17, 139022.02], [395977.45, 139021.94], [395977.61, 139021.3], [395979.37, 139021.62], [395979.77, 139021.94], [395979.69, 139023.22], [395984.49, 139025.54], [395986.25, 139025.62], [395989.21, 139026.66], [395991.29, 139026.5], [395992.25, 139025.78], [395993.85, 139022.74], [395993.29, 139021.62], [395993.53, 139020.26], [395995.93, 139017.78], [395996.25, 139015.54], [395997.93, 139012.42], [395998.41, 139009.86], [395997.53, 139009.46], [395997.77, 139007.78], [395998.01, 139007.38], [395999.93, 139007.54], [396002.25, 139001.86], [396002.01, 139000.66], [396001.37, 139000.26], [396001.53, 138998.58], [396003.37, 138997.94], [396004.33, 138994.82], [396005.69, 138992.9], [396005.53, 138991.22], [396004.97, 138990.9], [396005.45, 138988.74], [396007.29, 138988.9], [396007.77, 138988.26], [396009.93, 138982.74], [396009.77, 138981.86], [396009.13, 138981.54], [396009.21, 138979.86], [396011.45, 138978.5], [396012.25, 138976.42], [396011.93, 138974.66], [396011.13, 138973.94], [396009.61, 138973.62], [396008.57, 138976.02], [396006.65, 138975.46], [396005.45, 138975.94], [396005.61, 138977.3], [396007.61, 138977.78], [396007.61, 138979.14], [396001.85, 138994.34], [395999.29, 138999.78], [395998.09, 139001.14], [395998.17, 139002.66], [395995.93, 139007.3], [395995.13, 139011.3], [395992.41, 139017.7], [395991.45, 139018.58], [395991.37, 139020.02], [395989.93, 139023.62], [395987.69, 139023.3], [395980.57, 139020.34], [395980.33, 139019.3], [395981.05, 139015.22], [395980.33, 139015.3], [395978.97, 139016.82], [395978.57, 139019.14], [395977.53, 139019.22], [395957.61, 139011.38], [395957.69, 139009.86], [395959.85, 139006.1], [395959.77, 139005.22], [395958.73, 139004.5], [395955.93, 139004.26], [395956.57, 139006.5], [395955.45, 139009.86], [395954.73, 139009.94], [395945.93, 139006.18], [395944.25, 139004.98], [395939.93, 139003.7], [395939.85, 139001.38], [395938.57, 138999.94], [395936.25, 139000.1], [395936.41, 139000.9], [395937.45, 139001.46], [395937.77, 139003.78]]]}}, {"type": "Feature", "properties": {"poly_type": "sidewalk", "area_m2": 458.44, "segment_id": null}, "geometry": {"type": "Polygon", "coordinates": [[[396063.77, 139055.38], [396065.69, 139055.78], [396066.25, 139057.62], [396074.33, 139060.9], [396075.29, 139060.9], [396075.69, 139060.1], [396077.21, 139060.42], [396078.09, 139060.98], [396078.41, 139062.42], [396081.53, 139063.7], [396084.33, 139064.5], [396086.49, 139064.26], [396089.61, 139065.22], [396089.69, 139066.58], [396091.45, 139067.3], [396094.49, 139067.14], [396096.33, 139065.7], [396097.69, 139063.38], [396097.77, 139062.34], [396096.33, 139061.78], [396096.73, 139060.02], [396096.97, 139059.62], [396098.65, 139059.7], [396099.13, 139059.3], [396101.29, 139053.38], [396101.29, 139052.66], [396100.33, 139052.18], [396100.49, 139050.98], [396101.13, 139050.26], [396102.57, 139050.18], [396105.37, 139043.38], [396105.29, 139042.42], [396104.01, 139042.26], [396104.17, 139040.82], [396104.81, 139040.18], [396106.09, 139040.34], [396107.77, 139036.98], [396108.41, 139034.42], [396109.37, 139034.18], [396108.49, 139031.54], [396108.73, 139030.58], [396110.09, 139029.62], [396110.97, 139027.7], [396110.89, 139026.58], [396106.57, 139018.34], [396106.09, 139015.94], [396105.05, 139015.06], [396104.49, 139012.74], [396103.93, 139012.42], [396101.13, 139007.06], [396099.69, 139003.46], [396096.41, 138997.54], [396095.85, 138995.54], [396092.65, 138990.26], [396090.41, 138984.58], [396084.89, 138973.54], [396084.09, 138973.14], [396083.45, 138971.86], [396082.73, 138971.94], [396081.85, 138972.9], [396081.77, 138974.34], [396089.05, 138988.82], [396089.61, 138992.02], [396088.73, 138993.7], [396090.81, 138997.3], [396090.89, 138998.58], [396091.61, 138999.22], [396092.97, 138998.82], [396094.09, 138999.14], [396096.89, 139005.38], [396096.81, 139006.26], [396095.69, 139007.06], [396095.77, 139008.1], [396096.49, 139008.42], [396097.13, 139007.22], [396097.77, 139007.22], [396098.25, 139007.86], [396098.65, 139009.3], [396102.89, 139016.42], [396105.13, 139021.62], [396106.01, 139022.58], [396107.53, 139026.18], [396107.53, 139027.14], [396102.25, 139040.58], [396099.45, 139040.9], [396098.41, 139042.34], [396097.13, 139046.98], [396098.73, 139047.78], [396099.05, 139048.82], [396093.29, 139064.26], [396090.09, 139063.46], [396064.25, 139052.82], [396063.77, 139052.82], [396063.77, 139055.38]]]}}, {"type": "Feature", "properties": {"poly_type": "sidewalk", "area_m2": 251.23, "segment_id": null}, "geometry": {"type": "Polygon", "coordinates": [[[396100.65, 138970.66], [396100.57, 138971.7], [396102.41, 138977.7], [396104.65, 138980.42], [396104.97, 138982.58], [396105.93, 138984.1], [396109.61, 138986.9], [396109.93, 138988.18], [396109.21, 138988.5], [396109.37, 138989.78], [396111.93, 138994.98], [396111.93, 138995.86], [396112.97, 138996.5], [396115.29, 139000.9], [396117.53, 139000.82], [396119.53, 138996.98], [396121.05, 138992.26], [396122.01, 138987.3], [396122.97, 138985.86], [396122.89, 138983.7], [396119.05, 138980.66], [396118.81, 138979.62], [396118.01, 138979.62], [396114.41, 138977.14], [396113.53, 138976.98], [396112.73, 138977.94], [396112.09, 138977.94], [396111.45, 138976.66], [396110.25, 138976.42], [396110.89, 138974.66], [396105.29, 138970.82], [396104.81, 138970.02], [396101.93, 138969.38], [396100.65, 138970.66]], [[396109.69, 138978.66], [396110.65, 138978.82], [396114.41, 138981.14], [396119.05, 138984.82], [396119.13, 138987.06], [396116.81, 138993.22], [396115.61, 138992.74], [396112.89, 138988.26], [396112.41, 138985.86], [396110.97, 138983.62], [396109.37, 138979.7], [396109.69, 138978.66]]]}}, {"type": "Feature", "properties": {"poly_type": "sidewalk", "area_m2": 4.03, "segment_id": null}, "geometry": {"type": "Polygon", "coordinates": [[[396135.44999999995, 138974.58000000005], [396129.76999999996, 138969.94000000003], [396129.20999999996, 138969.38000000003], [396129.36999999994, 138968.98000000004], [396135.92999999993, 138974.34000000003], [396135.44999999995, 138974.58000000005]]]}}, {"type": "Feature", "properties": {"poly_type": "sidewalk", "area_m2": 35.13, "segment_id": null}, "geometry": {"type": "Polygon", "coordinates": [[[396074.81, 138959.7], [396075.53, 138961.3], [396076.33, 138964.66], [396077.69, 138965.94], [396080.09, 138971.14], [396082.57, 138971.06], [396082.33, 138969.22], [396080.65, 138966.18], [396080.65, 138964.74], [396080.09, 138964.74], [396079.21, 138962.82], [396078.17, 138962.42], [396078.01, 138960.02], [396076.89, 138959.3], [396074.81, 138959.7]]]}}, {"type": "Feature", "properties": {"poly_type": "sidewalk", "area_m2": 89.98, "segment_id": null}, "geometry": {"type": "Polygon", "coordinates": [[[396022.73, 138973.3], [396024.33, 138974.5], [396026.17, 138974.82], [396028.01, 138969.3], [396029.21, 138967.06], [396029.45, 138964.98], [396030.57, 138963.54], [396031.21, 138961.06], [396032.25, 138959.54], [396034.25, 138952.9], [396035.45, 138951.14], [396035.85, 138949.14], [396036.89, 138947.46], [396036.73, 138946.9], [396034.41, 138946.42], [396034.57, 138947.62], [396034.01, 138949.3], [396032.33, 138949.38], [396031.77, 138950.1], [396029.93, 138955.22], [396029.93, 138955.94], [396030.81, 138956.34], [396030.49, 138957.94], [396030.17, 138958.5], [396028.97, 138958.58], [396028.41, 138959.22], [396026.33, 138964.1], [396026.33, 138964.74], [396027.29, 138965.14], [396027.21, 138966.26], [396026.25, 138968.26], [396024.97, 138968.34], [396022.73, 138973.3]]]}}, {"type": "Feature", "properties": {"poly_type": "sidewalk", "area_m2": 0.03, "segment_id": null}, "geometry": {"type": "Polygon", "coordinates": [[[396038.64999999997, 138943.94000000003], [396038.49, 138943.78000000003], [396038.64999999997, 138943.62000000005], [396038.64999999997, 138943.94000000003]]]}}, {"type": "Feature", "properties": {"poly_type": "sidewalk", "area_m2": 0.01, "segment_id": null}, "geometry": {"type": "Polygon", "coordinates": [[[396035.76999999996, 138940.18000000005], [396035.68999999994, 138939.86000000004], [396035.76999999996, 138939.86000000004], [396035.76999999996, 138940.18000000005]]]}}, {"type": "Feature", "properties": {"poly_type": "sidewalk", "area_m2": 303.95, "segment_id": null}, "geometry": {"type": "Polygon", "coordinates": [[[396135.85, 138978.74], [396137.85, 138981.46], [396140.01, 138982.18], [396151.45, 138982.5], [396153.77, 138982.34], [396158.01, 138980.98], [396158.17, 138981.94], [396159.05, 138982.34], [396163.93, 138982.42], [396165.45, 138982.02], [396165.45, 138980.82], [396166.73, 138980.74], [396167.45, 138982.02], [396168.25, 138982.26], [396171.13, 138982.18], [396176.81, 138981.06], [396178.25, 138981.94], [396180.25, 138982.34], [396180.25, 138978.9], [396174.97, 138978.42], [396163.53, 138978.66], [396162.65, 138977.14], [396161.05, 138977.3], [396160.33, 138978.42], [396142.33, 138978.66], [396140.89, 138978.26], [396140.33, 138977.62], [396139.93, 138975.54], [396140.89, 138974.42], [396141.53, 138970.82], [396144.01, 138964.26], [396146.57, 138955.14], [396151.29, 138943.38], [396152.25, 138938.82], [396150.65, 138937.86], [396148.25, 138939.06], [396147.93, 138941.06], [396148.57, 138941.06], [396148.57, 138941.7], [396147.37, 138942.02], [396145.53, 138947.38], [396145.53, 138948.34], [396146.25, 138948.9], [396146.17, 138949.78], [396145.61, 138950.98], [396144.33, 138951.3], [396143.37, 138953.78], [396142.73, 138955.78], [396142.73, 138956.5], [396143.61, 138956.9], [396143.29, 138958.58], [396142.89, 138959.22], [396141.53, 138959.54], [396140.33, 138962.5], [396139.69, 138965.3], [396140.57, 138965.62], [396140.49, 138966.66], [396140.01, 138967.86], [396138.81, 138968.02], [396138.09, 138969.3], [396136.73, 138972.98], [396135.85, 138978.74]]]}}, {"type": "Feature", "properties": {"poly_type": "sidewalk", "area_m2": 149.44, "segment_id": null}, "geometry": {"type": "Polygon", "coordinates": [[[396035.69, 138941.54], [396036.65, 138942.58], [396038.81, 138942.9], [396040.25, 138938.58], [396041.93, 138938.34], [396057.45, 138944.42], [396058.65, 138945.62], [396062.73, 138946.66], [396065.13, 138948.26], [396069.53, 138948.9], [396072.17, 138954.98], [396072.81, 138955.06], [396074.65, 138954.02], [396073.53, 138950.66], [396072.89, 138950.42], [396071.85, 138948.26], [396069.53, 138945.94], [396064.49, 138944.18], [396063.53, 138942.9], [396061.45, 138942.5], [396058.81, 138941.22], [396057.21, 138940.98], [396056.81, 138941.94], [396055.85, 138941.94], [396055.45, 138941.38], [396053.69, 138940.82], [396053.37, 138939.38], [396050.25, 138937.62], [396046.73, 138936.42], [396045.37, 138935.38], [396042.97, 138935.3], [396040.89, 138934.58], [396038.73, 138934.98], [396037.29, 138937.22], [396037.29, 138938.74], [396036.17, 138939.54], [396035.69, 138941.54]]]}}, {"type": "Feature", "properties": {"poly_type": "sidewalk", "area_m2": 0.01, "segment_id": null}, "geometry": {"type": "Polygon", "coordinates": [[[396025.61, 138928.02000000005], [396025.37, 138927.94000000003], [396025.61, 138927.94000000003], [396025.61, 138928.02000000005]]]}}, {"type": "Feature", "properties": {"poly_type": "sidewalk", "area_m2": 6.8, "segment_id": null}, "geometry": {"type": "Polygon", "coordinates": [[[396043.13, 138923.86], [396043.29, 138925.22], [396044.97, 138927.38], [396045.69, 138927.86], [396047.13, 138927.62], [396045.29, 138924.98], [396043.13, 138923.86]]]}}, {"type": "Feature", "properties": {"poly_type": "sidewalk", "area_m2": 0.0, "segment_id": null}, "geometry": {"type": "Polygon", "coordinates": [[[396072.17, 138914.74000000005], [396072.08999999997, 138914.66000000003], [396072.17, 138914.66000000003], [396072.17, 138914.74000000005]]]}}, {"type": "Feature", "properties": {"poly_type": "sidewalk", "area_m2": 436.73, "segment_id": null}, "geometry": {"type": "Polygon", "coordinates": [[[396072.41, 138915.46], [396073.69, 138917.78], [396074.97, 138918.1], [396074.89, 138919.94], [396075.53, 138921.7], [396081.29, 138934.02], [396082.81, 138935.14], [396084.65, 138940.58], [396085.61, 138941.22], [396089.13, 138948.58], [396096.65, 138953.78], [396098.09, 138955.62], [396098.81, 138955.62], [396102.17, 138957.78], [396105.21, 138958.02], [396106.09, 138958.98], [396106.49, 138960.42], [396110.49, 138963.62], [396112.25, 138964.58], [396112.81, 138964.58], [396113.53, 138963.7], [396115.45, 138964.42], [396117.21, 138965.78], [396116.33, 138967.46], [396120.57, 138970.42], [396123.61, 138971.78], [396125.77, 138971.7], [396127.13, 138970.82], [396129.29, 138967.7], [396132.41, 138958.66], [396132.33, 138957.86], [396131.29, 138957.14], [396131.53, 138955.3], [396133.05, 138955.06], [396132.09, 138953.46], [396130.41, 138952.58], [396129.13, 138955.06], [396127.69, 138960.02], [396125.37, 138962.18], [396124.97, 138965.14], [396123.21, 138966.5], [396122.41, 138966.5], [396121.21, 138965.14], [396121.29, 138963.86], [396122.17, 138962.98], [396122.01, 138962.18], [396120.49, 138962.02], [396119.53, 138960.82], [396118.49, 138960.5], [396110.17, 138954.26], [396107.69, 138953.3], [396105.77, 138953.62], [396104.65, 138953.22], [396105.21, 138950.82], [396102.17, 138948.5], [396100.25, 138948.42], [396100.09, 138950.74], [396098.89, 138951.06], [396098.33, 138950.74], [396098.17, 138949.3], [396097.29, 138948.34], [396092.41, 138947.94], [396090.73, 138946.02], [396089.53, 138942.26], [396083.61, 138930.74], [396083.69, 138927.94], [396084.81, 138927.38], [396084.81, 138926.82], [396084.09, 138926.74], [396083.21, 138925.78], [396082.17, 138923.46], [396080.73, 138923.3], [396079.13, 138922.02], [396075.05, 138913.38], [396073.29, 138914.02], [396072.41, 138915.46]]]}}, {"type": "Feature", "properties": {"poly_type": "sidewalk", "area_m2": 0.0, "segment_id": null}, "geometry": {"type": "Polygon", "coordinates": [[[396015.93, 138911.30000000005], [396015.85, 138911.22000000006], [396015.93, 138911.22000000006], [396015.93, 138911.30000000005]]]}}, {"type": "Feature", "properties": {"poly_type": "sidewalk", "area_m2": 335.25, "segment_id": null}, "geometry": {"type": "Polygon", "coordinates": [[[395973.93, 138911.46], [395984.17, 138915.54], [395986.25, 138916.98], [395987.93, 138917.46], [395991.29, 138919.94], [395994.33, 138920.42], [395994.81, 138921.46], [395991.21, 138921.94], [395991.05, 138922.82], [395991.69, 138923.46], [395996.73, 138923.14], [395996.81, 138922.58], [395995.53, 138922.02], [395995.37, 138921.38], [395996.81, 138921.46], [395997.77, 138922.18], [396001.77, 138922.58], [396003.53, 138923.3], [396004.09, 138925.06], [396006.17, 138924.82], [396008.17, 138925.3], [396025.85, 138932.02], [396025.53, 138933.78], [396018.65, 138950.5], [396017.69, 138953.78], [396016.33, 138955.38], [396015.45, 138958.66], [396014.09, 138960.98], [396013.45, 138965.3], [396012.01, 138968.18], [396013.21, 138968.9], [396014.33, 138968.66], [396016.33, 138966.34], [396017.13, 138964.18], [396017.05, 138963.06], [396016.17, 138962.58], [396016.17, 138961.3], [396016.89, 138960.5], [396018.17, 138960.66], [396018.57, 138960.26], [396020.81, 138954.9], [396020.97, 138953.14], [396020.33, 138953.14], [396020.41, 138951.7], [396022.25, 138951.38], [396024.17, 138947.3], [396024.49, 138945.3], [396023.53, 138944.66], [396023.53, 138944.02], [396024.81, 138943.7], [396026.01, 138942.1], [396027.21, 138939.22], [396028.25, 138935.78], [396028.17, 138934.5], [396029.61, 138931.94], [396029.13, 138930.18], [396021.21, 138926.18], [396020.09, 138926.5], [396020.01, 138927.46], [396018.81, 138927.3], [396017.21, 138924.9], [396013.85, 138923.38], [396012.25, 138923.22], [396012.01, 138923.94], [396010.01, 138923.86], [396008.73, 138923.14], [396008.81, 138921.62], [396008.25, 138921.22], [396001.93, 138919.06], [395999.13, 138918.58], [395994.97, 138916.5], [395988.81, 138914.58], [395986.97, 138913.14], [395983.53, 138913.06], [395980.57, 138910.5], [395976.41, 138908.66], [395975.13, 138908.42], [395974.41, 138909.06], [395973.93, 138911.46]]]}}, {"type": "Feature", "properties": {"poly_type": "sidewalk", "area_m2": 135.03, "segment_id": null}, "geometry": {"type": "Polygon", "coordinates": [[[396046.41, 138917.46], [396046.57, 138918.74], [396048.57, 138920.5], [396049.45, 138923.14], [396050.97, 138924.34], [396052.17, 138923.78], [396052.17, 138921.94], [396053.13, 138920.9], [396054.49, 138920.58], [396056.25, 138921.38], [396057.21, 138923.78], [396056.81, 138926.42], [396057.69, 138927.3], [396058.01, 138928.42], [396057.13, 138930.9], [396058.81, 138931.3], [396060.49, 138930.5], [396061.45, 138928.74], [396061.37, 138925.94], [396062.01, 138925.62], [396061.85, 138924.34], [396059.85, 138920.74], [396058.33, 138920.5], [396056.89, 138919.62], [396055.45, 138919.94], [396055.21, 138916.18], [396054.41, 138914.9], [396055.05, 138912.02], [396052.49, 138907.7], [396051.93, 138907.7], [396051.93, 138908.42], [396050.89, 138908.58], [396050.25, 138910.5], [396048.33, 138912.5], [396048.65, 138913.86], [396047.61, 138914.26], [396046.41, 138917.46]]]}}, {"type": "Feature", "properties": {"poly_type": "sidewalk", "area_m2": 19.36, "segment_id": null}, "geometry": {"type": "Polygon", "coordinates": [[[395961.13, 138904.9], [395961.37, 138906.74], [395962.41, 138907.22], [395965.85, 138908.34], [395967.53, 138908.1], [395968.09, 138907.38], [395968.09, 138906.42], [395966.17, 138904.74], [395964.65, 138905.06], [395962.17, 138904.1], [395961.13, 138904.9]]]}}, {"type": "Feature", "properties": {"poly_type": "sidewalk", "area_m2": 92.03, "segment_id": null}, "geometry": {"type": "MultiPolygon", "coordinates": [[[[395990.41, 138901.38], [395989.93, 138904.58], [395992.89, 138905.94], [395994.01, 138905.86], [395994.17, 138904.9], [395995.45, 138905.06], [395996.81, 138905.78], [395997.05, 138907.46], [396002.65, 138909.46], [396003.61, 138910.34], [396004.89, 138910.34], [396005.37, 138909.3], [396007.53, 138909.86], [396007.93, 138910.18], [396008.01, 138911.62], [396009.29, 138911.14], [396011.13, 138909.06], [396011.13, 138907.22], [396011.61, 138906.66], [396013.21, 138906.74], [396012.81, 138905.7], [396008.17, 138904.02], [396007.29, 138904.18], [396007.29, 138904.9], [396009.69, 138905.78], [396010.25, 138906.58], [396009.93, 138907.46], [396004.97, 138906.5], [396005.13, 138903.22], [396005.85, 138902.58], [396005.85, 138902.1], [396004.97, 138901.62], [396004.17, 138901.86], [396002.89, 138905.3], [395998.33, 138903.38], [395992.97, 138902.18], [395991.37, 138901.38], [395990.41, 138901.38]]], [[[396011.93, 138908.82], [396012.01, 138909.3], [396012.65, 138909.3], [396012.65, 138908.82], [396011.93, 138908.82]]]]}}, {"type": "Feature", "properties": {"poly_type": "sidewalk", "area_m2": 15.7, "segment_id": null}, "geometry": {"type": "Polygon", "coordinates": [[[395979.85000000003, 138898.58], [395979.93, 138899.62000000002], [395982.01, 138899.86000000002], [395982.25, 138901.14], [395984.09, 138902.18000000002], [395984.81, 138902.18000000002], [395985.93, 138900.82], [395986.01, 138899.53999999998], [395981.69, 138897.77999999997], [395980.41000000003, 138897.53999999998], [395979.85000000003, 138898.58]]]}}, {"type": "Feature", "properties": {"poly_type": "sidewalk", "area_m2": 0.0, "segment_id": null}, "geometry": {"type": "Polygon", "coordinates": [[[395973.05, 138897.30000000005], [395972.97, 138897.22000000006], [395973.05, 138897.22000000006], [395973.05, 138897.30000000005]]]}}, {"type": "Feature", "properties": {"poly_type": "sidewalk", "area_m2": 42.92, "segment_id": null}, "geometry": {"type": "Polygon", "coordinates": [[[395942.73, 138898.26], [395943.13, 138899.46], [395947.85, 138901.06], [395949.13, 138902.02], [395955.05, 138904.1], [395956.09, 138903.86], [395956.17, 138902.02], [395955.61, 138900.5], [395952.41, 138900.42], [395951.21, 138898.82], [395946.73, 138896.98], [395945.85, 138896.98], [395944.65, 138897.78], [395943.29, 138897.7], [395942.73, 138898.26]]]}}, {"type": "Feature", "properties": {"poly_type": "sidewalk", "area_m2": 197.62, "segment_id": null}, "geometry": {"type": "Polygon", "coordinates": [[[396152.41, 138926.66], [396152.57, 138927.62], [396153.93, 138927.94], [396153.69, 138930.42], [396154.73, 138931.3], [396155.69, 138930.98], [396160.01, 138915.86], [396161.93, 138913.3], [396162.41, 138910.34], [396165.05, 138904.9], [396165.77, 138898.82], [396167.85, 138893.54], [396171.21, 138892.34], [396180.25, 138892.18], [396180.25, 138889.14], [396179.21, 138888.82], [396167.93, 138888.98], [396165.61, 138889.78], [396164.33, 138892.26], [396164.25, 138893.94], [396163.45, 138894.34], [396161.85, 138898.82], [396161.85, 138900.18], [396162.33, 138900.58], [396162.17, 138903.62], [396160.17, 138905.54], [396158.09, 138909.94], [396157.93, 138911.22], [396158.89, 138911.22], [396159.13, 138912.34], [396157.61, 138912.98], [396156.65, 138914.18], [396155.21, 138918.58], [396155.21, 138919.3], [396156.17, 138919.78], [396155.77, 138921.7], [396155.45, 138922.58], [396154.01, 138922.42], [396152.41, 138926.66]]]}}, {"type": "Feature", "properties": {"poly_type": "sidewalk", "area_m2": 0.0, "segment_id": null}, "geometry": {"type": "Polygon", "coordinates": [[[396057.52999999997, 138885.54000000004], [396057.44999999995, 138885.46000000005], [396057.52999999997, 138885.46000000005], [396057.52999999997, 138885.54000000004]]]}}, {"type": "Feature", "properties": {"poly_type": "sidewalk", "area_m2": 0.0, "segment_id": null}, "geometry": {"type": "Polygon", "coordinates": [[[396040.32999999996, 138883.30000000005], [396040.24999999994, 138883.22000000006], [396040.32999999996, 138883.22000000006], [396040.32999999996, 138883.30000000005]]]}}, {"type": "Feature", "properties": {"poly_type": "sidewalk", "area_m2": 195.17, "segment_id": null}, "geometry": {"type": "Polygon", "coordinates": [[[395934.49, 138882.9], [395940.65, 138885.14], [395941.37, 138885.06], [395941.53, 138884.26], [395943.37, 138884.58], [395944.09, 138884.98], [395943.93, 138886.18], [395944.81, 138886.74], [395951.21, 138889.3], [395951.93, 138889.22], [395952.01, 138888.26], [395952.97, 138888.42], [395954.17, 138889.14], [395954.09, 138890.26], [395955.05, 138890.9], [395961.05, 138893.3], [395962.33, 138892.58], [395964.01, 138892.9], [395964.09, 138894.34], [395969.53, 138896.58], [395970.49, 138896.66], [395970.57, 138895.7], [395971.37, 138895.7], [395973.05, 138896.26], [395973.69, 138897.62], [395974.65, 138897.46], [395975.29, 138896.58], [395975.29, 138895.3], [395969.77, 138893.06], [395969.77, 138891.94], [395970.73, 138889.78], [395970.73, 138889.06], [395970.09, 138888.66], [395968.17, 138888.5], [395967.53, 138889.06], [395967.29, 138890.66], [395968.65, 138891.3], [395968.65, 138892.02], [395966.33, 138891.94], [395964.65, 138890.9], [395951.13, 138885.54], [395950.81, 138885.14], [395951.05, 138882.9], [395949.85, 138880.1], [395950.81, 138875.54], [395949.85, 138875.78], [395948.09, 138879.38], [395948.33, 138880.74], [395949.45, 138882.5], [395948.01, 138883.22], [395946.97, 138883.06], [395945.85, 138880.02], [395948.17, 138877.22], [395949.53, 138874.1], [395948.49, 138870.74], [395947.69, 138870.26], [395946.73, 138870.98], [395946.73, 138871.86], [395947.69, 138873.54], [395947.69, 138875.62], [395946.81, 138876.34], [395945.93, 138878.5], [395943.05, 138879.38], [395941.21, 138881.22], [395938.49, 138880.42], [395936.57, 138879.14], [395934.49, 138879.14], [395934.49, 138882.9]]]}}, {"type": "Feature", "properties": {"poly_type": "sidewalk", "area_m2": 79.02, "segment_id": null}, "geometry": {"type": "Polygon", "coordinates": [[[396169.85, 138877.86], [396171.37, 138879.38], [396174.33, 138880.02], [396174.41, 138880.42], [396180.25, 138880.02], [396180.25, 138876.58], [396174.09, 138876.5], [396177.21, 138866.34], [396172.73, 138866.34], [396171.05, 138871.54], [396170.89, 138874.1], [396169.93, 138875.54], [396169.85, 138877.86]]]}}, {"type": "Feature", "properties": {"poly_type": "sidewalk", "area_m2": 245.49, "segment_id": null}, "geometry": {"type": "Polygon", "coordinates": [[[396015.37, 138914.74], [396017.69, 138915.54], [396019.45, 138915.54], [396021.13, 138916.5], [396021.61, 138917.3], [396024.81, 138918.26], [396026.97, 138919.46], [396028.65, 138919.54], [396032.09, 138921.14], [396033.45, 138920.98], [396034.41, 138920.02], [396035.05, 138918.42], [396035.53, 138918.34], [396035.69, 138916.58], [396035.05, 138916.18], [396035.05, 138915.38], [396035.53, 138914.1], [396036.25, 138914.02], [396036.73, 138913.3], [396037.05, 138909.94], [396038.65, 138909.14], [396039.37, 138907.94], [396039.45, 138906.66], [396038.73, 138906.18], [396039.37, 138903.54], [396039.77, 138902.82], [396041.21, 138902.74], [396041.93, 138900.9], [396042.49, 138900.74], [396042.09, 138898.42], [396044.25, 138895.38], [396044.49, 138892.58], [396041.21, 138886.74], [396040.17, 138883.14], [396037.77, 138878.74], [396036.33, 138874.58], [396034.73, 138872.74], [396032.73, 138868.66], [396032.17, 138866.34], [396030.89, 138866.34], [396030.89, 138866.9], [396029.69, 138867.54], [396031.53, 138874.18], [396032.89, 138875.14], [396034.01, 138877.78], [396033.93, 138878.66], [396032.33, 138879.38], [396032.09, 138880.34], [396033.29, 138882.42], [396034.89, 138881.7], [396036.01, 138881.78], [396037.21, 138884.5], [396038.01, 138885.3], [396037.93, 138886.02], [396034.17, 138887.7], [396033.45, 138888.9], [396034.49, 138888.9], [396038.89, 138887.22], [396041.29, 138892.98], [396040.57, 138896.02], [396037.21, 138903.94], [396035.37, 138905.3], [396035.21, 138909.06], [396033.69, 138913.14], [396031.53, 138916.98], [396030.01, 138917.06], [396024.65, 138914.42], [396016.49, 138911.46], [396015.69, 138911.94], [396015.37, 138914.74]]]}}, {"type": "Feature", "properties": {"poly_type": "sidewalk", "area_m2": 305.36, "segment_id": null}, "geometry": {"type": "Polygon", "coordinates": [[[396131.93, 138947.46], [396131.21, 138948.82], [396131.85, 138948.9], [396134.25, 138948.66], [396134.81, 138947.62], [396134.73, 138945.86], [396136.49, 138946.18], [396136.97, 138945.62], [396137.37, 138943.22], [396138.49, 138941.38], [396138.41, 138940.58], [396136.97, 138940.26], [396137.53, 138937.38], [396138.65, 138937.06], [396139.37, 138937.46], [396140.57, 138935.14], [396141.61, 138930.58], [396140.33, 138930.02], [396140.33, 138928.9], [396140.97, 138928.1], [396142.49, 138927.7], [396143.53, 138925.54], [396144.57, 138922.34], [396144.41, 138921.54], [396143.53, 138921.38], [396144.01, 138919.38], [396144.41, 138918.74], [396145.85, 138918.58], [396147.53, 138914.1], [396147.61, 138912.98], [396146.57, 138912.58], [396147.13, 138910.18], [396148.81, 138910.18], [396149.29, 138909.46], [396150.41, 138905.3], [396150.33, 138904.26], [396149.53, 138903.86], [396149.85, 138902.18], [396150.33, 138901.22], [396151.93, 138900.98], [396153.45, 138896.34], [396153.29, 138895.62], [396152.33, 138895.14], [396152.57, 138893.06], [396154.49, 138892.5], [396156.25, 138887.54], [396156.25, 138886.98], [396155.29, 138886.82], [396155.53, 138885.22], [396155.77, 138884.82], [396157.45, 138884.66], [396158.25, 138882.5], [396159.45, 138878.58], [396159.45, 138877.7], [396158.33, 138877.62], [396158.57, 138875.54], [396160.17, 138874.9], [396160.89, 138873.38], [396161.45, 138868.34], [396162.25, 138866.34], [396157.77, 138866.34], [396158.41, 138867.86], [396158.17, 138870.26], [396154.65, 138880.18], [396153.77, 138881.06], [396152.01, 138880.74], [396150.41, 138881.46], [396150.57, 138882.9], [396152.97, 138883.7], [396153.05, 138884.66], [396149.45, 138896.34], [396144.81, 138908.66], [396143.61, 138913.7], [396140.49, 138921.78], [396137.05, 138933.3], [396131.93, 138947.46]]]}}, {"type": "Feature", "properties": {"poly_type": "sidewalk", "area_m2": 242.44, "segment_id": null}, "geometry": {"type": "MultiPolygon", "coordinates": [[[[396052.57, 138874.74], [396053.61, 138875.22], [396053.53, 138878.42], [396055.53, 138879.38], [396058.01, 138886.66], [396060.25, 138891.46], [396062.01, 138892.1], [396062.49, 138892.74], [396062.49, 138893.38], [396061.93, 138893.78], [396062.17, 138895.14], [396066.33, 138902.9], [396066.65, 138904.5], [396069.21, 138908.42], [396070.57, 138911.94], [396070.81, 138912.26], [396072.57, 138912.02], [396073.53, 138911.3], [396073.21, 138909.54], [396071.29, 138906.42], [396070.97, 138903.46], [396067.93, 138897.62], [396068.25, 138895.86], [396070.25, 138895.22], [396070.25, 138894.5], [396069.37, 138893.94], [396066.73, 138893.86], [396065.45, 138892.9], [396062.57, 138887.78], [396062.81, 138887.06], [396065.05, 138886.98], [396066.25, 138886.1], [396065.53, 138881.78], [396065.85, 138878.98], [396064.17, 138878.18], [396064.01, 138876.34], [396062.25, 138876.9], [396060.57, 138878.5], [396058.97, 138878.18], [396056.65, 138876.02], [396055.21, 138872.74], [396055.45, 138871.86], [396064.89, 138871.06], [396065.85, 138870.74], [396065.93, 138870.18], [396064.09, 138869.06], [396057.53, 138868.9], [396055.05, 138868.26], [396054.81, 138869.46], [396054.01, 138869.54], [396054.25, 138872.02], [396053.13, 138873.06], [396052.57, 138874.74]]], [[[396052.73, 138866.34], [396053.61, 138867.94], [396054.09, 138867.94], [396054.17, 138866.34], [396052.73, 138866.34]]]]}}, {"type": "Feature", "properties": {"poly_type": "midblock", "area_m2": 30.24, "segment_id": null}, "geometry": {"type": "Polygon", "coordinates": [[[395977.61, 139087.7], [395977.69, 139088.5], [395979.45, 139088.9], [395979.93, 139089.46], [395980.65, 139089.06], [395983.37, 139082.9], [395983.37, 139082.34], [395981.37, 139079.94], [395980.65, 139080.02], [395979.93, 139081.22], [395977.61, 139087.7]]]}}, {"type": "Feature", "properties": {"poly_type": "midblock", "area_m2": 27.76, "segment_id": null}, "geometry": {"type": "Polygon", "coordinates": [[[396055.85, 139053.3], [396056.33, 139054.18], [396057.69, 139054.18], [396062.49, 139056.26], [396063.05, 139056.26], [396063.69, 139055.38], [396063.45, 139052.58], [396062.17, 139051.78], [396058.49, 139050.74], [396057.85, 139050.74], [396056.09, 139052.1], [396055.85, 139053.3]]]}}, {"type": "Feature", "properties": {"poly_type": "midblock", "area_m2": 9.23, "segment_id": null}, "geometry": {"type": "Polygon", "coordinates": [[[395990.49, 139052.66], [395990.65, 139053.46], [395992.25, 139053.3], [395994.33, 139051.7], [395993.21, 139049.06], [395992.65, 139049.14], [395990.49, 139052.66]]]}}, {"type": "Feature", "properties": {"poly_type": "midblock", "area_m2": 2.04, "segment_id": null}, "geometry": {"type": "Polygon", "coordinates": [[[396043.29, 139046.66], [396042.49, 139048.1], [396043.93, 139048.66], [396044.17, 139046.98], [396043.29, 139046.66]]]}}, {"type": "Feature", "properties": {"poly_type": "midblock", "area_m2": 38.6, "segment_id": null}, "geometry": {"type": "Polygon", "coordinates": [[[396130.97, 139032.34], [396132.00999999995, 139035.86000000004], [396136.00999999995, 139043.62000000005], [396136.48999999993, 139043.62000000005], [396136.56999999995, 139041.62000000005], [396138.24999999994, 139040.98000000004], [396137.52999999997, 139039.13999999998], [396137.29, 139036.1], [396135.44999999995, 139035.13999999998], [396134.1699999999, 139032.1], [396130.97, 139032.34]]]}}, {"type": "Feature", "properties": {"poly_type": "midblock", "area_m2": 23.93, "segment_id": null}, "geometry": {"type": "Polygon", "coordinates": [[[396016.41, 138988.34], [396016.41, 138989.7], [396019.37, 138989.94], [396021.37, 138987.3], [396021.93, 138984.66], [396018.81, 138983.06], [396016.41, 138988.34]]]}}, {"type": "Feature", "properties": {"poly_type": "midblock", "area_m2": 20.42, "segment_id": null}, "geometry": {"type": "Polygon", "coordinates": [[[396020.57, 138979.38], [396021.85, 138979.46], [396023.69, 138980.58], [396025.77, 138974.82], [396022.57, 138973.46], [396020.57, 138979.38]]]}}, {"type": "Feature", "properties": {"poly_type": "midblock", "area_m2": 23.96, "segment_id": null}, "geometry": {"type": "Polygon", "coordinates": [[[396010.97, 138969.38], [396009.93, 138973.62], [396011.77, 138974.42], [396012.17, 138975.62], [396012.73, 138975.62], [396014.73, 138971.22], [396015.53, 138967.78], [396013.93, 138968.9], [396011.85, 138968.34], [396010.97, 138969.38]]]}}, {"type": "Feature", "properties": {"poly_type": "midblock", "area_m2": 15.53, "segment_id": null}, "geometry": {"type": "Polygon", "coordinates": [[[396072.65, 138956.1], [396074.49, 138959.62000000002], [396077.29, 138959.22000000003], [396077.05, 138957.93999999997], [396075.05, 138954.18], [396072.89, 138954.9], [396072.65, 138956.1]]]}}, {"type": "Feature", "properties": {"poly_type": "midblock", "area_m2": 21.52, "segment_id": null}, "geometry": {"type": "Polygon", "coordinates": [[[396130.41, 138950.42], [396130.65, 138952.42], [396133.05, 138954.82], [396134.01, 138954.5], [396135.37, 138950.02], [396135.29, 138948.98], [396131.05, 138948.82], [396130.41, 138950.42]]]}}, {"type": "Feature", "properties": {"poly_type": "midblock", "area_m2": 34.31, "segment_id": null}, "geometry": {"type": "Polygon", "coordinates": [[[396148.57, 138938.5], [396150.65, 138937.86], [396152.49, 138938.74], [396154.89, 138932.9], [396154.89, 138931.38], [396154.25, 138930.66], [396152.01, 138930.02], [396150.81, 138930.58], [396148.57, 138938.5]]]}}, {"type": "Feature", "properties": {"poly_type": "midblock", "area_m2": 7.7, "segment_id": null}, "geometry": {"type": "Polygon", "coordinates": [[[396071.13, 138912.42], [396071.21, 138913.22], [396072.49, 138914.98], [396074.73, 138913.3], [396073.93, 138911.3], [396071.13, 138912.42]]]}}, {"type": "Feature", "properties": {"poly_type": "midblock", "area_m2": 23.7, "segment_id": null}, "geometry": {"type": "Polygon", "coordinates": [[[396008.65, 138911.53999999998], [396008.97000000003, 138912.18000000002], [396015.37, 138914.50000000003], [396015.85, 138911.05999999997], [396014.89, 138910.09999999998], [396010.97000000003, 138909.05999999997], [396008.65, 138911.53999999998]]]}}, {"type": "Feature", "properties": {"poly_type": "midblock", "area_m2": 27.13, "segment_id": null}, "geometry": {"type": "Polygon", "coordinates": [[[395966.49, 138908.18], [395966.65, 138908.82], [395969.45, 138909.78], [395970.25, 138910.9], [395971.45, 138910.74], [395973.45, 138911.54], [395973.93, 138911.54], [395974.17, 138909.46], [395974.89, 138908.66], [395974.25, 138907.86], [395968.01, 138905.3], [395967.45, 138905.3], [395968.17, 138906.58], [395968.01, 138907.54], [395967.53, 138908.1], [395966.49, 138908.18]]]}}, {"type": "Feature", "properties": {"poly_type": "midblock", "area_m2": 0.0, "segment_id": null}, "geometry": {"type": "Polygon", "coordinates": [[[395967.13, 138905.22000000006], [395967.05, 138905.14000000004], [395967.13, 138905.14000000004], [395967.13, 138905.22000000006]]]}}, {"type": "Feature", "properties": {"poly_type": "midblock", "area_m2": 23.03, "segment_id": null}, "geometry": {"type": "Polygon", "coordinates": [[[395955.85, 138900.74], [395956.01, 138904.5], [395960.33, 138906.5], [395961.37, 138906.58], [395961.05, 138904.9], [395962.73, 138903.94], [395962.57, 138903.3], [395956.33, 138900.74], [395955.85, 138900.74]]]}}, {"type": "Feature", "properties": {"poly_type": "midblock", "area_m2": 14.72, "segment_id": null}, "geometry": {"type": "Polygon", "coordinates": [[[395984.81, 138902.5], [395989.85, 138904.34], [395990.33, 138901.22], [395986.09, 138899.7], [395985.93, 138900.82], [395984.81, 138902.5]]]}}, {"type": "Feature", "properties": {"poly_type": "midblock", "area_m2": 21.26, "segment_id": null}, "geometry": {"type": "Polygon", "coordinates": [[[395972.89, 138897.37999999998], [395972.97000000003, 138897.94000000003], [395974.89, 138899.14], [395980.33, 138900.58000000002], [395979.85, 138899.46], [395980.33, 138897.3], [395979.13, 138896.41999999998], [395975.37, 138895.46], [395975.29000000004, 138896.58], [395974.65, 138897.46], [395972.89, 138897.37999999998]]]}}, {"type": "Feature", "properties": {"poly_type": "midblock", "area_m2": 28.35, "segment_id": null}, "geometry": {"type": "Polygon", "coordinates": [[[396049.13, 138866.34], [396049.13, 138868.66], [396050.17, 138870.98], [396051.93, 138874.26], [396052.57, 138874.34], [396054.25, 138872.02], [396053.77, 138868.1], [396052.49, 138866.34], [396049.13, 138866.34]]]}}, {"type": "Feature", "properties": {"poly_type": "crosswalk", "area_m2": 93.16, "segment_id": 1}, "geometry": {"type": "Polygon", "coordinates": [[[396141.77, 139091.38], [396141.77, 139091.86], [396144.01, 139094.1], [396145.93, 139097.46], [396160.81, 139098.5], [396162.25, 139098.74], [396162.73, 139100.02], [396163.29, 139100.1], [396162.01, 139096.18], [396161.93, 139094.5], [396160.89, 139093.46], [396145.21, 139092.26], [396143.77, 139092.1], [396143.29, 139091.38], [396141.77, 139091.38]]]}}, {"type": "Feature", "properties": {"poly_type": "crosswalk", "area_m2": 0.0, "segment_id": 2}, "geometry": {"type": "Polygon", "coordinates": [[[396157.4499999999, 139085.54], [396157.36999999994, 139085.46000000002], [396157.4499999999, 139085.46000000002], [396157.4499999999, 139085.54]]]}}, {"type": "Feature", "properties": {"poly_type": "crosswalk", "area_m2": 51.7, "segment_id": 2}, "geometry": {"type": "Polygon", "coordinates": [[[396158.09, 139084.1], [396157.53, 139085.46], [396158.65, 139085.78], [396160.65, 139092.82], [396161.85, 139094.18], [396163.61, 139093.54], [396167.05, 139093.22], [396165.45, 139091.14], [396164.57, 139088.58], [396163.93, 139086.34], [396164.33, 139084.34], [396158.09, 139084.1]]]}}, {"type": "Feature", "properties": {"poly_type": "crosswalk", "area_m2": 56.91, "segment_id": 3}, "geometry": {"type": "Polygon", "coordinates": [[[396130.81, 139080.82], [396134.49, 139088.18], [396135.13, 139090.82], [396141.45, 139091.62], [396141.61, 139090.98], [396140.33, 139089.38], [396137.05, 139081.94], [396136.17, 139081.22], [396130.81, 139080.82]]]}}, {"type": "Feature", "properties": {"poly_type": "crosswalk", "area_m2": 120.86, "segment_id": 4}, "geometry": {"type": "Polygon", "coordinates": [[[396135.77, 139076.34], [396136.57, 139078.82], [396136.33, 139081.14], [396137.05, 139081.78], [396154.25, 139083.54], [396154.09, 139084.66], [396155.05, 139086.58], [396156.89, 139086.74], [396157.61, 139083.94], [396155.45, 139082.82], [396155.05, 139081.7], [396156.33, 139080.02], [396158.25, 139080.26], [396158.25, 139078.82], [396157.13, 139077.06], [396156.49, 139077.06], [396155.85, 139077.94], [396154.65, 139077.94], [396154.17, 139077.86], [396153.69, 139076.74], [396151.85, 139076.42], [396151.29, 139077.22], [396150.49, 139077.38], [396150.49, 139077.86], [396149.29, 139077.94], [396135.77, 139076.34]]]}}, {"type": "Feature", "properties": {"poly_type": "crosswalk", "area_m2": 48.76, "segment_id": 5}, "geometry": {"type": "Polygon", "coordinates": [[[396090.57, 139080.5], [396089.53, 139083.3], [396091.53, 139083.62], [396098.33, 139086.58], [396099.29, 139083.78], [396101.29, 139082.42], [396101.37, 139081.94], [396099.69, 139081.7], [396090.89, 139078.26], [396090.41, 139078.66], [396090.57, 139080.5]]]}}, {"type": "Feature", "properties": {"poly_type": "crosswalk", "area_m2": 49.59, "segment_id": 6}, "geometry": {"type": "Polygon", "coordinates": [[[396086.57, 139074.42], [396086.81, 139075.7], [396088.65, 139076.26], [396090.09, 139078.18], [396090.73, 139078.18], [396090.97, 139076.5], [396094.41, 139068.74], [396094.57, 139067.38], [396092.17, 139067.46], [396089.37, 139066.58], [396089.13, 139068.58], [396086.57, 139074.42]]]}}, {"type": "Feature", "properties": {"poly_type": "crosswalk", "area_m2": 44.71, "segment_id": 7}, "geometry": {"type": "Polygon", "coordinates": [[[396094.73, 139067.38], [396103.85, 139071.54], [396104.41, 139071.46], [396104.65, 139069.3], [396105.61, 139067.94], [396105.21, 139066.82], [396102.97, 139066.1], [396102.65, 139065.38], [396100.49, 139065.06], [396097.77, 139063.7], [396097.13, 139063.86], [396096.33, 139065.7], [396094.73, 139066.9], [396094.73, 139067.38]]]}}, {"type": "Feature", "properties": {"poly_type": "crosswalk", "area_m2": 0.0, "segment_id": 8}, "geometry": {"type": "Polygon", "coordinates": [[[396122.48999999993, 139039.30000000002], [396122.41, 139039.22], [396122.48999999993, 139039.22], [396122.48999999993, 139039.30000000002]]]}}, {"type": "Feature", "properties": {"poly_type": "crosswalk", "area_m2": 0.0, "segment_id": 8}, "geometry": {"type": "Polygon", "coordinates": [[[396115.76999999996, 139034.02000000002], [396115.68999999994, 139033.94], [396115.76999999996, 139033.94], [396115.76999999996, 139034.02000000002]]]}}, {"type": "Feature", "properties": {"poly_type": "crosswalk", "area_m2": 0.17, "segment_id": 8}, "geometry": {"type": "Polygon", "coordinates": [[[396112.97, 139029.22], [396113.52999999997, 139028.66], [396113.85, 139028.58000000002], [396113.85, 139028.82], [396112.97, 139029.22]]]}}, {"type": "Feature", "properties": {"poly_type": "crosswalk", "area_m2": 197.89, "segment_id": 8}, "geometry": {"type": "MultiPolygon", "coordinates": [[[[396108.89, 139032.58], [396113.45, 139045.06], [396114.01, 139045.14], [396115.93, 139043.14], [396117.69, 139042.98], [396119.13, 139044.1], [396119.77, 139045.54], [396120.33, 139045.54], [396120.81, 139042.5], [396122.01, 139039.3], [396123.29, 139039.22], [396122.89, 139035.7], [396125.93, 139030.26], [396126.73, 139026.98], [396127.85, 139027.06], [396124.09, 139019.06], [396123.61, 139019.06], [396123.61, 139021.22], [396120.73, 139028.02], [396120.97, 139029.22], [396120.57, 139030.74], [396119.61, 139031.7], [396118.17, 139034.58], [396117.53, 139037.14], [396116.57, 139037.7], [396116.09, 139039.06], [396115.61, 139039.06], [396114.73, 139037.86], [396114.81, 139036.42], [396115.45, 139035.62], [396115.37, 139034.34], [396115.93, 139033.94], [396116.01, 139031.94], [396115.13, 139031.22], [396115.13, 139029.78], [396112.97, 139030.18], [396112.89, 139027.54], [396111.61, 139027.46], [396111.05, 139025.62], [396110.57, 139025.62], [396110.89, 139028.02], [396109.53, 139030.18], [396108.89, 139032.58]]], [[[396122.41, 139016.42], [396122.57, 139018.34], [396123.13, 139018.9], [396123.93, 139018.9], [396122.89, 139016.42], [396122.41, 139016.42]]]]}}, {"type": "Feature", "properties": {"poly_type": "crosswalk", "area_m2": 0.0, "segment_id": 9}, "geometry": {"type": "Polygon", "coordinates": [[[396107.68999999994, 139013.22000000003], [396107.6099999999, 139013.14], [396107.68999999994, 139013.14], [396107.68999999994, 139013.22000000003]]]}}, {"type": "Feature", "properties": {"poly_type": "crosswalk", "area_m2": 128.58, "segment_id": 9}, "geometry": {"type": "Polygon", "coordinates": [[[396106.17, 139016.42], [396106.57, 139018.34], [396108.41, 139022.34], [396110.09, 139025.3], [396110.65, 139025.38], [396110.73, 139023.22], [396114.73, 139005.62], [396115.21, 139004.18], [396116.25, 139003.86], [396116.09, 139001.14], [396114.89, 139000.5], [396112.49, 138996.02], [396111.93, 138996.1], [396111.45, 138997.54], [396110.57, 138998.02], [396110.89, 138999.94], [396108.89, 139008.82], [396108.57, 139009.78], [396107.85, 139009.94], [396108.09, 139011.7], [396107.61, 139012.5], [396107.69, 139013.62], [396106.89, 139014.74], [396107.13, 139016.26], [396106.17, 139016.42]]]}}, {"type": "Feature", "properties": {"poly_type": "crosswalk", "area_m2": 59.92, "segment_id": 10}, "geometry": {"type": "Polygon", "coordinates": [[[396116.25, 139001.22], [396116.57, 139004.34], [396117.93, 139006.02], [396122.49, 139014.5], [396122.97, 139014.5], [396125.13, 139008.1], [396124.25, 139008.1], [396123.53, 139007.22], [396119.13, 138998.74], [396118.49, 138998.9], [396117.53, 139000.82], [396116.25, 139001.22]]]}}, {"type": "Feature", "properties": {"poly_type": "crosswalk", "area_m2": 52.61, "segment_id": 11}, "geometry": {"type": "Polygon", "coordinates": [[[395986.17, 139040.66], [395987.45, 139041.54], [395994.09, 139044.02], [395995.85, 139043.94], [395995.77, 139042.1], [395997.29, 139041.14], [395996.81, 139039.46], [395988.49, 139036.26], [395986.89, 139036.74], [395987.05, 139038.82], [395986.25, 139039.62], [395986.17, 139040.66]]]}}, {"type": "Feature", "properties": {"poly_type": "crosswalk", "area_m2": 46.38, "segment_id": 12}, "geometry": {"type": "Polygon", "coordinates": [[[395997.13, 139040.02], [395997.93, 139041.06], [395998.97, 139041.06], [396000.17, 139042.02], [396001.77, 139041.86], [396001.93, 139039.78], [396004.57, 139033.78], [396004.01, 139031.78], [396002.81, 139032.02], [396001.53, 139031.14], [396000.33, 139031.62], [395997.13, 139040.02]]]}}, {"type": "Feature", "properties": {"poly_type": "crosswalk", "area_m2": 0.01, "segment_id": 13}, "geometry": {"type": "Polygon", "coordinates": [[[395985.37, 139027.46000000002], [395985.29, 139027.62], [395985.20999999996, 139027.46000000002], [395985.37, 139027.46000000002]]]}}, {"type": "Feature", "properties": {"poly_type": "crosswalk", "area_m2": 50.15, "segment_id": 13}, "geometry": {"type": "Polygon", "coordinates": [[[395983.37, 139033.14], [395982.57, 139033.94], [395983.21, 139034.58], [395985.85, 139035.54], [395986.49, 139036.34], [395987.29, 139036.26], [395991.05, 139028.5], [395991.13, 139027.14], [395990.73, 139026.66], [395988.73, 139026.58], [395984.97, 139025.46], [395985.77, 139027.62], [395983.37, 139033.14]]]}}, {"type": "Feature", "properties": {"poly_type": "crosswalk", "area_m2": 48.31, "segment_id": 14}, "geometry": {"type": "Polygon", "coordinates": [[[395991.13, 139026.9], [395991.69, 139027.62], [396000.73, 139031.06], [396001.21, 139030.66], [396001.05, 139028.98], [396002.09, 139025.94], [396000.49, 139025.7], [395993.77, 139022.82], [395992.41, 139025.54], [395991.13, 139026.9]]]}}, {"type": "Feature", "properties": {"poly_type": "crosswalk", "area_m2": 1.95, "segment_id": 15}, "geometry": {"type": "Polygon", "coordinates": [[[396104.48999999993, 139013.06], [396105.5299999999, 139015.78000000006], [396106.00999999995, 139015.78000000006], [396105.5299999999, 139013.22], [396104.48999999993, 139013.06]]]}}, {"type": "Feature", "properties": {"poly_type": "crosswalk", "area_m2": 48.34, "segment_id": 16}, "geometry": {"type": "Polygon", "coordinates": [[[396121.61, 138989.46], [396123.21, 138990.34], [396127.53, 138995.54], [396128.25, 138995.7], [396128.81, 138997.06], [396129.29, 138997.06], [396129.93, 138993.94], [396130.89, 138992.26], [396128.01, 138989.62], [396123.61, 138984.26], [396123.05, 138984.26], [396122.97, 138985.86], [396122.01, 138987.3], [396121.61, 138989.46]]]}}, {"type": "Feature", "properties": {"poly_type": "crosswalk", "area_m2": 0.0, "segment_id": 17}, "geometry": {"type": "Polygon", "coordinates": [[[396137.93, 138988.74000000002], [396137.85, 138988.66000000003], [396137.93, 138988.66000000003], [396137.93, 138988.74000000002]]]}}, {"type": "Feature", "properties": {"poly_type": "crosswalk", "area_m2": 57.08, "segment_id": 17}, "geometry": {"type": "Polygon", "coordinates": [[[396130.57, 138991.62000000002], [396131.61, 138992.18000000002], [396134.17, 138991.06000000003], [396138.17, 138991.06000000003], [396137.85, 138988.02000000002], [396139.76999999996, 138981.93999999997], [396137.85, 138981.46], [396136.25, 138979.53999999998], [396135.37, 138979.77999999997], [396132.17, 138989.62], [396130.57, 138991.62000000002]]]}}, {"type": "Feature", "properties": {"poly_type": "crosswalk", "area_m2": 50.91, "segment_id": 18}, "geometry": {"type": "Polygon", "coordinates": [[[396118.81, 138980.34], [396123.29, 138983.7], [396123.77, 138979.94], [396126.09, 138972.58], [396125.85, 138971.7], [396123.61, 138971.78], [396121.21, 138970.82], [396121.13, 138972.98], [396118.81, 138980.34]]]}}, {"type": "Feature", "properties": {"poly_type": "crosswalk", "area_m2": 44.63, "segment_id": 19}, "geometry": {"type": "Polygon", "coordinates": [[[396126.33, 138972.02], [396134.89, 138979.06], [396135.93, 138979.22], [396136.73, 138973.94], [396136.25, 138973.94], [396136.09, 138974.5], [396134.73, 138974.18], [396129.29, 138969.46], [396129.21, 138968.66], [396128.73, 138968.66], [396126.25, 138971.38], [396126.33, 138972.02]]]}}, {"type": "Feature", "properties": {"poly_type": "crosswalk", "area_m2": 96.71, "segment_id": 20}, "geometry": {"type": "Polygon", "coordinates": [[[396080.73, 138965.06], [396080.65, 138966.18], [396082.33, 138969.22], [396082.65, 138970.82], [396084.25, 138970.66], [396101.29, 138973.94], [396100.57, 138970.26], [396098.41, 138968.26], [396082.73, 138965.38], [396082.33, 138964.98], [396080.73, 138965.06]]]}}, {"type": "Feature", "properties": {"poly_type": "crosswalk", "area_m2": 0.01, "segment_id": 21}, "geometry": {"type": "Polygon", "coordinates": [[[396097.92999999993, 138966.10000000003], [396097.85, 138965.94000000003], [396097.92999999993, 138965.94000000003], [396097.92999999993, 138966.10000000003]]]}}, {"type": "Feature", "properties": {"poly_type": "crosswalk", "area_m2": 0.01, "segment_id": 21}, "geometry": {"type": "Polygon", "coordinates": [[[396094.64999999997, 138959.70000000004], [396094.56999999995, 138959.54000000004], [396094.64999999997, 138959.54000000004], [396094.64999999997, 138959.70000000004]]]}}, {"type": "Feature", "properties": {"poly_type": "crosswalk", "area_m2": 100.65, "segment_id": 21}, "geometry": {"type": "Polygon", "coordinates": [[[396087.21, 138948.1], [396087.93, 138949.94], [396089.13, 138949.7], [396089.93, 138950.18], [396090.09, 138951.3], [396090.73, 138951.62], [396091.85, 138954.42], [396092.49, 138954.74], [396092.57, 138955.78], [396094.81, 138959.7], [396094.89, 138960.5], [396093.61, 138961.06], [396094.25, 138963.86], [396094.73, 138964.34], [396096.41, 138963.94], [396097.93, 138965.94], [396097.77, 138967.94], [396098.73, 138968.18], [396100.49, 138969.94], [396102.73, 138969.38], [396104.41, 138970.02], [396104.25, 138968.9], [396101.29, 138963.46], [396101.21, 138962.42], [396100.17, 138961.46], [396097.93, 138956.82], [396097.77, 138954.82], [396089.77, 138949.22], [396088.73, 138947.54], [396087.21, 138948.1]]]}}, {"type": "Feature", "properties": {"poly_type": "crosswalk", "area_m2": 96.34, "segment_id": 22}, "geometry": {"type": "Polygon", "coordinates": [[[396070.57, 138944.98], [396069.93, 138946.26], [396071.85, 138948.26], [396073.05, 138950.58], [396084.57, 138947.46], [396088.33, 138947.22], [396088.09, 138945.86], [396085.21, 138940.66], [396083.53, 138941.78], [396070.57, 138944.98]]]}}, {"type": "Feature", "properties": {"poly_type": "crosswalk", "area_m2": 0.0, "segment_id": 23}, "geometry": {"type": "Polygon", "coordinates": [[[396066.32999999996, 138937.06000000006], [396066.24999999994, 138936.98000000004], [396066.32999999996, 138936.98000000004], [396066.32999999996, 138937.06000000006]]]}}, {"type": "Feature", "properties": {"poly_type": "crosswalk", "area_m2": 0.0, "segment_id": 23}, "geometry": {"type": "Polygon", "coordinates": [[[396065.44999999995, 138935.38000000003], [396065.37, 138935.30000000005], [396065.44999999995, 138935.30000000005], [396065.44999999995, 138935.38000000003]]]}}, {"type": "Feature", "properties": {"poly_type": "crosswalk", "area_m2": 96.44, "segment_id": 23}, "geometry": {"type": "MultiPolygon", "coordinates": [[[[396058.81, 138931.22], [396063.21, 138938.98], [396063.53, 138941.06], [396064.73, 138941.86], [396064.73, 138942.5], [396063.61, 138942.82], [396063.85, 138943.7], [396068.09, 138945.7], [396069.61, 138945.86], [396070.17, 138944.66], [396069.53, 138943.14], [396069.05, 138943.06], [396069.13, 138941.94], [396070.65, 138942.34], [396070.41, 138941.06], [396068.41, 138937.14], [396067.45, 138936.74], [396067.05, 138938.1], [396066.57, 138938.1], [396066.17, 138936.66], [396065.29, 138935.86], [396064.73, 138933.94], [396066.17, 138933.86], [396066.17, 138932.82], [396064.25, 138927.62], [396062.97, 138926.02], [396061.45, 138925.78], [396061.37, 138929.06], [396060.49, 138930.5], [396058.81, 138931.22]]], [[[396067.77, 138936.5], [396067.77, 138936.1], [396067.29, 138936.1], [396067.29, 138936.5], [396067.77, 138936.5]]]]}}, {"type": "Feature", "properties": {"poly_type": "crosswalk", "area_m2": 0.0, "segment_id": 24}, "geometry": {"type": "Polygon", "coordinates": [[[396029.85, 138936.34000000005], [396029.76999999996, 138936.26000000004], [396029.85, 138936.26000000004], [396029.85, 138936.34000000005]]]}}, {"type": "Feature", "properties": {"poly_type": "crosswalk", "area_m2": 0.0, "segment_id": 24}, "geometry": {"type": "Polygon", "coordinates": [[[396036.97, 138929.78000000006], [396036.88999999996, 138929.70000000004], [396036.97, 138929.70000000004], [396036.97, 138929.78000000006]]]}}, {"type": "Feature", "properties": {"poly_type": "crosswalk", "area_m2": 0.0, "segment_id": 24}, "geometry": {"type": "Polygon", "coordinates": [[[396034.88999999996, 138928.58000000005], [396034.80999999994, 138928.50000000006], [396034.88999999996, 138928.50000000006], [396034.88999999996, 138928.58000000005]]]}}, {"type": "Feature", "properties": {"poly_type": "crosswalk", "area_m2": 0.0, "segment_id": 24}, "geometry": {"type": "Polygon", "coordinates": [[[396024.97, 138927.94000000006], [396024.88999999996, 138927.86000000004], [396024.97, 138927.86000000004], [396024.97, 138927.94000000006]]]}}, {"type": "Feature", "properties": {"poly_type": "crosswalk", "area_m2": 230.16, "segment_id": 24}, "geometry": {"type": "Polygon", "coordinates": [[[396025.93, 138928.02], [396026.25, 138928.74], [396028.81, 138929.86], [396029.61, 138931.3], [396028.57, 138933.78], [396028.73, 138935.38], [396028.01, 138936.02], [396027.85, 138936.98], [396029.13, 138936.18], [396030.01, 138936.66], [396031.21, 138936.5], [396031.61, 138936.66], [396031.77, 138937.78], [396034.09, 138937.86], [396035.53, 138938.74], [396037.29, 138937.94], [396037.93, 138935.86], [396039.05, 138934.82], [396040.89, 138934.58], [396042.97, 138935.3], [396044.49, 138935.22], [396043.53, 138933.7], [396045.77, 138930.26], [396045.69, 138927.78], [396043.29, 138925.22], [396042.89, 138922.34], [396035.93, 138919.78], [396035.45, 138918.58], [396034.97, 138918.58], [396034.25, 138920.26], [396033.05, 138921.14], [396027.45, 138919.46], [396027.69, 138920.98], [396026.89, 138922.9], [396027.37, 138925.7], [396026.57, 138927.78], [396025.93, 138928.02]], [[396034.49, 138928.34], [396034.81, 138924.82], [396035.37, 138924.66], [396035.45, 138924.1], [396037.53, 138924.02], [396040.73, 138925.22], [396040.73, 138926.34], [396039.21, 138930.18], [396038.17, 138931.06], [396036.97, 138930.42], [396036.89, 138929.78], [396034.97, 138929.06], [396034.49, 138928.34]]]}}, {"type": "Feature", "properties": {"poly_type": "crosswalk", "area_m2": 0.01, "segment_id": 25}, "geometry": {"type": "Polygon", "coordinates": [[[396048.64999999997, 138899.06000000006], [396048.49, 138899.14000000004], [396048.49, 138898.98000000004], [396048.64999999997, 138899.06000000006]]]}}, {"type": "Feature", "properties": {"poly_type": "crosswalk", "area_m2": 98.18, "segment_id": 25}, "geometry": {"type": "Polygon", "coordinates": [[[396042.81, 138897.06], [396042.41, 138900.26], [396043.13, 138900.66], [396043.21, 138901.7], [396043.85, 138902.02], [396045.05, 138904.58], [396045.69, 138907.3], [396046.25, 138907.46], [396046.09, 138911.3], [396047.21, 138912.9], [396048.01, 138912.9], [396050.09, 138910.74], [396050.89, 138908.58], [396052.25, 138908.5], [396052.17, 138906.82], [396051.05, 138904.58], [396051.37, 138902.98], [396050.81, 138901.38], [396049.61, 138899.46], [396048.01, 138899.3], [396047.61, 138898.58], [396047.93, 138897.06], [396046.81, 138896.9], [396046.57, 138895.46], [396045.93, 138895.06], [396046.41, 138893.54], [396045.53, 138893.14], [396044.97, 138892.18], [396044.49, 138892.18], [396044.41, 138894.98], [396043.61, 138896.74], [396042.81, 138897.06]]]}}, {"type": "Feature", "properties": {"poly_type": "crosswalk", "area_m2": 98.08, "segment_id": 26}, "geometry": {"type": "Polygon", "coordinates": [[[396040.17, 138883.62], [396044.01, 138891.86], [396044.65, 138891.78], [396044.89, 138890.9], [396046.17, 138890.74], [396046.49, 138890.1], [396053.05, 138886.66], [396056.25, 138885.14], [396057.53, 138885.22], [396055.45, 138879.22], [396054.17, 138878.58], [396052.81, 138878.82], [396052.49, 138879.62], [396049.05, 138882.42], [396044.81, 138884.02], [396043.37, 138885.06], [396041.45, 138884.9], [396040.65, 138883.62], [396040.17, 138883.62]]]}}, {"type": "Feature", "properties": {"poly_type": "crosswalk", "area_m2": 43.6, "segment_id": 27}, "geometry": {"type": "Polygon", "coordinates": [[[396154.17, 138893.06000000003], [396155.05, 138892.98], [396155.29, 138892.1], [396156.01, 138892.1], [396162.81, 138893.54], [396164.01, 138894.26], [396164.41, 138892.02000000002], [396165.61, 138889.46], [396163.69, 138889.37999999998], [396161.29, 138888.81999999998], [396161.20999999996, 138888.18], [396158.89, 138888.25999999998], [396156.25, 138887.37999999998], [396154.17, 138893.06000000003]]]}}, {"type": "Feature", "properties": {"poly_type": "crosswalk", "area_m2": 0.01, "segment_id": 28}, "geometry": {"type": "Polygon", "coordinates": [[[396174.0099999999, 138880.66000000003], [396173.8499999999, 138880.58000000005], [396174.0099999999, 138880.58000000005], [396174.0099999999, 138880.66000000003]]]}}, {"type": "Feature", "properties": {"poly_type": "crosswalk", "area_m2": 50.38, "segment_id": 28}, "geometry": {"type": "Polygon", "coordinates": [[[396169.29, 138878.34], [396165.85, 138889.38], [396172.09, 138888.9], [396172.09, 138888.42], [396171.29, 138888.02], [396171.29, 138887.22], [396172.89, 138882.5], [396174.25, 138880.02], [396171.53, 138879.46], [396170.09, 138878.26], [396169.29, 138878.34]]]}}, {"type": "Feature", "properties": {"poly_type": "crosswalk", "area_m2": 51.31, "segment_id": 29}, "geometry": {"type": "Polygon", "coordinates": [[[396159.85000000003, 138875.46000000002], [396169.69, 138877.94000000003], [396169.93, 138875.54], [396170.89, 138874.1], [396170.89, 138872.74], [396167.76999999996, 138872.25999999998], [396167.61, 138871.77999999997], [396166.73, 138871.53999999998], [396163.05, 138871.21999999997], [396162.73, 138870.58], [396161.37, 138870.02], [396161.05, 138872.97999999998], [396160.25, 138874.81999999998], [396159.69, 138874.97999999998], [396159.85000000003, 138875.46000000002]]]}}], "crs": {"type": "name", "properties": {"name": "EPSG:26985"}}}