{"type": "FeatureCollection", "features": [{"type": "Feature", "properties": {"poly_type": "sidewalk", "area_m2": 116.59, "segment_id": null}, "geometry": {"type": "MultiPolygon", "coordinates": [[[[-77.0442573, 38.9197156], [-77.0442426, 38.9197682], [-77.0442325, 38.9197797], [-77.0442232, 38.9198035], [-77.0442297, 38.9198237], [-77.0441984, 38.9198273], [-77.0441716, 38.9198503], [-77.0441661, 38.9198504], [-77.0441661, 38.9198439], [-77.0441808, 38.9198179], [-77.0441836, 38.9197956], [-77.0442057, 38.9197603], [-77.0442057, 38.9197502], [-77.0441955, 38.9197372], [-77.0441826, 38.9197322], [-77.044142, 38.9197329], [-77.044047, 38.9197452], [-77.044047, 38.9197149], [-77.044082, 38.919712], [-77.0440913, 38.9197026], [-77.0441992, 38.9197004], [-77.0442435, 38.9197047], [-77.0442573, 38.9197156]]], [[[-77.044239, 38.919841], [-77.0442334, 38.9198712], [-77.0442011, 38.9198712], [-77.0441984, 38.9198453], [-77.0442113, 38.9198518], [-77.0442233, 38.9198294], [-77.0442297, 38.9198294], [-77.044239, 38.919841]]]]}}, {"type": "Feature", "properties": {"poly_type": "sidewalk", "area_m2": 59.37, "segment_id": null}, "geometry": {"type": "Polygon", "coordinates": [[[-77.0464797, 38.9198466], [-77.0464807, 38.9198516], [-77.0464724, 38.9198559], [-77.0464724, 38.9198704], [-77.0464475, 38.9198704], [-77.0464382, 38.9198358], [-77.0463893, 38.919758], [-77.0463883, 38.9197385], [-77.0463708, 38.9197119], [-77.0463542, 38.9196708], [-77.0463625, 38.9196614], [-77.0463744, 38.9196607], [-77.046392, 38.9196967], [-77.0464068, 38.9197054], [-77.0464059, 38.919719], [-77.0464243, 38.9197644], [-77.0464428, 38.9197889], [-77.0464456, 38.9198026], [-77.0464566, 38.9198048], [-77.0464548, 38.9198185], [-77.046464, 38.9198394], [-77.0464797, 38.9198466]]]}}, {"type": "Feature", "properties": {"poly_type": "sidewalk", "area_m2": 331.63, "segment_id": null}, "geometry": {"type": "Polygon", "coordinates": [[[-77.0450314, 38.9198709], [-77.0450102, 38.9198709], [-77.0449603, 38.9197967], [-77.0449419, 38.9197571], [-77.0449326, 38.9197528], [-77.0449234, 38.9197557], [-77.0449225, 38.9197737], [-77.0449151, 38.9197838], [-77.0448986, 38.919871], [-77.0448783, 38.919871], [-77.0448985, 38.9197441], [-77.0449123, 38.9197211], [-77.044927, 38.9196728], [-77.0449261, 38.9196504], [-77.0449206, 38.9196454], [-77.0449021, 38.9196432], [-77.0448754, 38.9196461], [-77.0447813, 38.9196707], [-77.0447739, 38.9196757], [-77.0446476, 38.9198185], [-77.0446421, 38.9198329], [-77.0446319, 38.9198386], [-77.0446384, 38.9198711], [-77.0445951, 38.9198711], [-77.044608, 38.9198365], [-77.044607, 38.9198199], [-77.0445969, 38.9198163], [-77.0445959, 38.9198091], [-77.0446126, 38.9198141], [-77.0446448, 38.9197904], [-77.0447223, 38.9197053], [-77.0447213, 38.9196837], [-77.0446715, 38.9196945], [-77.0445239, 38.9197126], [-77.0444981, 38.9197234], [-77.0444815, 38.9197342], [-77.0444631, 38.9197573], [-77.044405, 38.9198712], [-77.0443709, 38.9198712], [-77.0443709, 38.9198661], [-77.044416, 38.9197832], [-77.0444308, 38.9197825], [-77.0444354, 38.9197652], [-77.0444299, 38.9197566], [-77.0444372, 38.9197393], [-77.0444446, 38.9197378], [-77.0444649, 38.919709], [-77.044487, 38.9196895], [-77.0445543, 38.9196816], [-77.0445654, 38.9196816], [-77.0445654, 38.9196881], [-77.0445839, 38.919688], [-77.0446189, 38.9196823], [-77.0446254, 38.9196729], [-77.0446337, 38.91967], [-77.044642, 38.9196707], [-77.044642, 38.9196772], [-77.0446604, 38.9196772], [-77.0446733, 38.9196736], [-77.0446872, 38.9196628], [-77.0447315, 38.9196606], [-77.0447647, 38.9196455], [-77.0447739, 38.9196455], [-77.0447776, 38.9196541], [-77.0447868, 38.9196541], [-77.044808, 38.9196498], [-77.04482, 38.9196382], [-77.0448578, 38.9196274], [-77.0448837, 38.9196267], [-77.0449187, 38.919618], [-77.0449233, 38.9196151], [-77.0449224, 38.9196022], [-77.0449427, 38.9195985], [-77.0449805, 38.9196158], [-77.0449916, 38.9196389], [-77.0449916, 38.9196454], [-77.0449731, 38.9196418], [-77.0449584, 38.919649], [-77.0449557, 38.9197211], [-77.0449815, 38.9197902], [-77.0450314, 38.9198709]]]}}, {"type": "Feature", "properties": {"poly_type": "sidewalk", "area_m2": 0.0, "segment_id": null}, "geometry": {"type": "Polygon", "coordinates": [[[-77.0449528, 38.9195993], [-77.0449537, 38.9195985], [-77.0449528, 38.9195985], [-77.0449528, 38.9195993]]]}}, {"type": "Feature", "properties": {"poly_type": "sidewalk", "area_m2": 79.58, "segment_id": null}, "geometry": {"type": "Polygon", "coordinates": [[[-77.0443375, 38.9196024], [-77.0443052, 38.919619], [-77.0442065, 38.9196219], [-77.0441982, 38.9196204], [-77.0441973, 38.9196082], [-77.0441816, 38.9196082], [-77.0441484, 38.9196097], [-77.0441429, 38.9196212], [-77.0441041, 38.9196226], [-77.0440949, 38.9196205], [-77.0440958, 38.9196068], [-77.0440875, 38.9196061], [-77.0440617, 38.9196191], [-77.0440469, 38.9196198], [-77.0440469, 38.9195866], [-77.0440681, 38.9195852], [-77.0442333, 38.9195909], [-77.0442886, 38.9195901], [-77.0442969, 38.9195844], [-77.0443227, 38.9195822], [-77.0443357, 38.9195923], [-77.0443375, 38.9196024]]]}}, {"type": "Feature", "properties": {"poly_type": "sidewalk", "area_m2": 0.01, "segment_id": null}, "geometry": {"type": "Polygon", "coordinates": [[[-77.044997, 38.9194349], [-77.0449998, 38.9194335], [-77.044997, 38.9194342], [-77.044997, 38.9194349]]]}}, {"type": "Feature", "properties": {"poly_type": "sidewalk", "area_m2": 298.04, "segment_id": null}, "geometry": {"type": "Polygon", "coordinates": [[[-77.0449186, 38.9194854], [-77.0449232, 38.9195099], [-77.0449149, 38.9195178], [-77.0448919, 38.9195193], [-77.0448882, 38.9195106], [-77.0448827, 38.9195106], [-77.0448375, 38.9195308], [-77.0447877, 38.9195446], [-77.0447812, 38.9195525], [-77.0447646, 38.9195503], [-77.0446336, 38.9195749], [-77.0446309, 38.9195871], [-77.0446216, 38.9195893], [-77.0445598, 38.9195929], [-77.0445515, 38.9195864], [-77.0445506, 38.9195713], [-77.0445607, 38.9195554], [-77.0445598, 38.9195461], [-77.0445663, 38.9195461], [-77.0445746, 38.9195353], [-77.0446326, 38.9194351], [-77.0446501, 38.9194192], [-77.0446464, 38.9194055], [-77.0446556, 38.9193889], [-77.0446436, 38.9193832], [-77.0446427, 38.9193774], [-77.0446538, 38.9193716], [-77.0446575, 38.9193587], [-77.044675, 38.919337], [-77.0446934, 38.9193262], [-77.0446971, 38.9193039], [-77.0447128, 38.9193003], [-77.0447239, 38.919306], [-77.0447322, 38.9193046], [-77.0447441, 38.9192866], [-77.0447377, 38.9192722], [-77.0447432, 38.9192722], [-77.0447515, 38.9192585], [-77.0447681, 38.9192484], [-77.0447939, 38.919252], [-77.0448142, 38.9192692], [-77.0448133, 38.9192765], [-77.0448013, 38.9192793], [-77.0448032, 38.9192902], [-77.0448327, 38.9193399], [-77.0448475, 38.9193853], [-77.0448623, 38.9193982], [-77.044878, 38.9194343], [-77.0448891, 38.9194371], [-77.0448845, 38.9194472], [-77.0448919, 38.9194717], [-77.0449011, 38.9194753], [-77.0449011, 38.9194703], [-77.0449066, 38.9194703], [-77.0449186, 38.9194854]], [[-77.0448697, 38.9194905], [-77.0448651, 38.9194566], [-77.0448596, 38.919448], [-77.0448503, 38.9194472], [-77.0448208, 38.9194948], [-77.0447941, 38.9194984], [-77.0447941, 38.9194934], [-77.0448107, 38.9194818], [-77.0448217, 38.9194545], [-77.0448079, 38.9194119], [-77.0448162, 38.9194119], [-77.0448319, 38.9194278], [-77.044842, 38.9194271], [-77.0448439, 38.9194184], [-77.0447995, 38.9193262], [-77.0447847, 38.9193139], [-77.0447801, 38.9192988], [-77.0447654, 38.9192959], [-77.0447525, 38.9193046], [-77.0447534, 38.9193233], [-77.0447451, 38.9193334], [-77.0447433, 38.9193457], [-77.0447257, 38.9193493], [-77.0446843, 38.9194127], [-77.0446898, 38.9194199], [-77.0447138, 38.9194192], [-77.0447138, 38.9194278], [-77.0446972, 38.9194473], [-77.044687, 38.919448], [-77.0446769, 38.9194408], [-77.0446649, 38.9194437], [-77.0446658, 38.9194668], [-77.044652, 38.919487], [-77.0446382, 38.9194891], [-77.0446299, 38.9194978], [-77.0446041, 38.9195389], [-77.0446013, 38.9195526], [-77.0446096, 38.9195605], [-77.0446299, 38.9195619], [-77.0447655, 38.9195345], [-77.0448273, 38.9195172], [-77.0448559, 38.9195027], [-77.0448697, 38.9194905]]]}}, {"type": "Feature", "properties": {"poly_type": "sidewalk", "area_m2": 599.82, "segment_id": null}, "geometry": {"type": "Polygon", "coordinates": [[[-77.0463384, 38.9195785], [-77.0463227, 38.9195994], [-77.0463144, 38.9196009], [-77.0462775, 38.9195375], [-77.0462019, 38.9195584], [-77.0461936, 38.9195577], [-77.0461825, 38.9195447], [-77.0461705, 38.9195195], [-77.0461714, 38.9195109], [-77.0462396, 38.9194871], [-77.0462424, 38.9194647], [-77.0462165, 38.9194092], [-77.0462064, 38.9194027], [-77.0462045, 38.9193955], [-77.0461953, 38.9193977], [-77.0461824, 38.9194143], [-77.0461354, 38.9194309], [-77.0461234, 38.9194287], [-77.0461123, 38.91941], [-77.0461058, 38.919392], [-77.0461086, 38.9193833], [-77.046151, 38.9193768], [-77.0461538, 38.9193891], [-77.0461621, 38.9193898], [-77.0461935, 38.9193739], [-77.0461796, 38.9193307], [-77.0461408, 38.9192572], [-77.0459988, 38.9192991], [-77.0459951, 38.9193084], [-77.0460052, 38.9193142], [-77.0460089, 38.9193257], [-77.0460172, 38.9193315], [-77.0460172, 38.9193365], [-77.0460062, 38.9193416], [-77.0459794, 38.9193495], [-77.0459683, 38.9193474], [-77.0459536, 38.9193351], [-77.0459619, 38.9193149], [-77.0459443, 38.9193157], [-77.0459213, 38.9193265], [-77.0458862, 38.9193337], [-77.0458383, 38.919351], [-77.0458097, 38.9193719], [-77.0457829, 38.9193755], [-77.0457082, 38.9193972], [-77.0456695, 38.9194022], [-77.0456086, 38.9194196], [-77.0455256, 38.9194484], [-77.0454435, 38.9194708], [-77.045414, 38.9194859], [-77.0453559, 38.9194975], [-77.0453375, 38.9195083], [-77.0453015, 38.9195134], [-77.0452729, 38.9195227], [-77.04526, 38.91953], [-77.0452591, 38.9195364], [-77.0452388, 38.9195357], [-77.0451973, 38.9195458], [-77.0451161, 38.9195725], [-77.0451143, 38.9195905], [-77.0451253, 38.9196006], [-77.0451641, 38.9196921], [-77.0451826, 38.9197159], [-77.0451854, 38.9197311], [-77.0452288, 38.9198139], [-77.0452445, 38.9198528], [-77.0452454, 38.9198708], [-77.0452141, 38.9198709], [-77.0452076, 38.9198593], [-77.0452057, 38.9198327], [-77.04519, 38.9198175], [-77.04519, 38.9198139], [-77.0451993, 38.9198125], [-77.0451993, 38.9198053], [-77.0451743, 38.9197873], [-77.0451651, 38.9197635], [-77.0451697, 38.9197484], [-77.0451577, 38.9197325], [-77.0451568, 38.9197188], [-77.0451475, 38.9197102], [-77.0451337, 38.9196763], [-77.0451208, 38.9196741], [-77.0451069, 38.9196381], [-77.0451097, 38.9196287], [-77.0450958, 38.9196201], [-77.045081, 38.9195769], [-77.0450921, 38.9195574], [-77.0451133, 38.9195437], [-77.0451271, 38.919543], [-77.0451271, 38.9195473], [-77.0451327, 38.9195473], [-77.0451982, 38.9195257], [-77.0452185, 38.9195249], [-77.0452673, 38.9195069], [-77.0452885, 38.9194946], [-77.0453411, 38.9194824], [-77.0453651, 38.9194679], [-77.0453919, 38.9194672], [-77.0454693, 38.9194427], [-77.0454841, 38.9194268], [-77.0455127, 38.9194318], [-77.0455145, 38.9194232], [-77.0455265, 38.9194203], [-77.0455339, 38.9194124], [-77.0455782, 38.9193987], [-77.0455948, 38.9193886], [-77.0456556, 38.9193756], [-77.0456796, 38.919377], [-77.0456898, 38.9193691], [-77.0457294, 38.9193712], [-77.0457377, 38.919359], [-77.045722, 38.9193554], [-77.0457285, 38.9193374], [-77.0457525, 38.9193345], [-77.0457562, 38.9193453], [-77.0457811, 38.9193388], [-77.0457848, 38.9193453], [-77.0457995, 38.9193467], [-77.0458134, 38.9193366], [-77.0458549, 38.9193279], [-77.0458715, 38.9193186], [-77.0459148, 38.9193056], [-77.0459351, 38.919289], [-77.0459831, 38.9192717], [-77.0459923, 38.919271], [-77.0459997, 38.9192789], [-77.0460163, 38.9192781], [-77.0460449, 38.9192652], [-77.0460882, 38.9192565], [-77.0461011, 38.9192385], [-77.0461205, 38.9192399], [-77.0461371, 38.9192305], [-77.0461546, 38.9192305], [-77.046174, 38.9192399], [-77.0461703, 38.9192543], [-77.0461768, 38.9192723], [-77.0461952, 38.9192766], [-77.0462054, 38.9192947], [-77.0462008, 38.9193127], [-77.0461916, 38.9193184], [-77.0461907, 38.9193264], [-77.0462146, 38.9193408], [-77.0462331, 38.9193422], [-77.0462377, 38.919371], [-77.0462304, 38.9193746], [-77.0462304, 38.9193797], [-77.0462387, 38.9193804], [-77.0462534, 38.9193912], [-77.0462931, 38.919469], [-77.0462932, 38.9194827], [-77.0463181, 38.9195065], [-77.0463218, 38.9195259], [-77.0463375, 38.919531], [-77.0463273, 38.9195584], [-77.0463273, 38.9195749], [-77.0463384, 38.9195785]]]}}, {"type": "Feature", "properties": {"poly_type": "sidewalk", "area_m2": 156.8, "segment_id": null}, "geometry": {"type": "Polygon", "coordinates": [[[-77.0445522, 38.9192564], [-77.0445255, 38.9193277], [-77.0445126, 38.91934], [-77.0444979, 38.9193458], [-77.0444933, 38.9193688], [-77.0444822, 38.9193782], [-77.0444748, 38.9193955], [-77.0444619, 38.919407], [-77.0444158, 38.9194777], [-77.0443992, 38.9194798], [-77.04439, 38.9194899], [-77.0443891, 38.9194964], [-77.0443983, 38.9195], [-77.0443983, 38.9195072], [-77.0443771, 38.9195375], [-77.0443799, 38.9195505], [-77.0443569, 38.9195512], [-77.0443476, 38.9195563], [-77.0443458, 38.9195635], [-77.0443264, 38.9195627], [-77.0443153, 38.9195563], [-77.044319, 38.919544], [-77.044331, 38.9195368], [-77.0443541, 38.9195044], [-77.0444176, 38.9194034], [-77.0444204, 38.9193912], [-77.0443992, 38.919397], [-77.0443937, 38.9193941], [-77.0443946, 38.9193876], [-77.0444019, 38.9193833], [-77.044425, 38.9193825], [-77.0444324, 38.9193775], [-77.0444462, 38.9193379], [-77.0444554, 38.9193249], [-77.0444729, 38.9193148], [-77.0444941, 38.9192802], [-77.0444969, 38.919265], [-77.0445116, 38.9192542], [-77.0445255, 38.9192304], [-77.0445504, 38.9192362], [-77.0445522, 38.9192564]]]}}, {"type": "Feature", "properties": {"poly_type": "sidewalk", "area_m2": 0.0, "segment_id": null}, "geometry": {"type": "Polygon", "coordinates": [[[-77.0461019, 38.9190929], [-77.0461029, 38.9190922], [-77.0461019, 38.9190922], [-77.0461019, 38.9190929]]]}}, {"type": "Feature", "properties": {"poly_type": "sidewalk", "area_m2": 347.78, "segment_id": null}, "geometry": {"type": "Polygon", "coordinates": [[[-77.0468196, 38.9190299], [-77.0468159, 38.9190429], [-77.046803, 38.9190494], [-77.0467966, 38.9190602], [-77.0467615, 38.9190768], [-77.046732, 38.9190811], [-77.0466914, 38.9190956], [-77.046661, 38.9190963], [-77.0466508, 38.9191071], [-77.0465973, 38.9191244], [-77.0465438, 38.9191266], [-77.0465411, 38.9191338], [-77.0465226, 38.9191439], [-77.046447, 38.9191555], [-77.0464396, 38.9191699], [-77.0464055, 38.9191728], [-77.0463123, 38.9192038], [-77.0463318, 38.9192578], [-77.0463705, 38.9193198], [-77.046389, 38.9193659], [-77.0464019, 38.9193861], [-77.0464139, 38.9193947], [-77.0464269, 38.919443], [-77.0464389, 38.9194574], [-77.0464546, 38.9194971], [-77.0464712, 38.9195201], [-77.0465377, 38.919657], [-77.0465553, 38.9196786], [-77.0465747, 38.9197356], [-77.0465876, 38.9197514], [-77.046619, 38.9198155], [-77.0466412, 38.9198451], [-77.0466458, 38.9198703], [-77.0466218, 38.9198703], [-77.046619, 38.9198573], [-77.0466015, 38.9198451], [-77.0465775, 38.919817], [-77.0465757, 38.9198076], [-77.046583, 38.9197975], [-77.0465784, 38.9197795], [-77.0465747, 38.9197745], [-77.0465609, 38.9197723], [-77.046559, 38.9197586], [-77.0465452, 38.9197493], [-77.0465313, 38.9196866], [-77.0465027, 38.919652], [-77.0464944, 38.9196239], [-77.0464814, 38.9196095], [-77.0464713, 38.919567], [-77.0464565, 38.9195547], [-77.0464482, 38.9195266], [-77.0464408, 38.9195165], [-77.0464288, 38.9195172], [-77.0464214, 38.9195086], [-77.0464186, 38.919492], [-77.0464251, 38.9194834], [-77.0464057, 38.9194762], [-77.0463909, 38.9194538], [-77.04639, 38.9194416], [-77.0464029, 38.9194394], [-77.046402, 38.9194315], [-77.0463918, 38.9194193], [-77.0463743, 38.9194149], [-77.0463724, 38.9194063], [-77.0463789, 38.9193919], [-77.0463669, 38.9193674], [-77.0463558, 38.9193638], [-77.0463595, 38.9193515], [-77.0463493, 38.9193422], [-77.0463493, 38.9193299], [-77.0463373, 38.9193061], [-77.0463198, 38.9192809], [-77.0463105, 38.9192809], [-77.0463041, 38.9192759], [-77.046293, 38.9192535], [-77.0462912, 38.9192449], [-77.0463041, 38.9192391], [-77.0463004, 38.919224], [-77.0462773, 38.9192161], [-77.0462745, 38.9191995], [-77.0462847, 38.9191829], [-77.0463188, 38.9191721], [-77.0463206, 38.9191656], [-77.0463797, 38.919149], [-77.0463852, 38.919149], [-77.046388, 38.9191605], [-77.0464, 38.9191598], [-77.046423, 38.9191497], [-77.0464276, 38.9191346], [-77.0464562, 38.9191288], [-77.0464922, 38.9191317], [-77.0464977, 38.9191173], [-77.0465152, 38.9191122], [-77.0465281, 38.9191028], [-77.0465798, 38.919105], [-77.0466056, 38.9190869], [-77.0466333, 38.9190754], [-77.0466702, 38.9190732], [-77.0466803, 38.9190581], [-77.0467043, 38.9190501], [-77.0467292, 38.9190523], [-77.0467495, 38.9190595], [-77.0467827, 38.9190371], [-77.0468196, 38.9190299]]]}}, {"type": "Feature", "properties": {"poly_type": "sidewalk", "area_m2": 0.01, "segment_id": null}, "geometry": {"type": "Polygon", "coordinates": [[[-77.0447144, 38.9190062], [-77.0447154, 38.9190048], [-77.0447144, 38.9190048], [-77.0447144, 38.9190062]]]}}, {"type": "Feature", "properties": {"poly_type": "sidewalk", "area_m2": 0.0, "segment_id": null}, "geometry": {"type": "Polygon", "coordinates": [[[-77.0447135, 38.9190048], [-77.0447144, 38.9190041], [-77.0447135, 38.9190041], [-77.0447135, 38.9190048]]]}}, {"type": "Feature", "properties": {"poly_type": "sidewalk", "area_m2": 0.02, "segment_id": null}, "geometry": {"type": "Polygon", "coordinates": [[[-77.0447135, 38.9189954], [-77.0447154, 38.9189969], [-77.0447154, 38.9189947], [-77.0447135, 38.9189954]]]}}, {"type": "Feature", "properties": {"poly_type": "sidewalk", "area_m2": 88.32, "segment_id": null}, "geometry": {"type": "Polygon", "coordinates": [[[-77.0447126, 38.9189976], [-77.0446932, 38.9190365], [-77.0446545, 38.9190927], [-77.0446509, 38.9191093], [-77.044626, 38.9191223], [-77.044614, 38.919136], [-77.0446084, 38.9191526], [-77.0445835, 38.9191504], [-77.0445974, 38.9191202], [-77.0446103, 38.9191065], [-77.0446619, 38.91902], [-77.0446563, 38.9190106], [-77.0446351, 38.9190099], [-77.044637, 38.9190041], [-77.0446582, 38.9189919], [-77.0446572, 38.9189782], [-77.0446369, 38.9189335], [-77.0446803, 38.9189255], [-77.0446895, 38.9189558], [-77.0447126, 38.9189976]]]}}, {"type": "Feature", "properties": {"poly_type": "sidewalk", "area_m2": 0.0, "segment_id": null}, "geometry": {"type": "Polygon", "coordinates": [[[-77.0446784, 38.9189234], [-77.0446793, 38.9189227], [-77.0446784, 38.9189227], [-77.0446784, 38.9189234]]]}}, {"type": "Feature", "properties": {"poly_type": "sidewalk", "area_m2": 0.0, "segment_id": null}, "geometry": {"type": "Polygon", "coordinates": [[[-77.0447512, 38.9188477], [-77.0447522, 38.918847], [-77.0447512, 38.918847], [-77.0447512, 38.9188477]]]}}, {"type": "Feature", "properties": {"poly_type": "sidewalk", "area_m2": 179.56, "segment_id": null}, "geometry": {"type": "Polygon", "coordinates": [[[-77.044623, 38.9188002], [-77.0446341, 38.9188376], [-77.0446249, 38.9188391], [-77.0446258, 38.9188513], [-77.0446156, 38.9188571], [-77.0446018, 38.9188571], [-77.0445806, 38.9188283], [-77.0445787, 38.9188146], [-77.0445704, 38.9188117], [-77.044409, 38.9188111], [-77.0443979, 38.9188168], [-77.0443748, 38.9188168], [-77.0443481, 38.9188111], [-77.0443066, 38.9188111], [-77.0442955, 38.9188392], [-77.044302, 38.9188522], [-77.044302, 38.9188695], [-77.0442965, 38.9188774], [-77.04429, 38.9188774], [-77.0442881, 38.9188407], [-77.0442789, 38.918814], [-77.0440464, 38.9188105], [-77.0440464, 38.9187824], [-77.0440889, 38.9187852], [-77.0440907, 38.9187953], [-77.0441184, 38.918796], [-77.0441534, 38.9187802], [-77.0442115, 38.918783], [-77.0442162, 38.9187946], [-77.0442272, 38.9187938], [-77.0442254, 38.9187823], [-77.0442309, 38.9187809], [-77.0443185, 38.9187794], [-77.0443296, 38.918783], [-77.0443296, 38.9187916], [-77.0443416, 38.9187916], [-77.044349, 38.9187844], [-77.0443822, 38.9187815], [-77.0444403, 38.9187822], [-77.0444542, 38.9187937], [-77.0444874, 38.918793], [-77.0444957, 38.9187829], [-77.0445049, 38.9187808], [-77.0445778, 38.9187807], [-77.0446055, 38.9187886], [-77.044623, 38.9188002]]]}}, {"type": "Feature", "properties": {"poly_type": "sidewalk", "area_m2": 0.0, "segment_id": null}, "geometry": {"type": "Polygon", "coordinates": [[[-77.0458979, 38.918768], [-77.0458988, 38.9187672], [-77.0458979, 38.9187672], [-77.0458979, 38.918768]]]}}, {"type": "Feature", "properties": {"poly_type": "sidewalk", "area_m2": 0.0, "segment_id": null}, "geometry": {"type": "Polygon", "coordinates": [[[-77.0458969, 38.9187672], [-77.0458979, 38.9187665], [-77.0458969, 38.9187665], [-77.0458969, 38.9187672]]]}}, {"type": "Feature", "properties": {"poly_type": "sidewalk", "area_m2": 322.03, "segment_id": null}, "geometry": {"type": "Polygon", "coordinates": [[[-77.046113, 38.9191311], [-77.0461084, 38.9191412], [-77.0460955, 38.9191484], [-77.0460854, 38.9191491], [-77.0460761, 38.9191441], [-77.0460595, 38.9191477], [-77.0460595, 38.9191607], [-77.046054, 38.9191643], [-77.0459968, 38.9191794], [-77.0459756, 38.9191917], [-77.0459581, 38.9191859], [-77.0459479, 38.9191939], [-77.0459267, 38.9191953], [-77.0459203, 38.9192068], [-77.0458419, 38.9192285], [-77.0458336, 38.9192364], [-77.0458161, 38.9192372], [-77.0458096, 38.9192285], [-77.0458004, 38.9192285], [-77.0457773, 38.9192364], [-77.0457746, 38.9192487], [-77.0457543, 38.9192574], [-77.0457257, 38.919261], [-77.0457109, 38.9192696], [-77.0456786, 38.919274], [-77.0456694, 38.9192804], [-77.0456491, 38.9192776], [-77.045639, 38.9192898], [-77.0456196, 38.9192812], [-77.0456178, 38.9193006], [-77.0455633, 38.919318], [-77.0455384, 38.9193223], [-77.0455135, 38.9193209], [-77.0454868, 38.9193367], [-77.0454813, 38.9193367], [-77.0454794, 38.919331], [-77.0454582, 38.9193187], [-77.0454591, 38.9193137], [-77.045484, 38.919305], [-77.0455006, 38.9192928], [-77.04552, 38.9192942], [-77.045531, 38.9192884], [-77.0455513, 38.919287], [-77.0455744, 38.919274], [-77.0456122, 38.9192682], [-77.0456417, 38.919256], [-77.0456555, 38.9192444], [-77.0457044, 38.9192278], [-77.0457127, 38.9192213], [-77.0457312, 38.9192257], [-77.0457589, 38.919222], [-77.0458566, 38.9191939], [-77.0458714, 38.9191824], [-77.0458944, 38.9191802], [-77.0459193, 38.9191694], [-77.0459525, 38.9191643], [-77.0460771, 38.9191232], [-77.0460632, 38.9190893], [-77.046029, 38.9190576], [-77.0460272, 38.9190374], [-77.046005, 38.9189719], [-77.0459828, 38.9189445], [-77.0459745, 38.9189106], [-77.0459523, 38.9188667], [-77.0459422, 38.918853], [-77.0459237, 38.9188429], [-77.0459182, 38.918822], [-77.0459025, 38.9188105], [-77.045908, 38.9187831], [-77.0459006, 38.9187716], [-77.0459394, 38.9187679], [-77.0459403, 38.9187903], [-77.0459505, 38.9188126], [-77.0459625, 38.9188299], [-77.0459772, 38.91884], [-77.0459902, 38.9188789], [-77.0459865, 38.9188926], [-77.045992, 38.9189056], [-77.0460068, 38.9189048], [-77.046016, 38.9189164], [-77.0460354, 38.918956], [-77.0460354, 38.9189654], [-77.0460271, 38.9189683], [-77.0460299, 38.918982], [-77.0460493, 38.9189906], [-77.0460558, 38.9190165], [-77.0460659, 38.9190266], [-77.0460705, 38.9190482], [-77.0460798, 38.9190583], [-77.0460761, 38.9190727], [-77.0460853, 38.9190915], [-77.0460982, 38.9190886], [-77.046113, 38.9191311]]]}}, {"type": "Feature", "properties": {"poly_type": "sidewalk", "area_m2": 15.27, "segment_id": null}, "geometry": {"type": "Polygon", "coordinates": [[[-77.0459052, 38.918706], [-77.0458951, 38.9187146], [-77.0458683, 38.9187219], [-77.0458544, 38.9186858], [-77.0458729, 38.9186757], [-77.0458913, 38.918675], [-77.0459052, 38.918706]]]}}, {"type": "Feature", "properties": {"poly_type": "sidewalk", "area_m2": 0.01, "segment_id": null}, "geometry": {"type": "Polygon", "coordinates": [[[-77.0458267, 38.9186383], [-77.0458277, 38.9186368], [-77.0458267, 38.9186368], [-77.0458267, 38.9186383]]]}}, {"type": "Feature", "properties": {"poly_type": "sidewalk", "area_m2": 373.08, "segment_id": null}, "geometry": {"type": "Polygon", "coordinates": [[[-77.0468426, 38.9188944], [-77.0468804, 38.9188886], [-77.0468804, 38.9189131], [-77.0468472, 38.918906], [-77.046814, 38.9189298], [-77.04679, 38.9189319], [-77.0467393, 38.9189557], [-77.0467024, 38.9189629], [-77.0464838, 38.9190315], [-77.0464774, 38.9190315], [-77.0464737, 38.9190236], [-77.0464663, 38.9190236], [-77.0464395, 38.9190337], [-77.0464386, 38.9190466], [-77.0463999, 38.9190589], [-77.0463851, 38.9190582], [-77.0463833, 38.9190524], [-77.046363, 38.9190553], [-77.0463584, 38.9190582], [-77.0463593, 38.9190697], [-77.046304, 38.9190907], [-77.0462837, 38.9190914], [-77.0462495, 38.9191008], [-77.0462256, 38.9190993], [-77.0462145, 38.9190929], [-77.046196, 38.9190655], [-77.0462025, 38.9190554], [-77.0461997, 38.9190431], [-77.046172, 38.9190208], [-77.0461683, 38.9190006], [-77.0461489, 38.9189725], [-77.0461434, 38.9189495], [-77.0461535, 38.9189459], [-77.0461507, 38.9189307], [-77.046148, 38.9189271], [-77.0461258, 38.9189286], [-77.046099, 38.9188774], [-77.0461018, 38.9188666], [-77.0461092, 38.918863], [-77.0461073, 38.9188479], [-77.0460861, 38.9188421], [-77.046075, 38.918814], [-77.0460593, 38.9187967], [-77.0460611, 38.9187816], [-77.0460676, 38.9187787], [-77.0460621, 38.9187593], [-77.0460408, 38.9187607], [-77.0460353, 38.9187549], [-77.0460104, 38.9187052], [-77.0460122, 38.9186973], [-77.0460196, 38.9186944], [-77.0460186, 38.9186793], [-77.0459928, 38.918667], [-77.0459836, 38.9186483], [-77.0459873, 38.9186324], [-77.0459965, 38.918626], [-77.046014, 38.9186231], [-77.046026, 38.9186447], [-77.0460481, 38.9186396], [-77.046062, 38.9186439], [-77.0460601, 38.9186562], [-77.0460371, 38.9186605], [-77.0460371, 38.9186728], [-77.0461036, 38.9188097], [-77.0461332, 38.9188587], [-77.046147, 38.9188709], [-77.0461461, 38.9188846], [-77.0461719, 38.9189264], [-77.0461812, 38.9189624], [-77.0462126, 38.9190201], [-77.0462237, 38.919028], [-77.0462246, 38.919041], [-77.0462412, 38.9190734], [-77.0462671, 38.9190705], [-77.0463491, 38.9190438], [-77.0463519, 38.9190344], [-77.0463436, 38.9189977], [-77.0463519, 38.9189984], [-77.0463676, 38.9190121], [-77.0463722, 38.919033], [-77.0463842, 38.9190337], [-77.0466138, 38.918963], [-77.0466129, 38.9189493], [-77.046588, 38.9189154], [-77.0465889, 38.9189075], [-77.0466009, 38.918901], [-77.0466332, 38.9188988], [-77.0466258, 38.918919], [-77.0466387, 38.9189493], [-77.046647, 38.91895], [-77.0467485, 38.9189161], [-77.0467679, 38.9189053], [-77.0468177, 38.9188937], [-77.0468186, 38.9188728], [-77.0468333, 38.9188598], [-77.0468601, 38.9188613], [-77.0468582, 38.9188685], [-77.0468463, 38.9188735], [-77.0468426, 38.9188944]]]}}, {"type": "Feature", "properties": {"poly_type": "sidewalk", "area_m2": 458.44, "segment_id": null}, "geometry": {"type": "Polygon", "coordinates": [[[-77.0453899, 38.9193598], [-77.0453678, 38.9193634], [-77.0453614, 38.91938], [-77.0452682, 38.9194096], [-77.0452571, 38.9194096], [-77.0452525, 38.9194024], [-77.045235, 38.9194053], [-77.0452248, 38.9194103], [-77.0452212, 38.9194233], [-77.0451852, 38.9194349], [-77.0451529, 38.9194421], [-77.045128, 38.9194399], [-77.045092, 38.9194486], [-77.0450911, 38.9194608], [-77.0450708, 38.9194673], [-77.0450358, 38.9194659], [-77.0450145, 38.9194529], [-77.0449988, 38.919432], [-77.0449979, 38.9194227], [-77.0450145, 38.9194176], [-77.0450099, 38.9194018], [-77.0450071, 38.9193982], [-77.0449878, 38.9193989], [-77.0449822, 38.9193953], [-77.0449573, 38.919342], [-77.0449573, 38.9193355], [-77.0449683, 38.9193312], [-77.0449665, 38.9193204], [-77.0449591, 38.9193139], [-77.0449425, 38.9193132], [-77.0449102, 38.9192519], [-77.0449111, 38.9192433], [-77.0449258, 38.9192418], [-77.044924, 38.9192288], [-77.0449166, 38.9192231], [-77.0449018, 38.9192245], [-77.0448825, 38.9191943], [-77.0448751, 38.9191712], [-77.044864, 38.9191691], [-77.0448741, 38.9191453], [-77.0448714, 38.9191366], [-77.0448557, 38.919128], [-77.0448455, 38.9191107], [-77.0448464, 38.9191006], [-77.0448962, 38.9190264], [-77.0449017, 38.9190047], [-77.0449137, 38.9189968], [-77.0449201, 38.9189759], [-77.0449266, 38.918973], [-77.0449589, 38.9189247], [-77.0449754, 38.9188923], [-77.0450132, 38.9188389], [-77.0450197, 38.9188209], [-77.0450565, 38.9187733], [-77.0450823, 38.9187222], [-77.0451459, 38.9186227], [-77.0451552, 38.9186191], [-77.0451625, 38.9186075], [-77.0451708, 38.9186083], [-77.045181, 38.9186169], [-77.0451819, 38.9186299], [-77.045098, 38.9187603], [-77.0450916, 38.9187892], [-77.0451018, 38.9188043], [-77.0450778, 38.9188367], [-77.0450769, 38.9188483], [-77.0450686, 38.918854], [-77.0450529, 38.9188504], [-77.04504, 38.9188533], [-77.0450077, 38.9189096], [-77.0450087, 38.9189175], [-77.0450216, 38.9189247], [-77.0450207, 38.9189341], [-77.0450124, 38.9189369], [-77.045005, 38.9189261], [-77.0449976, 38.9189261], [-77.0449921, 38.9189319], [-77.0449875, 38.9189449], [-77.0449386, 38.919009], [-77.0449128, 38.9190559], [-77.0449027, 38.9190645], [-77.0448852, 38.919097], [-77.0448852, 38.9191056], [-77.0449461, 38.9192267], [-77.0449784, 38.9192295], [-77.0449904, 38.9192425], [-77.0450052, 38.9192843], [-77.0449868, 38.9192915], [-77.0449831, 38.9193009], [-77.0450496, 38.91944], [-77.0450865, 38.9194327], [-77.0453844, 38.9193368], [-77.0453899, 38.9193368], [-77.0453899, 38.9193598]]]}}, {"type": "Feature", "properties": {"poly_type": "sidewalk", "area_m2": 251.23, "segment_id": null}, "geometry": {"type": "Polygon", "coordinates": [[[-77.0449642, 38.9185968], [-77.0449651, 38.9186062], [-77.0449439, 38.9186602], [-77.0449181, 38.9186847], [-77.0449144, 38.9187042], [-77.0449034, 38.9187179], [-77.044861, 38.9187431], [-77.0448573, 38.9187547], [-77.0448656, 38.9187576], [-77.0448637, 38.9187691], [-77.0448342, 38.9188159], [-77.0448343, 38.9188239], [-77.0448223, 38.9188296], [-77.0447955, 38.9188693], [-77.0447697, 38.9188686], [-77.0447466, 38.918834], [-77.0447291, 38.9187915], [-77.044718, 38.9187468], [-77.0447069, 38.9187338], [-77.0447078, 38.9187144], [-77.0447521, 38.918687], [-77.0447548, 38.9186776], [-77.0447641, 38.9186776], [-77.0448056, 38.9186552], [-77.0448157, 38.9186538], [-77.0448249, 38.9186624], [-77.0448323, 38.9186624], [-77.0448397, 38.9186509], [-77.0448535, 38.9186487], [-77.0448461, 38.9186329], [-77.0449107, 38.9185983], [-77.0449162, 38.9185911], [-77.0449494, 38.9185853], [-77.0449642, 38.9185968]], [[-77.04486, 38.9186689], [-77.0448489, 38.9186704], [-77.0448056, 38.9186913], [-77.0447521, 38.9187244], [-77.0447512, 38.9187446], [-77.044778, 38.9188001], [-77.0447918, 38.9187958], [-77.0448231, 38.9187554], [-77.0448287, 38.9187338], [-77.0448453, 38.9187136], [-77.0448637, 38.9186783], [-77.04486, 38.9186689]]]}}, {"type": "Feature", "properties": {"poly_type": "sidewalk", "area_m2": 4.03, "segment_id": null}, "geometry": {"type": "Polygon", "coordinates": [[[-77.0445629, 38.9186323], [-77.0446284, 38.9185905], [-77.0446348, 38.9185854], [-77.044633, 38.9185818], [-77.0445574, 38.9186301], [-77.0445629, 38.9186323]]]}}, {"type": "Feature", "properties": {"poly_type": "sidewalk", "area_m2": 35.13, "segment_id": null}, "geometry": {"type": "Polygon", "coordinates": [[[-77.0452621, 38.918498], [-77.0452538, 38.9185124], [-77.0452446, 38.9185427], [-77.0452289, 38.9185542], [-77.0452013, 38.918601], [-77.0451727, 38.9186003], [-77.0451754, 38.9185838], [-77.0451948, 38.9185564], [-77.0451948, 38.9185434], [-77.0452012, 38.9185434], [-77.0452114, 38.9185261], [-77.0452234, 38.9185225], [-77.0452252, 38.9185009], [-77.0452381, 38.9184944], [-77.0452621, 38.918498]]]}}, {"type": "Feature", "properties": {"poly_type": "sidewalk", "area_m2": 89.98, "segment_id": null}, "geometry": {"type": "Polygon", "coordinates": [[[-77.0458627, 38.9186202], [-77.0458443, 38.9186311], [-77.0458231, 38.9186339], [-77.0458018, 38.9185842], [-77.045788, 38.9185641], [-77.0457852, 38.9185453], [-77.0457722, 38.9185324], [-77.0457649, 38.91851], [-77.0457529, 38.9184963], [-77.0457298, 38.9184365], [-77.0457159, 38.9184207], [-77.0457113, 38.9184027], [-77.0456993, 38.9183875], [-77.0457011, 38.9183825], [-77.0457279, 38.9183782], [-77.045726, 38.918389], [-77.0457325, 38.9184041], [-77.0457519, 38.9184048], [-77.0457583, 38.9184113], [-77.0457796, 38.9184574], [-77.0457796, 38.9184639], [-77.0457694, 38.9184675], [-77.0457731, 38.9184819], [-77.0457768, 38.918487], [-77.0457907, 38.9184877], [-77.0457971, 38.9184934], [-77.0458211, 38.9185374], [-77.0458211, 38.9185431], [-77.0458101, 38.9185468], [-77.045811, 38.9185568], [-77.0458221, 38.9185749], [-77.0458369, 38.9185756], [-77.0458627, 38.9186202]]]}}, {"type": "Feature", "properties": {"poly_type": "sidewalk", "area_m2": 0.03, "segment_id": null}, "geometry": {"type": "Polygon", "coordinates": [[[-77.045679, 38.9183558], [-77.0456808, 38.9183544], [-77.045679, 38.9183529], [-77.045679, 38.9183558]]]}}, {"type": "Feature", "properties": {"poly_type": "sidewalk", "area_m2": 0.01, "segment_id": null}, "geometry": {"type": "Polygon", "coordinates": [[[-77.0457122, 38.9183219], [-77.0457131, 38.9183191], [-77.0457121, 38.9183191], [-77.0457122, 38.9183219]]]}}, {"type": "Feature", "properties": {"poly_type": "sidewalk", "area_m2": 303.95, "segment_id": null}, "geometry": {"type": "Polygon", "coordinates": [[[-77.0445583, 38.9186698], [-77.0445353, 38.9186943], [-77.0445104, 38.9187008], [-77.0443785, 38.9187037], [-77.0443517, 38.9187023], [-77.0443028, 38.91869], [-77.044301, 38.9186987], [-77.0442908, 38.9187023], [-77.0442346, 38.918703], [-77.044217, 38.9186994], [-77.044217, 38.9186886], [-77.0442023, 38.9186879], [-77.044194, 38.9186994], [-77.0441847, 38.9187016], [-77.0441515, 38.9187009], [-77.044086, 38.9186908], [-77.0440694, 38.9186988], [-77.0440464, 38.9187024], [-77.0440463, 38.9186714], [-77.0441072, 38.918667], [-77.0442391, 38.9186692], [-77.0442493, 38.9186555], [-77.0442677, 38.9186569], [-77.044276, 38.918667], [-77.0444836, 38.9186691], [-77.0445002, 38.9186654], [-77.0445067, 38.9186597], [-77.0445113, 38.9186409], [-77.0445002, 38.9186309], [-77.0444928, 38.9185984], [-77.0444642, 38.9185393], [-77.0444346, 38.9184572], [-77.0443801, 38.9183513], [-77.044369, 38.9183102], [-77.0443874, 38.9183016], [-77.0444151, 38.9183124], [-77.0444188, 38.9183304], [-77.0444114, 38.9183304], [-77.0444114, 38.9183361], [-77.0444253, 38.918339], [-77.0444465, 38.9183873], [-77.0444465, 38.9183959], [-77.0444382, 38.918401], [-77.0444392, 38.9184089], [-77.0444456, 38.9184197], [-77.0444604, 38.9184226], [-77.0444715, 38.9184449], [-77.0444789, 38.918463], [-77.0444789, 38.9184694], [-77.0444687, 38.918473], [-77.0444724, 38.9184882], [-77.044477, 38.9184939], [-77.0444927, 38.9184968], [-77.0445066, 38.9185235], [-77.044514, 38.9185487], [-77.0445038, 38.9185516], [-77.0445048, 38.918561], [-77.0445103, 38.9185718], [-77.0445241, 38.9185732], [-77.0445324, 38.9185847], [-77.0445482, 38.9186179], [-77.0445583, 38.9186698]]]}}, {"type": "Feature", "properties": {"poly_type": "sidewalk", "area_m2": 149.44, "segment_id": null}, "geometry": {"type": "Polygon", "coordinates": [[[-77.0457131, 38.9183342], [-77.045702, 38.9183436], [-77.0456771, 38.9183465], [-77.0456605, 38.9183076], [-77.0456411, 38.9183054], [-77.0454622, 38.9183602], [-77.0454483, 38.9183711], [-77.0454013, 38.9183804], [-77.0453736, 38.9183949], [-77.0453229, 38.9184006], [-77.0452925, 38.9184554], [-77.0452851, 38.9184562], [-77.0452639, 38.9184468], [-77.0452768, 38.9184165], [-77.0452842, 38.9184144], [-77.0452962, 38.9183949], [-77.0453229, 38.918374], [-77.045381, 38.9183581], [-77.0453921, 38.9183466], [-77.045416, 38.918343], [-77.0454465, 38.9183314], [-77.0454649, 38.9183292], [-77.0454695, 38.9183379], [-77.0454806, 38.9183379], [-77.0454852, 38.9183328], [-77.0455055, 38.9183278], [-77.0455092, 38.9183148], [-77.0455452, 38.9182989], [-77.0455857, 38.9182881], [-77.0456014, 38.9182787], [-77.0456291, 38.918278], [-77.0456531, 38.9182715], [-77.045678, 38.9182751], [-77.0456946, 38.9182953], [-77.0456946, 38.918309], [-77.0457075, 38.9183162], [-77.0457131, 38.9183342]]]}}, {"type": "Feature", "properties": {"poly_type": "sidewalk", "area_m2": 0.01, "segment_id": null}, "geometry": {"type": "Polygon", "coordinates": [[[-77.0458292, 38.9182124], [-77.045832, 38.9182116], [-77.0458292, 38.9182116], [-77.0458292, 38.9182124]]]}}, {"type": "Feature", "properties": {"poly_type": "sidewalk", "area_m2": 6.8, "segment_id": null}, "geometry": {"type": "Polygon", "coordinates": [[[-77.0456272, 38.918175], [-77.0456254, 38.9181872], [-77.045606, 38.9182067], [-77.0455977, 38.918211], [-77.0455811, 38.9182089], [-77.0456023, 38.9181851], [-77.0456272, 38.918175]]]}}, {"type": "Feature", "properties": {"poly_type": "sidewalk", "area_m2": 0.0, "segment_id": null}, "geometry": {"type": "Polygon", "coordinates": [[[-77.0452923, 38.9180929], [-77.0452932, 38.9180922], [-77.0452923, 38.9180922], [-77.0452923, 38.9180929]]]}}, {"type": "Feature", "properties": {"poly_type": "sidewalk", "area_m2": 436.73, "segment_id": null}, "geometry": {"type": "Polygon", "coordinates": [[[-77.0452895, 38.9180994], [-77.0452748, 38.9181203], [-77.04526, 38.9181232], [-77.0452609, 38.9181398], [-77.0452536, 38.9181556], [-77.0451872, 38.9182667], [-77.0451697, 38.9182768], [-77.0451485, 38.9183258], [-77.0451374, 38.9183315], [-77.0450969, 38.9183979], [-77.0450102, 38.9184447], [-77.0449936, 38.9184613], [-77.0449853, 38.9184613], [-77.0449466, 38.9184808], [-77.0449115, 38.918483], [-77.0449014, 38.9184916], [-77.0448968, 38.9185046], [-77.0448507, 38.9185334], [-77.0448304, 38.9185421], [-77.0448239, 38.9185421], [-77.0448156, 38.9185342], [-77.0447935, 38.9185407], [-77.0447732, 38.9185529], [-77.0447834, 38.9185681], [-77.0447345, 38.9185947], [-77.0446994, 38.918607], [-77.0446745, 38.9186063], [-77.0446588, 38.9185984], [-77.0446339, 38.9185703], [-77.0445979, 38.9184888], [-77.0445988, 38.9184816], [-77.0446108, 38.9184752], [-77.044608, 38.9184586], [-77.0445905, 38.9184564], [-77.0446015, 38.918442], [-77.0446209, 38.9184341], [-77.0446357, 38.9184564], [-77.0446523, 38.9185011], [-77.0446791, 38.9185205], [-77.0446837, 38.9185472], [-77.044704, 38.9185594], [-77.0447132, 38.9185594], [-77.0447271, 38.9185472], [-77.0447261, 38.9185356], [-77.044716, 38.9185277], [-77.0447178, 38.9185205], [-77.0447354, 38.9185191], [-77.0447464, 38.9185083], [-77.0447584, 38.9185054], [-77.0448543, 38.9184491], [-77.0448829, 38.9184405], [-77.044905, 38.9184433], [-77.044918, 38.9184397], [-77.0449115, 38.9184181], [-77.0449465, 38.9183972], [-77.0449687, 38.9183965], [-77.0449705, 38.9184174], [-77.0449844, 38.9184202], [-77.0449908, 38.9184174], [-77.0449927, 38.9184044], [-77.0450028, 38.9183957], [-77.0450591, 38.9183921], [-77.0450784, 38.9183748], [-77.0450922, 38.9183409], [-77.0451604, 38.9182371], [-77.0451595, 38.9182119], [-77.0451466, 38.9182069], [-77.0451466, 38.9182018], [-77.0451549, 38.9182011], [-77.045165, 38.9181924], [-77.045177, 38.9181715], [-77.0451936, 38.9181701], [-77.0452121, 38.9181585], [-77.0452591, 38.9180807], [-77.0452794, 38.9180865], [-77.0452895, 38.9180994]]]}}, {"type": "Feature", "properties": {"poly_type": "sidewalk", "area_m2": 0.0, "segment_id": null}, "geometry": {"type": "Polygon", "coordinates": [[[-77.0459408, 38.9180617], [-77.0459417, 38.918061], [-77.0459408, 38.918061], [-77.0459408, 38.9180617]]]}}, {"type": "Feature", "properties": {"poly_type": "sidewalk", "area_m2": 335.25, "segment_id": null}, "geometry": {"type": "Polygon", "coordinates": [[[-77.0464251, 38.9180629], [-77.046307, 38.9180997], [-77.046283, 38.9181127], [-77.0462637, 38.9181171], [-77.0462249, 38.9181394], [-77.0461899, 38.9181438], [-77.0461844, 38.9181531], [-77.0462259, 38.9181574], [-77.0462277, 38.9181654], [-77.0462203, 38.9181711], [-77.0461622, 38.9181683], [-77.0461613, 38.9181632], [-77.0461761, 38.9181582], [-77.0461779, 38.9181524], [-77.0461613, 38.9181531], [-77.0461502, 38.9181596], [-77.0461041, 38.9181632], [-77.0460838, 38.9181697], [-77.0460774, 38.9181856], [-77.0460534, 38.9181834], [-77.0460303, 38.9181878], [-77.0458265, 38.9182484], [-77.0458302, 38.9182642], [-77.0459096, 38.9184148], [-77.0459207, 38.9184444], [-77.0459364, 38.9184588], [-77.0459466, 38.9184883], [-77.0459623, 38.9185092], [-77.0459697, 38.9185481], [-77.0459863, 38.9185741], [-77.0459725, 38.9185806], [-77.0459595, 38.9185784], [-77.0459365, 38.9185575], [-77.0459272, 38.9185381], [-77.0459281, 38.918528], [-77.0459383, 38.9185236], [-77.0459383, 38.9185121], [-77.04593, 38.9185049], [-77.0459152, 38.9185064], [-77.0459106, 38.9185028], [-77.0458847, 38.9184545], [-77.0458829, 38.9184386], [-77.0458903, 38.9184386], [-77.0458893, 38.9184257], [-77.0458681, 38.9184228], [-77.045846, 38.918386], [-77.0458423, 38.918368], [-77.0458533, 38.9183622], [-77.0458533, 38.9183565], [-77.0458386, 38.9183536], [-77.0458247, 38.9183392], [-77.0458109, 38.9183133], [-77.0457988, 38.9182823], [-77.0457998, 38.9182707], [-77.0457831, 38.9182477], [-77.0457887, 38.9182318], [-77.04588, 38.9181958], [-77.0458929, 38.9181986], [-77.0458938, 38.9182073], [-77.0459076, 38.9182058], [-77.0459261, 38.9181842], [-77.0459648, 38.9181705], [-77.0459833, 38.9181691], [-77.045986, 38.9181755], [-77.0460091, 38.9181748], [-77.0460239, 38.9181683], [-77.0460229, 38.9181546], [-77.0460294, 38.918151], [-77.0461022, 38.9181315], [-77.0461345, 38.9181272], [-77.0461825, 38.9181084], [-77.0462535, 38.9180911], [-77.0462747, 38.9180781], [-77.0463144, 38.9180774], [-77.0463485, 38.9180543], [-77.0463965, 38.9180377], [-77.0464112, 38.9180356], [-77.0464195, 38.9180413], [-77.0464251, 38.9180629]]]}}, {"type": "Feature", "properties": {"poly_type": "sidewalk", "area_m2": 135.03, "segment_id": null}, "geometry": {"type": "Polygon", "coordinates": [[[-77.0455893, 38.9181173], [-77.0455875, 38.9181289], [-77.0455644, 38.9181447], [-77.0455543, 38.9181685], [-77.0455368, 38.9181793], [-77.0455229, 38.9181743], [-77.0455229, 38.9181577], [-77.0455119, 38.9181483], [-77.0454962, 38.9181455], [-77.0454759, 38.9181527], [-77.0454648, 38.9181743], [-77.0454695, 38.9181981], [-77.0454593, 38.918206], [-77.0454556, 38.9182161], [-77.0454658, 38.9182384], [-77.0454464, 38.9182421], [-77.045427, 38.9182349], [-77.045416, 38.918219], [-77.0454169, 38.9181938], [-77.0454095, 38.9181909], [-77.0454113, 38.9181794], [-77.0454344, 38.9181469], [-77.0454519, 38.9181448], [-77.0454685, 38.9181368], [-77.0454851, 38.9181397], [-77.0454878, 38.9181058], [-77.0454971, 38.9180943], [-77.0454897, 38.9180684], [-77.0455192, 38.9180294], [-77.0455256, 38.9180294], [-77.0455256, 38.9180359], [-77.0455376, 38.9180373], [-77.045545, 38.9180546], [-77.0455672, 38.9180727], [-77.0455635, 38.9180849], [-77.0455755, 38.9180885], [-77.0455893, 38.9181173]]]}}, {"type": "Feature", "properties": {"poly_type": "sidewalk", "area_m2": 19.36, "segment_id": null}, "geometry": {"type": "Polygon", "coordinates": [[[-77.0465726, 38.9180038], [-77.0465699, 38.9180204], [-77.0465579, 38.9180247], [-77.0465182, 38.9180348], [-77.0464988, 38.9180326], [-77.0464924, 38.9180262], [-77.0464924, 38.9180175], [-77.0465145, 38.9180024], [-77.046532, 38.9180052], [-77.0465606, 38.9179966], [-77.0465726, 38.9180038]]]}}, {"type": "Feature", "properties": {"poly_type": "sidewalk", "area_m2": 92.03, "segment_id": null}, "geometry": {"type": "MultiPolygon", "coordinates": [[[[-77.046235, 38.9179722], [-77.0462405, 38.918001], [-77.0462064, 38.9180133], [-77.0461935, 38.9180126], [-77.0461916, 38.9180039], [-77.0461769, 38.9180054], [-77.0461612, 38.9180119], [-77.0461584, 38.918027], [-77.0460939, 38.9180451], [-77.0460828, 38.918053], [-77.0460681, 38.918053], [-77.0460625, 38.9180436], [-77.0460376, 38.9180487], [-77.046033, 38.9180516], [-77.0460321, 38.9180645], [-77.0460173, 38.9180602], [-77.0459961, 38.9180415], [-77.0459961, 38.9180249], [-77.0459905, 38.9180199], [-77.0459721, 38.9180206], [-77.0459767, 38.9180112], [-77.0460302, 38.9179961], [-77.0460403, 38.9179975], [-77.0460404, 38.918004], [-77.0460127, 38.9180119], [-77.0460062, 38.9180191], [-77.0460099, 38.9180271], [-77.0460671, 38.9180184], [-77.0460653, 38.9179889], [-77.0460569, 38.9179831], [-77.0460569, 38.9179788], [-77.0460671, 38.9179744], [-77.0460763, 38.9179766], [-77.0460911, 38.9180076], [-77.0461437, 38.9179903], [-77.0462055, 38.9179794], [-77.0462239, 38.9179722], [-77.046235, 38.9179722]]], [[[-77.0459869, 38.9180393], [-77.045986, 38.9180437], [-77.0459786, 38.9180437], [-77.0459786, 38.9180393], [-77.0459869, 38.9180393]]]]}}, {"type": "Feature", "properties": {"poly_type": "sidewalk", "area_m2": 15.7, "segment_id": null}, "geometry": {"type": "Polygon", "coordinates": [[[-77.0463567, 38.9179469], [-77.0463558, 38.9179563], [-77.0463318, 38.9179585], [-77.0463291, 38.91797], [-77.0463079, 38.9179794], [-77.0462996, 38.9179794], [-77.0462866, 38.9179672], [-77.0462857, 38.9179556], [-77.0463355, 38.9179397], [-77.0463503, 38.9179376], [-77.0463567, 38.9179469]]]}}, {"type": "Feature", "properties": {"poly_type": "sidewalk", "area_m2": 0.0, "segment_id": null}, "geometry": {"type": "Polygon", "coordinates": [[[-77.0464351, 38.9179354], [-77.0464361, 38.9179347], [-77.0464351, 38.9179347], [-77.0464351, 38.9179354]]]}}, {"type": "Feature", "properties": {"poly_type": "sidewalk", "area_m2": 42.92, "segment_id": null}, "geometry": {"type": "Polygon", "coordinates": [[[-77.0467848, 38.9179439], [-77.0467802, 38.9179547], [-77.0467257, 38.9179691], [-77.046711, 38.9179778], [-77.0466427, 38.9179966], [-77.0466307, 38.9179944], [-77.0466298, 38.9179778], [-77.0466363, 38.9179641], [-77.0466732, 38.9179634], [-77.046687, 38.917949], [-77.0467386, 38.9179324], [-77.0467488, 38.9179324], [-77.0467626, 38.9179396], [-77.0467783, 38.9179388], [-77.0467848, 38.9179439]]]}}, {"type": "Feature", "properties": {"poly_type": "sidewalk", "area_m2": 197.62, "segment_id": null}, "geometry": {"type": "Polygon", "coordinates": [[[-77.0443671, 38.9182007], [-77.0443652, 38.9182093], [-77.0443496, 38.9182122], [-77.0443523, 38.9182345], [-77.0443404, 38.9182425], [-77.0443293, 38.9182396], [-77.0442794, 38.9181034], [-77.0442572, 38.9180804], [-77.0442517, 38.9180537], [-77.0442212, 38.9180047], [-77.0442129, 38.9179499], [-77.0441889, 38.9179024], [-77.0441501, 38.9178916], [-77.0440459, 38.9178902], [-77.0440458, 38.9178628], [-77.0440578, 38.9178599], [-77.0441879, 38.9178613], [-77.0442147, 38.9178685], [-77.0442294, 38.9178908], [-77.0442304, 38.917906], [-77.0442396, 38.9179096], [-77.0442581, 38.9179499], [-77.0442581, 38.9179622], [-77.0442525, 38.9179658], [-77.0442544, 38.9179932], [-77.0442775, 38.9180104], [-77.0443015, 38.9180501], [-77.0443033, 38.9180616], [-77.0442923, 38.9180616], [-77.0442895, 38.9180717], [-77.044307, 38.9180775], [-77.0443181, 38.9180883], [-77.0443347, 38.9181279], [-77.0443348, 38.9181344], [-77.0443237, 38.9181387], [-77.0443283, 38.918156], [-77.044332, 38.9181639], [-77.0443486, 38.9181625], [-77.0443671, 38.9182007]]]}}, {"type": "Feature", "properties": {"poly_type": "sidewalk", "area_m2": 0.0, "segment_id": null}, "geometry": {"type": "Polygon", "coordinates": [[[-77.0454609, 38.9178298], [-77.0454618, 38.9178291], [-77.0454609, 38.9178291], [-77.0454609, 38.9178298]]]}}, {"type": "Feature", "properties": {"poly_type": "sidewalk", "area_m2": 0.0, "segment_id": null}, "geometry": {"type": "Polygon", "coordinates": [[[-77.0456592, 38.9178096], [-77.0456602, 38.9178089], [-77.0456592, 38.9178089], [-77.0456592, 38.9178096]]]}}, {"type": "Feature", "properties": {"poly_type": "sidewalk", "area_m2": 195.17, "segment_id": null}, "geometry": {"type": "Polygon", "coordinates": [[[-77.0468797, 38.9178055], [-77.0468087, 38.9178257], [-77.0468004, 38.917825], [-77.0467985, 38.9178178], [-77.0467773, 38.9178207], [-77.046769, 38.9178243], [-77.0467709, 38.9178351], [-77.0467607, 38.9178401], [-77.0466869, 38.9178632], [-77.0466786, 38.9178625], [-77.0466777, 38.9178539], [-77.0466666, 38.9178553], [-77.0466528, 38.9178618], [-77.0466537, 38.9178719], [-77.0466427, 38.9178776], [-77.0465735, 38.9178993], [-77.0465587, 38.9178928], [-77.0465393, 38.9178957], [-77.0465384, 38.9179087], [-77.0464757, 38.9179289], [-77.0464646, 38.9179296], [-77.0464637, 38.917921], [-77.0464545, 38.917921], [-77.0464351, 38.917926], [-77.0464278, 38.9179383], [-77.0464167, 38.9179368], [-77.0464093, 38.9179289], [-77.0464093, 38.9179174], [-77.0464729, 38.9178972], [-77.0464729, 38.9178871], [-77.0464618, 38.9178676], [-77.0464618, 38.9178611], [-77.0464692, 38.9178575], [-77.0464914, 38.9178561], [-77.0464987, 38.9178611], [-77.0465015, 38.9178755], [-77.0464858, 38.9178813], [-77.0464858, 38.9178878], [-77.0465126, 38.9178871], [-77.046532, 38.9178777], [-77.0466878, 38.9178293], [-77.0466915, 38.9178257], [-77.0466887, 38.9178056], [-77.0467026, 38.9177803], [-77.0466915, 38.9177393], [-77.0467025, 38.9177414], [-77.0467228, 38.9177738], [-77.0467201, 38.9177861], [-77.0467072, 38.917802], [-77.0467238, 38.9178084], [-77.0467358, 38.917807], [-77.0467487, 38.9177796], [-77.0467219, 38.9177544], [-77.0467062, 38.9177263], [-77.0467182, 38.917696], [-77.0467274, 38.9176917], [-77.0467385, 38.9176982], [-77.0467385, 38.9177061], [-77.0467274, 38.9177212], [-77.0467274, 38.91774], [-77.0467376, 38.9177464], [-77.0467477, 38.9177659], [-77.046781, 38.9177738], [-77.0468022, 38.9177904], [-77.0468335, 38.9177832], [-77.0468557, 38.9177716], [-77.0468797, 38.9177716], [-77.0468797, 38.9178055]]]}}, {"type": "Feature", "properties": {"poly_type": "sidewalk", "area_m2": 79.02, "segment_id": null}, "geometry": {"type": "Polygon", "coordinates": [[[-77.0441657, 38.9177611], [-77.0441482, 38.9177748], [-77.0441141, 38.9177806], [-77.0441131, 38.9177842], [-77.0440458, 38.9177806], [-77.0440458, 38.9177497], [-77.0441168, 38.9177489], [-77.0440808, 38.9176574], [-77.0441324, 38.9176574], [-77.0441518, 38.9177042], [-77.0441537, 38.9177273], [-77.0441648, 38.9177402], [-77.0441657, 38.9177611]]]}}, {"type": "Feature", "properties": {"poly_type": "sidewalk", "area_m2": 245.49, "segment_id": null}, "geometry": {"type": "Polygon", "coordinates": [[[-77.0459472, 38.9180927], [-77.0459205, 38.9180999], [-77.0459002, 38.9180999], [-77.0458808, 38.9181086], [-77.0458753, 38.9181158], [-77.0458384, 38.9181244], [-77.0458135, 38.9181353], [-77.0457941, 38.918136], [-77.0457545, 38.9181504], [-77.0457388, 38.918149], [-77.0457277, 38.9181403], [-77.0457203, 38.9181259], [-77.0457148, 38.9181252], [-77.0457129, 38.9181093], [-77.0457203, 38.9181057], [-77.0457203, 38.9180985], [-77.0457148, 38.918087], [-77.0457065, 38.9180863], [-77.0457009, 38.9180798], [-77.0456972, 38.9180495], [-77.0456788, 38.9180423], [-77.0456705, 38.9180315], [-77.0456695, 38.91802], [-77.0456778, 38.9180157], [-77.0456704, 38.9179919], [-77.0456658, 38.9179854], [-77.0456492, 38.9179847], [-77.0456409, 38.9179681], [-77.0456344, 38.9179667], [-77.045639, 38.9179458], [-77.0456141, 38.9179184], [-77.0456113, 38.9178932], [-77.0456491, 38.9178406], [-77.0456611, 38.9178081], [-77.0456887, 38.9177685], [-77.0457053, 38.917731], [-77.0457238, 38.9177144], [-77.0457468, 38.9176777], [-77.0457532, 38.9176568], [-77.045768, 38.9176567], [-77.045768, 38.9176618], [-77.0457818, 38.9176676], [-77.0457607, 38.9177274], [-77.045745, 38.917736], [-77.0457321, 38.9177598], [-77.045733, 38.9177677], [-77.0457515, 38.9177742], [-77.0457542, 38.9177829], [-77.0457404, 38.9178016], [-77.045722, 38.9177951], [-77.045709, 38.9177959], [-77.0456952, 38.9178204], [-77.045686, 38.9178276], [-77.0456869, 38.9178341], [-77.0457303, 38.9178492], [-77.0457386, 38.91786], [-77.0457266, 38.91786], [-77.0456759, 38.9178449], [-77.0456482, 38.9178968], [-77.0456565, 38.9179242], [-77.0456953, 38.9179955], [-77.0457166, 38.9180077], [-77.0457184, 38.9180416], [-77.045736, 38.9180783], [-77.0457609, 38.9181129], [-77.0457784, 38.9181136], [-77.0458402, 38.9180898], [-77.0459343, 38.9180631], [-77.0459435, 38.9180675], [-77.0459472, 38.9180927]]]}}, {"type": "Feature", "properties": {"poly_type": "sidewalk", "area_m2": 305.36, "segment_id": null}, "geometry": {"type": "Polygon", "coordinates": [[[-77.0446034, 38.918388], [-77.0446117, 38.9184002], [-77.0446043, 38.9184009], [-77.0445766, 38.9183988], [-77.0445701, 38.9183894], [-77.0445711, 38.9183736], [-77.0445508, 38.9183764], [-77.0445452, 38.9183714], [-77.0445406, 38.9183498], [-77.0445277, 38.9183332], [-77.0445286, 38.918326], [-77.0445452, 38.9183231], [-77.0445387, 38.9182972], [-77.0445258, 38.9182943], [-77.0445175, 38.9182979], [-77.0445037, 38.918277], [-77.0444916, 38.9182359], [-77.0445064, 38.9182309], [-77.0445064, 38.9182208], [-77.044499, 38.9182136], [-77.0444815, 38.91821], [-77.0444695, 38.9181905], [-77.0444575, 38.9181617], [-77.0444593, 38.9181545], [-77.0444694, 38.9181531], [-77.0444639, 38.9181351], [-77.0444593, 38.9181293], [-77.0444427, 38.9181279], [-77.0444233, 38.9180875], [-77.0444224, 38.9180774], [-77.0444343, 38.9180738], [-77.0444279, 38.9180522], [-77.0444085, 38.9180522], [-77.044403, 38.9180457], [-77.04439, 38.9180082], [-77.0443909, 38.9179989], [-77.0444002, 38.9179953], [-77.0443965, 38.9179801], [-77.0443909, 38.9179715], [-77.0443725, 38.9179693], [-77.0443549, 38.9179275], [-77.0443568, 38.9179211], [-77.0443678, 38.9179167], [-77.044365, 38.917898], [-77.0443429, 38.917893], [-77.0443226, 38.9178483], [-77.0443226, 38.9178432], [-77.0443336, 38.9178418], [-77.0443309, 38.9178274], [-77.0443281, 38.9178238], [-77.0443087, 38.9178223], [-77.0442995, 38.9178029], [-77.0442856, 38.9177676], [-77.0442856, 38.9177597], [-77.0442985, 38.9177589], [-77.0442958, 38.9177402], [-77.0442773, 38.9177344], [-77.044269, 38.9177207], [-77.0442625, 38.9176753], [-77.0442533, 38.9176573], [-77.0443049, 38.9176573], [-77.0442976, 38.917671], [-77.0443003, 38.9176926], [-77.044341, 38.917782], [-77.0443511, 38.9177899], [-77.0443714, 38.917787], [-77.0443899, 38.9177935], [-77.0443881, 38.9178065], [-77.0443604, 38.9178137], [-77.0443595, 38.9178223], [-77.044401, 38.9179275], [-77.0444546, 38.9180385], [-77.0444685, 38.9180839], [-77.0445045, 38.9181567], [-77.0445442, 38.9182604], [-77.0446034, 38.918388]]]}}, {"type": "Feature", "properties": {"poly_type": "sidewalk", "area_m2": 242.44, "segment_id": null}, "geometry": {"type": "MultiPolygon", "coordinates": [[[[-77.0455181, 38.9177325], [-77.0455061, 38.9177368], [-77.045507, 38.9177657], [-77.0454839, 38.9177743], [-77.0454554, 38.9178399], [-77.0454296, 38.9178832], [-77.0454093, 38.9178889], [-77.0454038, 38.9178947], [-77.0454038, 38.9179005], [-77.0454102, 38.9179041], [-77.0454075, 38.9179163], [-77.0453595, 38.9179863], [-77.0453559, 38.9180007], [-77.0453264, 38.918036], [-77.0453107, 38.9180677], [-77.0453079, 38.9180706], [-77.0452876, 38.9180684], [-77.0452766, 38.918062], [-77.0452802, 38.9180461], [-77.0453024, 38.918018], [-77.045306, 38.9179913], [-77.0453411, 38.9179387], [-77.0453374, 38.9179228], [-77.0453143, 38.9179171], [-77.0453143, 38.9179106], [-77.0453244, 38.9179056], [-77.0453549, 38.9179048], [-77.0453696, 38.9178962], [-77.0454028, 38.91785], [-77.0454, 38.9178435], [-77.0453742, 38.9178428], [-77.0453604, 38.9178349], [-77.0453686, 38.917796], [-77.0453649, 38.9177708], [-77.0453843, 38.9177636], [-77.0453861, 38.917747], [-77.0454064, 38.917752], [-77.0454258, 38.9177664], [-77.0454443, 38.9177635], [-77.045471, 38.9177441], [-77.0454876, 38.9177145], [-77.0454848, 38.9177066], [-77.045376, 38.9176994], [-77.0453649, 38.9176965], [-77.045364, 38.9176915], [-77.0453852, 38.9176814], [-77.0454608, 38.9176799], [-77.0454894, 38.9176742], [-77.0454922, 38.917685], [-77.0455014, 38.9176857], [-77.0454987, 38.917708], [-77.0455116, 38.9177174], [-77.0455181, 38.9177325]]], [[[-77.0455162, 38.9176568], [-77.045506, 38.9176713], [-77.0455005, 38.9176713], [-77.0454996, 38.9176569], [-77.0455162, 38.9176568]]]]}}, {"type": "Feature", "properties": {"poly_type": "midblock", "area_m2": 30.24, "segment_id": null}, "geometry": {"type": "Polygon", "coordinates": [[[-77.0463837, 38.9196506], [-77.0463827, 38.9196578], [-77.0463625, 38.9196614], [-77.0463569, 38.9196665], [-77.0463486, 38.9196629], [-77.0463172, 38.9196074], [-77.0463172, 38.9196023], [-77.0463403, 38.9195807], [-77.0463486, 38.9195814], [-77.0463569, 38.9195922], [-77.0463837, 38.9196506]]]}}, {"type": "Feature", "properties": {"poly_type": "midblock", "area_m2": 27.76, "segment_id": null}, "geometry": {"type": "Polygon", "coordinates": [[[-77.0454813, 38.9193411], [-77.0454757, 38.919349], [-77.04546, 38.919349], [-77.0454047, 38.9193678], [-77.0453982, 38.9193678], [-77.0453909, 38.9193598], [-77.0453936, 38.9193346], [-77.0454084, 38.9193274], [-77.0454508, 38.919318], [-77.0454582, 38.919318], [-77.0454785, 38.9193302], [-77.0454813, 38.9193411]]]}}, {"type": "Feature", "properties": {"poly_type": "midblock", "area_m2": 9.23, "segment_id": null}, "geometry": {"type": "Polygon", "coordinates": [[[-77.0462349, 38.919335], [-77.0462331, 38.9193422], [-77.0462146, 38.9193408], [-77.0461907, 38.9193264], [-77.0462036, 38.9193026], [-77.04621, 38.9193033], [-77.0462349, 38.919335]]]}}, {"type": "Feature", "properties": {"poly_type": "midblock", "area_m2": 2.04, "segment_id": null}, "geometry": {"type": "Polygon", "coordinates": [[[-77.0456261, 38.9192812], [-77.0456353, 38.9192942], [-77.0456187, 38.9192992], [-77.0456159, 38.9192841], [-77.0456261, 38.9192812]]]}}, {"type": "Feature", "properties": {"poly_type": "midblock", "area_m2": 38.6, "segment_id": null}, "geometry": {"type": "Polygon", "coordinates": [[[-77.0446149, 38.9191526], [-77.0446029, 38.9191843], [-77.0445569, 38.9192542], [-77.0445513, 38.9192542], [-77.0445504, 38.9192362], [-77.044531, 38.9192304], [-77.0445393, 38.9192139], [-77.044542, 38.9191865], [-77.0445633, 38.9191778], [-77.044578, 38.9191504], [-77.0446149, 38.9191526]]]}}, {"type": "Feature", "properties": {"poly_type": "midblock", "area_m2": 23.93, "segment_id": null}, "geometry": {"type": "Polygon", "coordinates": [[[-77.0459357, 38.9187557], [-77.0459357, 38.9187679], [-77.0459016, 38.9187701], [-77.0458785, 38.9187464], [-77.045872, 38.9187226], [-77.045908, 38.9187081], [-77.0459357, 38.9187557]]]}}, {"type": "Feature", "properties": {"poly_type": "midblock", "area_m2": 20.42, "segment_id": null}, "geometry": {"type": "Polygon", "coordinates": [[[-77.0458877, 38.918675], [-77.0458729, 38.9186757], [-77.0458517, 38.9186858], [-77.0458277, 38.9186339], [-77.0458646, 38.9186217], [-77.0458877, 38.918675]]]}}, {"type": "Feature", "properties": {"poly_type": "midblock", "area_m2": 23.96, "segment_id": null}, "geometry": {"type": "Polygon", "coordinates": [[[-77.0459983, 38.9185849], [-77.0460103, 38.9186231], [-77.0459891, 38.9186303], [-77.0459845, 38.9186411], [-77.045978, 38.9186411], [-77.0459549, 38.9186015], [-77.0459457, 38.9185705], [-77.0459642, 38.9185806], [-77.0459881, 38.9185755], [-77.0459983, 38.9185849]]]}}, {"type": "Feature", "properties": {"poly_type": "midblock", "area_m2": 15.53, "segment_id": null}, "geometry": {"type": "Polygon", "coordinates": [[[-77.045287, 38.9184655], [-77.0452658, 38.9184972], [-77.0452335, 38.9184936], [-77.0452362, 38.9184821], [-77.0452593, 38.9184482], [-77.0452842, 38.9184547], [-77.045287, 38.9184655]]]}}, {"type": "Feature", "properties": {"poly_type": "midblock", "area_m2": 21.52, "segment_id": null}, "geometry": {"type": "Polygon", "coordinates": [[[-77.0446209, 38.9184146], [-77.0446181, 38.9184326], [-77.0445905, 38.9184543], [-77.0445794, 38.9184514], [-77.0445637, 38.918411], [-77.0445646, 38.9184017], [-77.0446135, 38.9184002], [-77.0446209, 38.9184146]]]}}, {"type": "Feature", "properties": {"poly_type": "midblock", "area_m2": 34.31, "segment_id": null}, "geometry": {"type": "Polygon", "coordinates": [[[-77.0444114, 38.9183073], [-77.0443874, 38.9183016], [-77.0443662, 38.9183095], [-77.0443385, 38.9182569], [-77.0443385, 38.9182432], [-77.0443459, 38.9182367], [-77.0443717, 38.9182309], [-77.0443856, 38.918236], [-77.0444114, 38.9183073]]]}}, {"type": "Feature", "properties": {"poly_type": "midblock", "area_m2": 7.7, "segment_id": null}, "geometry": {"type": "Polygon", "coordinates": [[[-77.0453043, 38.918072], [-77.0453033, 38.9180792], [-77.0452886, 38.9180951], [-77.0452627, 38.91808], [-77.045272, 38.918062], [-77.0453043, 38.918072]]]}}, {"type": "Feature", "properties": {"poly_type": "midblock", "area_m2": 23.7, "segment_id": null}, "geometry": {"type": "Polygon", "coordinates": [[[-77.0460247, 38.9180638], [-77.046021, 38.9180696], [-77.0459472, 38.9180905], [-77.0459417, 38.9180595], [-77.0459527, 38.9180509], [-77.0459979, 38.9180415], [-77.0460247, 38.9180638]]]}}, {"type": "Feature", "properties": {"poly_type": "midblock", "area_m2": 27.13, "segment_id": null}, "geometry": {"type": "Polygon", "coordinates": [[[-77.0465108, 38.9180334], [-77.046509, 38.9180391], [-77.0464767, 38.9180478], [-77.0464675, 38.9180579], [-77.0464537, 38.9180564], [-77.0464306, 38.9180637], [-77.0464251, 38.9180637], [-77.0464223, 38.9180449], [-77.046414, 38.9180377], [-77.0464214, 38.9180305], [-77.0464933, 38.9180074], [-77.0464998, 38.9180074], [-77.0464915, 38.918019], [-77.0464933, 38.9180276], [-77.0464988, 38.9180326], [-77.0465108, 38.9180334]]]}}, {"type": "Feature", "properties": {"poly_type": "midblock", "area_m2": 0.0, "segment_id": null}, "geometry": {"type": "Polygon", "coordinates": [[[-77.0465034, 38.9180067], [-77.0465044, 38.918006], [-77.0465034, 38.918006], [-77.0465034, 38.9180067]]]}}, {"type": "Feature", "properties": {"poly_type": "midblock", "area_m2": 23.03, "segment_id": null}, "geometry": {"type": "Polygon", "coordinates": [[[-77.0466335, 38.9179663], [-77.0466317, 38.9180002], [-77.0465819, 38.9180182], [-77.0465699, 38.9180189], [-77.0465736, 38.9180038], [-77.0465542, 38.9179952], [-77.046556, 38.9179894], [-77.046628, 38.9179663], [-77.0466335, 38.9179663]]]}}, {"type": "Feature", "properties": {"poly_type": "midblock", "area_m2": 14.72, "segment_id": null}, "geometry": {"type": "Polygon", "coordinates": [[[-77.0462996, 38.9179823], [-77.0462415, 38.9179989], [-77.0462359, 38.9179708], [-77.0462848, 38.9179571], [-77.0462866, 38.9179672], [-77.0462996, 38.9179823]]]}}, {"type": "Feature", "properties": {"poly_type": "midblock", "area_m2": 21.26, "segment_id": null}, "geometry": {"type": "Polygon", "coordinates": [[[-77.046437, 38.9179361], [-77.0464361, 38.9179411], [-77.0464139, 38.917952], [-77.0463512, 38.917965], [-77.0463567, 38.9179549], [-77.0463512, 38.9179354], [-77.046365, 38.9179275], [-77.0464084, 38.9179188], [-77.0464093, 38.9179289], [-77.0464167, 38.9179368], [-77.046437, 38.9179361]]]}}, {"type": "Feature", "properties": {"poly_type": "midblock", "area_m2": 28.35, "segment_id": null}, "geometry": {"type": "Polygon", "coordinates": [[[-77.0455577, 38.9176568], [-77.0455577, 38.9176777], [-77.0455457, 38.9176986], [-77.0455254, 38.9177282], [-77.045518, 38.9177289], [-77.0454987, 38.917708], [-77.0455042, 38.9176727], [-77.0455189, 38.9176568], [-77.0455577, 38.9176568]]]}}, {"type": "Feature", "properties": {"poly_type": "crosswalk", "area_m2": 93.16, "segment_id": 1}, "geometry": {"type": "Polygon", "coordinates": [[[-77.0444907, 38.9196845], [-77.0444907, 38.9196888], [-77.0444649, 38.919709], [-77.0444428, 38.9197393], [-77.0442712, 38.9197487], [-77.0442546, 38.9197509], [-77.044249, 38.9197624], [-77.0442426, 38.9197631], [-77.0442573, 38.9197278], [-77.0442582, 38.9197127], [-77.0442702, 38.9197033], [-77.044451, 38.9196924], [-77.0444676, 38.919691], [-77.0444732, 38.9196845], [-77.0444907, 38.9196845]]]}}, {"type": "Feature", "properties": {"poly_type": "crosswalk", "area_m2": 0.0, "segment_id": 2}, "geometry": {"type": "Polygon", "coordinates": [[[-77.0443099, 38.9196319], [-77.0443108, 38.9196312], [-77.0443099, 38.9196312], [-77.0443099, 38.9196319]]]}}, {"type": "Feature", "properties": {"poly_type": "crosswalk", "area_m2": 51.7, "segment_id": 2}, "geometry": {"type": "Polygon", "coordinates": [[[-77.0443025, 38.919619], [-77.0443089, 38.9196312], [-77.044296, 38.9196341], [-77.044273, 38.9196975], [-77.0442592, 38.9197098], [-77.0442389, 38.919704], [-77.0441992, 38.9197012], [-77.0442176, 38.9196824], [-77.0442278, 38.9196594], [-77.0442351, 38.9196392], [-77.0442305, 38.9196212], [-77.0443025, 38.919619]]]}}, {"type": "Feature", "properties": {"poly_type": "crosswalk", "area_m2": 56.91, "segment_id": 3}, "geometry": {"type": "Polygon", "coordinates": [[[-77.044617, 38.9195893], [-77.0445746, 38.9196556], [-77.0445673, 38.9196794], [-77.0444944, 38.9196866], [-77.0444925, 38.9196809], [-77.0445073, 38.9196665], [-77.0445451, 38.9195994], [-77.0445552, 38.9195929], [-77.044617, 38.9195893]]]}}, {"type": "Feature", "properties": {"poly_type": "crosswalk", "area_m2": 120.86, "segment_id": 4}, "geometry": {"type": "Polygon", "coordinates": [[[-77.0445598, 38.919549], [-77.0445506, 38.9195713], [-77.0445534, 38.9195922], [-77.0445451, 38.919598], [-77.0443467, 38.9196139], [-77.0443486, 38.919624], [-77.0443375, 38.9196413], [-77.0443163, 38.9196427], [-77.044308, 38.9196175], [-77.0443329, 38.9196074], [-77.0443375, 38.9195973], [-77.0443227, 38.9195822], [-77.0443006, 38.9195844], [-77.0443006, 38.9195714], [-77.0443135, 38.9195555], [-77.0443209, 38.9195555], [-77.0443283, 38.9195635], [-77.0443421, 38.9195635], [-77.0443476, 38.9195627], [-77.0443532, 38.9195526], [-77.0443744, 38.9195498], [-77.0443808, 38.919557], [-77.0443901, 38.9195584], [-77.0443901, 38.9195627], [-77.0444039, 38.9195634], [-77.0445598, 38.919549]]]}}, {"type": "Feature", "properties": {"poly_type": "crosswalk", "area_m2": 48.76, "segment_id": 5}, "geometry": {"type": "Polygon", "coordinates": [[[-77.045081, 38.9195862], [-77.0450931, 38.9196115], [-77.04507, 38.9196143], [-77.0449916, 38.919641], [-77.0449805, 38.9196158], [-77.0449574, 38.9196036], [-77.0449565, 38.9195993], [-77.0449759, 38.9195971], [-77.0450773, 38.9195661], [-77.0450829, 38.9195697], [-77.045081, 38.9195862]]]}}, {"type": "Feature", "properties": {"poly_type": "crosswalk", "area_m2": 49.59, "segment_id": 6}, "geometry": {"type": "Polygon", "coordinates": [[[-77.0451271, 38.9195314], [-77.0451244, 38.919543], [-77.0451032, 38.919548], [-77.0450866, 38.9195653], [-77.0450792, 38.9195653], [-77.0450764, 38.9195502], [-77.0450367, 38.9194803], [-77.0450348, 38.9194681], [-77.0450625, 38.9194688], [-77.0450948, 38.9194608], [-77.0450976, 38.9194789], [-77.0451271, 38.9195314]]]}}, {"type": "Feature", "properties": {"poly_type": "crosswalk", "area_m2": 44.71, "segment_id": 7}, "geometry": {"type": "Polygon", "coordinates": [[[-77.045033, 38.9194681], [-77.0449279, 38.9195056], [-77.0449214, 38.9195049], [-77.0449186, 38.9194854], [-77.0449075, 38.9194732], [-77.0449121, 38.9194631], [-77.044938, 38.9194566], [-77.0449417, 38.9194501], [-77.0449666, 38.9194472], [-77.0449979, 38.9194349], [-77.0450053, 38.9194364], [-77.0450145, 38.9194529], [-77.045033, 38.9194637], [-77.045033, 38.9194681]]]}}, {"type": "Feature", "properties": {"poly_type": "crosswalk", "area_m2": 0.0, "segment_id": 8}, "geometry": {"type": "Polygon", "coordinates": [[[-77.0447127, 38.9192152], [-77.0447137, 38.9192145], [-77.0447127, 38.9192145], [-77.0447127, 38.9192152]]]}}, {"type": "Feature", "properties": {"poly_type": "crosswalk", "area_m2": 0.0, "segment_id": 8}, "geometry": {"type": "Polygon", "coordinates": [[[-77.0447902, 38.9191676], [-77.0447911, 38.9191669], [-77.0447902, 38.9191669], [-77.0447902, 38.9191676]]]}}, {"type": "Feature", "properties": {"poly_type": "crosswalk", "area_m2": 0.17, "segment_id": 8}, "geometry": {"type": "Polygon", "coordinates": [[[-77.0448224, 38.9191244], [-77.044816, 38.9191193], [-77.0448123, 38.9191186], [-77.0448123, 38.9191208], [-77.0448224, 38.9191244]]]}}, {"type": "Feature", "properties": {"poly_type": "crosswalk", "area_m2": 197.89, "segment_id": 8}, "geometry": {"type": "MultiPolygon", "coordinates": [[[[-77.0448695, 38.9191546], [-77.044817, 38.9192671], [-77.0448105, 38.9192678], [-77.0447884, 38.9192498], [-77.0447681, 38.9192484], [-77.0447515, 38.9192585], [-77.0447441, 38.9192714], [-77.0447377, 38.9192714], [-77.0447321, 38.9192441], [-77.0447183, 38.9192152], [-77.0447035, 38.9192145], [-77.0447081, 38.9191828], [-77.044673, 38.9191338], [-77.0446638, 38.9191043], [-77.0446509, 38.919105], [-77.0446942, 38.9190329], [-77.0446997, 38.9190329], [-77.0446997, 38.9190524], [-77.044733, 38.9191136], [-77.0447302, 38.9191244], [-77.0447348, 38.9191381], [-77.0447459, 38.9191468], [-77.0447625, 38.9191727], [-77.0447699, 38.9191958], [-77.044781, 38.9192008], [-77.0447865, 38.919213], [-77.0447921, 38.919213], [-77.0448022, 38.9192022], [-77.0448013, 38.9191893], [-77.0447939, 38.9191821], [-77.0447948, 38.9191705], [-77.0447883, 38.9191669], [-77.0447874, 38.9191489], [-77.0447976, 38.9191424], [-77.0447975, 38.9191294], [-77.0448225, 38.919133], [-77.0448234, 38.9191093], [-77.0448381, 38.9191085], [-77.0448446, 38.919092], [-77.0448501, 38.919092], [-77.0448464, 38.9191136], [-77.0448621, 38.919133], [-77.0448695, 38.9191546]]], [[[-77.0447135, 38.9190091], [-77.0447117, 38.9190264], [-77.0447052, 38.9190315], [-77.044696, 38.9190315], [-77.044708, 38.9190091], [-77.0447135, 38.9190091]]]]}}, {"type": "Feature", "properties": {"poly_type": "crosswalk", "area_m2": 0.0, "segment_id": 9}, "geometry": {"type": "Polygon", "coordinates": [[[-77.0448832, 38.9189802], [-77.0448842, 38.9189795], [-77.0448832, 38.9189795], [-77.0448832, 38.9189802]]]}}, {"type": "Feature", "properties": {"poly_type": "crosswalk", "area_m2": 128.58, "segment_id": 9}, "geometry": {"type": "Polygon", "coordinates": [[[-77.0449008, 38.9190091], [-77.0448962, 38.9190264], [-77.044875, 38.9190624], [-77.0448556, 38.9190891], [-77.0448492, 38.9190898], [-77.0448482, 38.9190703], [-77.044802, 38.9189118], [-77.0447965, 38.9188988], [-77.0447845, 38.918896], [-77.0447863, 38.9188715], [-77.0448001, 38.9188657], [-77.0448278, 38.9188253], [-77.0448343, 38.918826], [-77.0448398, 38.918839], [-77.0448499, 38.9188433], [-77.0448463, 38.9188606], [-77.0448694, 38.9189406], [-77.0448731, 38.9189492], [-77.0448814, 38.9189507], [-77.0448786, 38.9189665], [-77.0448842, 38.9189737], [-77.0448832, 38.9189838], [-77.0448925, 38.9189939], [-77.0448897, 38.9190076], [-77.0449008, 38.9190091]]]}}, {"type": "Feature", "properties": {"poly_type": "crosswalk", "area_m2": 59.92, "segment_id": 10}, "geometry": {"type": "Polygon", "coordinates": [[[-77.0447845, 38.9188722], [-77.0447808, 38.9189003], [-77.0447651, 38.9189154], [-77.0447126, 38.9189918], [-77.0447071, 38.9189918], [-77.0446821, 38.9189342], [-77.0446923, 38.9189342], [-77.0447006, 38.9189263], [-77.0447512, 38.9188498], [-77.0447586, 38.9188513], [-77.0447697, 38.9188686], [-77.0447845, 38.9188722]]]}}, {"type": "Feature", "properties": {"poly_type": "crosswalk", "area_m2": 52.61, "segment_id": 11}, "geometry": {"type": "Polygon", "coordinates": [[[-77.0462847, 38.9192269], [-77.0462699, 38.9192348], [-77.0461934, 38.9192572], [-77.0461731, 38.9192565], [-77.046174, 38.9192399], [-77.0461565, 38.9192313], [-77.046162, 38.9192161], [-77.0462579, 38.9191873], [-77.0462764, 38.9191916], [-77.0462745, 38.9192103], [-77.0462838, 38.9192175], [-77.0462847, 38.9192269]]]}}, {"type": "Feature", "properties": {"poly_type": "crosswalk", "area_m2": 46.38, "segment_id": 12}, "geometry": {"type": "Polygon", "coordinates": [[[-77.0461583, 38.9192212], [-77.0461491, 38.9192305], [-77.0461371, 38.9192305], [-77.0461233, 38.9192392], [-77.0461048, 38.9192378], [-77.0461029, 38.919219], [-77.0460725, 38.919165], [-77.0460789, 38.919147], [-77.0460928, 38.9191491], [-77.0461075, 38.9191412], [-77.0461213, 38.9191455], [-77.0461583, 38.9192212]]]}}, {"type": "Feature", "properties": {"poly_type": "crosswalk", "area_m2": 0.01, "segment_id": 13}, "geometry": {"type": "Polygon", "coordinates": [[[-77.0462938, 38.919108], [-77.0462948, 38.9191094], [-77.0462957, 38.919108], [-77.0462938, 38.919108]]]}}, {"type": "Feature", "properties": {"poly_type": "crosswalk", "area_m2": 50.15, "segment_id": 13}, "geometry": {"type": "Polygon", "coordinates": [[[-77.0463169, 38.9191591], [-77.0463262, 38.9191663], [-77.0463188, 38.9191721], [-77.0462883, 38.9191808], [-77.046281, 38.919188], [-77.0462717, 38.9191872], [-77.0462283, 38.9191174], [-77.0462274, 38.9191051], [-77.046232, 38.9191008], [-77.0462551, 38.9191001], [-77.0462984, 38.9190899], [-77.0462892, 38.9191094], [-77.0463169, 38.9191591]]]}}, {"type": "Feature", "properties": {"poly_type": "crosswalk", "area_m2": 48.31, "segment_id": 14}, "geometry": {"type": "Polygon", "coordinates": [[[-77.0462274, 38.9191029], [-77.046221, 38.9191094], [-77.0461167, 38.9191405], [-77.0461112, 38.9191369], [-77.046113, 38.9191217], [-77.046101, 38.9190943], [-77.0461195, 38.9190922], [-77.0461969, 38.9190662], [-77.0462126, 38.9190907], [-77.0462274, 38.9191029]]]}}, {"type": "Feature", "properties": {"poly_type": "crosswalk", "area_m2": 1.95, "segment_id": 15}, "geometry": {"type": "Polygon", "coordinates": [[[-77.0449201, 38.9189788], [-77.0449082, 38.9190033], [-77.0449026, 38.9190033], [-77.0449082, 38.9189802], [-77.0449201, 38.9189788]]]}}, {"type": "Feature", "properties": {"poly_type": "crosswalk", "area_m2": 48.34, "segment_id": 16}, "geometry": {"type": "Polygon", "coordinates": [[[-77.0447226, 38.9187663], [-77.0447041, 38.9187742], [-77.0446544, 38.9188211], [-77.0446461, 38.9188225], [-77.0446396, 38.9188348], [-77.0446341, 38.9188348], [-77.0446267, 38.9188067], [-77.0446156, 38.9187915], [-77.0446488, 38.9187677], [-77.0446995, 38.9187194], [-77.044706, 38.9187194], [-77.0447069, 38.9187338], [-77.044718, 38.9187468], [-77.0447226, 38.9187663]]]}}, {"type": "Feature", "properties": {"poly_type": "crosswalk", "area_m2": 0.0, "segment_id": 17}, "geometry": {"type": "Polygon", "coordinates": [[[-77.0445344, 38.9187598], [-77.0445353, 38.9187591], [-77.0445344, 38.9187591], [-77.0445344, 38.9187598]]]}}, {"type": "Feature", "properties": {"poly_type": "crosswalk", "area_m2": 57.08, "segment_id": 17}, "geometry": {"type": "Polygon", "coordinates": [[[-77.0446193, 38.9187858], [-77.0446073, 38.9187908], [-77.0445778, 38.9187807], [-77.0445316, 38.9187807], [-77.0445353, 38.9187534], [-77.0445131, 38.9186986], [-77.0445353, 38.9186943], [-77.0445537, 38.918677], [-77.0445639, 38.9186791], [-77.0446008, 38.9187677], [-77.0446193, 38.9187858]]]}}, {"type": "Feature", "properties": {"poly_type": "crosswalk", "area_m2": 50.91, "segment_id": 18}, "geometry": {"type": "Polygon", "coordinates": [[[-77.0447548, 38.9186841], [-77.0447032, 38.9187144], [-77.0446976, 38.9186805], [-77.0446708, 38.9186142], [-77.0446736, 38.9186063], [-77.0446994, 38.918607], [-77.0447271, 38.9185983], [-77.044728, 38.9186178], [-77.0447548, 38.9186841]]]}}, {"type": "Feature", "properties": {"poly_type": "crosswalk", "area_m2": 44.63, "segment_id": 19}, "geometry": {"type": "Polygon", "coordinates": [[[-77.0446681, 38.9186092], [-77.0445694, 38.9186726], [-77.0445574, 38.9186741], [-77.0445482, 38.9186265], [-77.0445537, 38.9186265], [-77.0445555, 38.9186316], [-77.0445712, 38.9186287], [-77.0446339, 38.9185861], [-77.0446348, 38.9185789], [-77.0446404, 38.9185789], [-77.044669, 38.9186034], [-77.0446681, 38.9186092]]]}}, {"type": "Feature", "properties": {"poly_type": "crosswalk", "area_m2": 96.71, "segment_id": 20}, "geometry": {"type": "Polygon", "coordinates": [[[-77.0451939, 38.9185463], [-77.0451948, 38.9185564], [-77.0451754, 38.9185838], [-77.0451717, 38.9185982], [-77.0451533, 38.9185967], [-77.0449568, 38.9186264], [-77.0449651, 38.9185932], [-77.04499, 38.9185752], [-77.0451708, 38.9185492], [-77.0451754, 38.9185456], [-77.0451939, 38.9185463]]]}}, {"type": "Feature", "properties": {"poly_type": "crosswalk", "area_m2": 0.01, "segment_id": 21}, "geometry": {"type": "Polygon", "coordinates": [[[-77.0449955, 38.9185557], [-77.0449964, 38.9185543], [-77.0449955, 38.9185543], [-77.0449955, 38.9185557]]]}}, {"type": "Feature", "properties": {"poly_type": "crosswalk", "area_m2": 0.01, "segment_id": 21}, "geometry": {"type": "Polygon", "coordinates": [[[-77.0450333, 38.9184981], [-77.0450342, 38.9184966], [-77.0450333, 38.9184966], [-77.0450333, 38.9184981]]]}}, {"type": "Feature", "properties": {"poly_type": "crosswalk", "area_m2": 100.65, "segment_id": 21}, "geometry": {"type": "Polygon", "coordinates": [[[-77.045119, 38.9183935], [-77.0451107, 38.9184101], [-77.0450969, 38.9184079], [-77.0450877, 38.9184123], [-77.0450858, 38.9184224], [-77.0450785, 38.9184252], [-77.0450656, 38.9184505], [-77.0450582, 38.9184534], [-77.0450573, 38.9184627], [-77.0450315, 38.9184981], [-77.0450305, 38.9185053], [-77.0450453, 38.9185103], [-77.0450379, 38.9185355], [-77.0450324, 38.9185398], [-77.045013, 38.9185363], [-77.0449955, 38.9185543], [-77.0449974, 38.9185723], [-77.0449863, 38.9185745], [-77.044966, 38.9185903], [-77.0449402, 38.9185853], [-77.0449208, 38.9185911], [-77.0449227, 38.918581], [-77.0449568, 38.918532], [-77.0449577, 38.9185226], [-77.0449697, 38.9185139], [-77.0449955, 38.9184721], [-77.0449973, 38.9184541], [-77.0450895, 38.9184036], [-77.0451015, 38.9183885], [-77.045119, 38.9183935]]]}}, {"type": "Feature", "properties": {"poly_type": "crosswalk", "area_m2": 96.34, "segment_id": 22}, "geometry": {"type": "Polygon", "coordinates": [[[-77.0453109, 38.9183653], [-77.0453183, 38.9183769], [-77.0452962, 38.9183949], [-77.0452823, 38.9184158], [-77.0451495, 38.9183877], [-77.0451061, 38.9183856], [-77.0451089, 38.9183733], [-77.0451421, 38.9183265], [-77.0451614, 38.9183366], [-77.0453109, 38.9183653]]]}}, {"type": "Feature", "properties": {"poly_type": "crosswalk", "area_m2": 0.0, "segment_id": 23}, "geometry": {"type": "Polygon", "coordinates": [[[-77.0453597, 38.918294], [-77.0453607, 38.9182933], [-77.0453597, 38.9182933], [-77.0453597, 38.918294]]]}}, {"type": "Feature", "properties": {"poly_type": "crosswalk", "area_m2": 0.0, "segment_id": 23}, "geometry": {"type": "Polygon", "coordinates": [[[-77.0453699, 38.9182788], [-77.0453708, 38.9182781], [-77.0453699, 38.9182781], [-77.0453699, 38.9182788]]]}}, {"type": "Feature", "properties": {"poly_type": "crosswalk", "area_m2": 96.44, "segment_id": 23}, "geometry": {"type": "MultiPolygon", "coordinates": [[[[-77.0454464, 38.9182413], [-77.0453957, 38.9183113], [-77.0453921, 38.91833], [-77.0453782, 38.9183372], [-77.0453782, 38.918343], [-77.0453911, 38.9183459], [-77.0453884, 38.9183538], [-77.0453395, 38.9183718], [-77.045322, 38.9183733], [-77.0453155, 38.9183625], [-77.0453229, 38.9183488], [-77.0453284, 38.918348], [-77.0453275, 38.9183379], [-77.04531, 38.9183416], [-77.0453127, 38.91833], [-77.0453358, 38.9182947], [-77.0453468, 38.9182911], [-77.0453514, 38.9183033], [-77.045357, 38.9183033], [-77.0453616, 38.9182904], [-77.0453717, 38.9182832], [-77.0453782, 38.9182659], [-77.0453616, 38.9182651], [-77.0453616, 38.9182558], [-77.0453837, 38.9182089], [-77.0453984, 38.9181945], [-77.0454159, 38.9181923], [-77.0454169, 38.9182219], [-77.045427, 38.9182349], [-77.0454464, 38.9182413]]], [[[-77.0453431, 38.9182889], [-77.0453431, 38.9182853], [-77.0453487, 38.9182853], [-77.0453487, 38.9182889], [-77.0453431, 38.9182889]]]]}}, {"type": "Feature", "properties": {"poly_type": "crosswalk", "area_m2": 0.0, "segment_id": 24}, "geometry": {"type": "Polygon", "coordinates": [[[-77.0457804, 38.9182873], [-77.0457813, 38.9182866], [-77.0457804, 38.9182866], [-77.0457804, 38.9182873]]]}}, {"type": "Feature", "properties": {"poly_type": "crosswalk", "area_m2": 0.0, "segment_id": 24}, "geometry": {"type": "Polygon", "coordinates": [[[-77.0456983, 38.9182283], [-77.0456992, 38.9182275], [-77.0456983, 38.9182275], [-77.0456983, 38.9182283]]]}}, {"type": "Feature", "properties": {"poly_type": "crosswalk", "area_m2": 0.0, "segment_id": 24}, "geometry": {"type": "Polygon", "coordinates": [[[-77.0457222, 38.9182174], [-77.0457232, 38.9182167], [-77.0457222, 38.9182167], [-77.0457222, 38.9182174]]]}}, {"type": "Feature", "properties": {"poly_type": "crosswalk", "area_m2": 0.0, "segment_id": 24}, "geometry": {"type": "Polygon", "coordinates": [[[-77.0458366, 38.9182116], [-77.0458375, 38.9182109], [-77.0458366, 38.9182109], [-77.0458366, 38.9182116]]]}}, {"type": "Feature", "properties": {"poly_type": "crosswalk", "area_m2": 230.16, "segment_id": 24}, "geometry": {"type": "Polygon", "coordinates": [[[-77.0458255, 38.9182124], [-77.0458219, 38.9182188], [-77.0457923, 38.9182289], [-77.0457831, 38.9182419], [-77.0457951, 38.9182643], [-77.0457933, 38.9182787], [-77.0458016, 38.9182844], [-77.0458035, 38.9182931], [-77.0457887, 38.9182859], [-77.0457785, 38.9182902], [-77.0457647, 38.9182888], [-77.0457601, 38.9182902], [-77.0457583, 38.9183003], [-77.0457315, 38.918301], [-77.0457149, 38.918309], [-77.0456946, 38.9183018], [-77.0456872, 38.918283], [-77.0456743, 38.9182737], [-77.0456531, 38.9182715], [-77.0456291, 38.918278], [-77.0456116, 38.9182773], [-77.0456226, 38.9182636], [-77.0455968, 38.9182326], [-77.0455977, 38.9182103], [-77.0456254, 38.9181872], [-77.0456299, 38.9181613], [-77.0457102, 38.9181382], [-77.0457157, 38.9181274], [-77.0457213, 38.9181274], [-77.0457296, 38.9181425], [-77.0457434, 38.9181504], [-77.045808, 38.9181353], [-77.0458052, 38.9181489], [-77.0458144, 38.9181662], [-77.0458089, 38.9181915], [-77.0458182, 38.9182102], [-77.0458255, 38.9182124]], [[-77.0457268, 38.9182153], [-77.0457231, 38.9181836], [-77.0457167, 38.9181821], [-77.0457157, 38.9181771], [-77.0456918, 38.9181764], [-77.0456549, 38.9181872], [-77.0456549, 38.9181973], [-77.0456724, 38.9182319], [-77.0456844, 38.9182398], [-77.0456983, 38.918234], [-77.0456992, 38.9182283], [-77.0457213, 38.9182218], [-77.0457268, 38.9182153]]]}}, {"type": "Feature", "properties": {"poly_type": "crosswalk", "area_m2": 0.01, "segment_id": 25}, "geometry": {"type": "Polygon", "coordinates": [[[-77.0455634, 38.9179516], [-77.0455652, 38.9179523], [-77.0455652, 38.9179509], [-77.0455634, 38.9179516]]]}}, {"type": "Feature", "properties": {"poly_type": "crosswalk", "area_m2": 98.18, "segment_id": 25}, "geometry": {"type": "Polygon", "coordinates": [[[-77.0456307, 38.9179335], [-77.0456354, 38.9179624], [-77.0456271, 38.917966], [-77.0456261, 38.9179753], [-77.0456188, 38.9179782], [-77.0456049, 38.9180013], [-77.0455976, 38.9180258], [-77.0455911, 38.9180272], [-77.045593, 38.9180618], [-77.0455801, 38.9180762], [-77.0455709, 38.9180763], [-77.0455469, 38.9180568], [-77.0455376, 38.9180373], [-77.0455219, 38.9180366], [-77.0455228, 38.9180215], [-77.0455357, 38.9180013], [-77.0455321, 38.9179869], [-77.0455385, 38.9179725], [-77.0455523, 38.9179552], [-77.0455708, 38.9179537], [-77.0455754, 38.9179473], [-77.0455717, 38.9179336], [-77.0455846, 38.9179321], [-77.0455874, 38.9179191], [-77.0455947, 38.9179155], [-77.0455892, 38.9179018], [-77.0455993, 38.9178982], [-77.0456058, 38.9178896], [-77.0456113, 38.9178896], [-77.0456123, 38.9179148], [-77.0456215, 38.9179307], [-77.0456307, 38.9179335]]]}}, {"type": "Feature", "properties": {"poly_type": "crosswalk", "area_m2": 98.08, "segment_id": 26}, "geometry": {"type": "Polygon", "coordinates": [[[-77.0456611, 38.9178125], [-77.0456169, 38.9178867], [-77.0456095, 38.917886], [-77.0456067, 38.9178781], [-77.0455919, 38.9178766], [-77.0455882, 38.9178709], [-77.0455126, 38.9178399], [-77.0454757, 38.9178262], [-77.0454609, 38.9178269], [-77.0454849, 38.9177729], [-77.0454996, 38.9177671], [-77.0455153, 38.9177693], [-77.045519, 38.9177765], [-77.0455587, 38.9178017], [-77.0456076, 38.9178161], [-77.0456242, 38.9178254], [-77.0456463, 38.917824], [-77.0456556, 38.9178125], [-77.0456611, 38.9178125]]]}}, {"type": "Feature", "properties": {"poly_type": "crosswalk", "area_m2": 43.6, "segment_id": 27}, "geometry": {"type": "Polygon", "coordinates": [[[-77.0443466, 38.917898], [-77.0443365, 38.9178973], [-77.0443337, 38.9178894], [-77.0443254, 38.9178894], [-77.044247, 38.9179024], [-77.0442331, 38.9179089], [-77.0442285, 38.9178887], [-77.0442147, 38.9178656], [-77.0442368, 38.9178649], [-77.0442645, 38.9178598], [-77.0442654, 38.9178541], [-77.0442921, 38.9178548], [-77.0443226, 38.9178468], [-77.0443466, 38.917898]]]}}, {"type": "Feature", "properties": {"poly_type": "crosswalk", "area_m2": 0.01, "segment_id": 28}, "geometry": {"type": "Polygon", "coordinates": [[[-77.0441178, 38.9177864], [-77.0441196, 38.9177857], [-77.0441178, 38.9177857], [-77.0441178, 38.9177864]]]}}, {"type": "Feature", "properties": {"poly_type": "crosswalk", "area_m2": 50.38, "segment_id": 28}, "geometry": {"type": "Polygon", "coordinates": [[[-77.0441722, 38.9177655], [-77.0442119, 38.9178649], [-77.0441399, 38.9178606], [-77.0441399, 38.9178563], [-77.0441492, 38.9178527], [-77.0441492, 38.9178455], [-77.0441307, 38.917803], [-77.044115, 38.9177806], [-77.0441463, 38.9177756], [-77.0441629, 38.9177647], [-77.0441722, 38.9177655]]]}}, {"type": "Feature", "properties": {"poly_type": "crosswalk", "area_m2": 51.31, "segment_id": 29}, "geometry": {"type": "Polygon", "coordinates": [[[-77.044281, 38.9177395], [-77.0441676, 38.9177619], [-77.0441648, 38.9177402], [-77.0441537, 38.9177273], [-77.0441537, 38.917715], [-77.0441897, 38.9177107], [-77.0441915, 38.9177064], [-77.0442016, 38.9177042], [-77.0442441, 38.9177013], [-77.0442478, 38.9176955], [-77.0442634, 38.9176905], [-77.0442672, 38.9177171], [-77.0442764, 38.9177337], [-77.0442828, 38.9177352], [-77.044281, 38.9177395]]]}}]}