{"type": "FeatureCollection", "features": [{"type": "Feature", "properties": {"node_id": 0, "node_type": "endpoint", "degree": 1, "link_types": "sidewalk"}, "geometry": {"type": "Point", "coordinates": [395940.21, 139019.18]}}, {"type": "Feature", "properties": {"node_id": 1, "node_type": "junction", "degree": 3, "link_types": "sidewalk"}, "geometry": {"type": "Point", "coordinates": [395984.37, 139036.62]}}, {"type": "Feature", "properties": {"node_id": 2, "node_type": "junction", "degree": 3, "link_types": "sidewalk"}, "geometry": {"type": "Point", "coordinates": [395948.69, 138885.34]}}, {"type": "Feature", "properties": {"node_id": 3, "node_type": "type_change", "degree": 2, "link_types": "midblock+sidewalk"}, "geometry": {"type": "Point", "coordinates": [395975.172, 138896.822]}}, {"type": "Feature", "properties": {"node_id": 4, "node_type": "type_change", "degree": 2, "link_types": "midblock+sidewalk"}, "geometry": {"type": "Point", "coordinates": [395979.964, 138898.469]}}, {"type": "Feature", "properties": {"node_id": 5, "node_type": "type_change", "degree": 2, "link_types": "midblock+sidewalk"}, "geometry": {"type": "Point", "coordinates": [395985.879, 138900.846]}}, {"type": "Feature", "properties": {"node_id": 6, "node_type": "type_change", "degree": 2, "link_types": "midblock+sidewalk"}, "geometry": {"type": "Point", "coordinates": [395989.876, 138902.681]}}, {"type": "Feature", "properties": {"node_id": 7, "node_type": "type_change", "degree": 2, "link_types": "midblock+sidewalk"}, "geometry": {"type": "Point", "coordinates": [396010.301, 138909.934]}}, {"type": "Feature", "properties": {"node_id": 8, "node_type": "type_change", "degree": 2, "link_types": "midblock+sidewalk"}, "geometry": {"type": "Point", "coordinates": [396015.483, 138912.902]}}, {"type": "Feature", "properties": {"node_id": 9, "node_type": "type_change", "degree": 3, "link_types": "pseudo+sidewalk"}, "geometry": {"type": "Point", "coordinates": [396032.45, 138918.78]}}, {"type": "Feature", "properties": {"node_id": 10, "node_type": "junction", "degree": 3, "link_types": "sidewalk"}, "geometry": {"type": "Point", "coordinates": [395943.89, 138882.3]}}, {"type": "Feature", "properties": {"node_id": 11, "node_type": "endpoint", "degree": 1, "link_types": "sidewalk"}, "geometry": {"type": "Point", "coordinates": [395950.69, 138875.74]}}, {"type": "Feature", "properties": {"node_id": 12, "node_type": "junction", "degree": 3, "link_types": "pseudo"}, "geometry": {"type": "Point", "coordinates": [395985.25, 139038.14]}}, {"type": "Feature", "properties": {"node_id": 13, "node_type": "type_change", "degree": 3, "link_types": "pseudo+sidewalk"}, "geometry": {"type": "Point", "coordinates": [395985.17, 139038.14]}}, {"type": "Feature", "properties": {"node_id": 14, "node_type": "type_change", "degree": 2, "link_types": "crosswalk+pseudo"}, "geometry": {"type": "Point", "coordinates": [395986.93, 139038.46]}}, {"type": "Feature", "properties": {"node_id": 15, "node_type": "type_change", "degree": 2, "link_types": "crosswalk+pseudo"}, "geometry": {"type": "Point", "coordinates": [395996.37, 139042.06]}}, {"type": "Feature", "properties": {"node_id": 16, "node_type": "type_change", "degree": 3, "link_types": "pseudo+sidewalk"}, "geometry": {"type": "Point", "coordinates": [395997.33, 139043.02]}}, {"type": "Feature", "properties": {"node_id": 17, "node_type": "type_change", "degree": 3, "link_types": "pseudo+sidewalk"}, "geometry": {"type": "Point", "coordinates": [395985.17, 139038.06]}}, {"type": "Feature", "properties": {"node_id": 18, "node_type": "junction", "degree": 3, "link_types": "sidewalk"}, "geometry": {"type": "Point", "coordinates": [395991.17, 139024.46]}}, {"type": "Feature", "properties": {"node_id": 19, "node_type": "type_change", "degree": 3, "link_types": "pseudo+sidewalk"}, "geometry": {"type": "Point", "coordinates": [395991.17, 139024.54]}}, {"type": "Feature", "properties": {"node_id": 20, "node_type": "type_change", "degree": 3, "link_types": "pseudo+sidewalk"}, "geometry": {"type": "Point", "coordinates": [395991.25, 139024.54]}}, {"type": "Feature", "properties": {"node_id": 21, "node_type": "type_change", "degree": 2, "link_types": "midblock+sidewalk"}, "geometry": {"type": "Point", "coordinates": [396011.324, 138974.05]}}, {"type": "Feature", "properties": {"node_id": 22, "node_type": "type_change", "degree": 2, "link_types": "midblock+sidewalk"}, "geometry": {"type": "Point", "coordinates": [396013.511, 138968.85]}}, {"type": "Feature", "properties": {"node_id": 23, "node_type": "type_change", "degree": 2, "link_types": "midblock+sidewalk"}, "geometry": {"type": "Point", "coordinates": [395974.08, 138909.787]}}, {"type": "Feature", "properties": {"node_id": 24, "node_type": "type_change", "degree": 2, "link_types": "midblock+sidewalk"}, "geometry": {"type": "Point", "coordinates": [395968.025, 138907.35]}}, {"type": "Feature", "properties": {"node_id": 25, "node_type": "type_change", "degree": 2, "link_types": "midblock+sidewalk"}, "geometry": {"type": "Point", "coordinates": [395961.096, 138904.821]}}, {"type": "Feature", "properties": {"node_id": 26, "node_type": "type_change", "degree": 2, "link_types": "midblock+sidewalk"}, "geometry": {"type": "Point", "coordinates": [395956.128, 138902.759]}}, {"type": "Feature", "properties": {"node_id": 27, "node_type": "endpoint", "degree": 1, "link_types": "sidewalk"}, "geometry": {"type": "Point", "coordinates": [395943.25, 138898.46]}}, {"type": "Feature", "properties": {"node_id": 28, "node_type": "junction", "degree": 3, "link_types": "pseudo"}, "geometry": {"type": "Point", "coordinates": [395998.53, 139042.78]}}, {"type": "Feature", "properties": {"node_id": 29, "node_type": "type_change", "degree": 3, "link_types": "pseudo+sidewalk"}, "geometry": {"type": "Point", "coordinates": [395998.45, 139042.86]}}, {"type": "Feature", "properties": {"node_id": 30, "node_type": "type_change", "degree": 3, "link_types": "pseudo+sidewalk"}, "geometry": {"type": "Point", "coordinates": [395998.53, 139042.86]}}, {"type": "Feature", "properties": {"node_id": 31, "node_type": "type_change", "degree": 2, "link_types": "crosswalk+pseudo"}, "geometry": {"type": "Point", "coordinates": [395999.01, 139041.1]}}, {"type": "Feature", "properties": {"node_id": 32, "node_type": "type_change", "degree": 2, "link_types": "crosswalk+pseudo"}, "geometry": {"type": "Point", "coordinates": [396002.77, 139031.98]}}, {"type": "Feature", "properties": {"node_id": 33, "node_type": "endpoint", "degree": 1, "link_types": "pseudo"}, "geometry": {"type": "Point", "coordinates": [396004.13, 139032.22]}}, {"type": "Feature", "properties": {"node_id": 34, "node_type": "junction", "degree": 3, "link_types": "sidewalk"}, "geometry": {"type": "Point", "coordinates": [396094.77, 139064.86]}}, {"type": "Feature", "properties": {"node_id": 35, "node_type": "type_change", "degree": 3, "link_types": "pseudo+sidewalk"}, "geometry": {"type": "Point", "coordinates": [396092.45, 139065.74]}}, {"type": "Feature", "properties": {"node_id": 36, "node_type": "type_change", "degree": 2, "link_types": "pseudo+sidewalk"}, "geometry": {"type": "Point", "coordinates": [396094.85, 139064.94]}}, {"type": "Feature", "properties": {"node_id": 37, "node_type": "type_change", "degree": 2, "link_types": "crosswalk+pseudo"}, "geometry": {"type": "Point", "coordinates": [396096.05, 139065.74]}}, {"type": "Feature", "properties": {"node_id": 38, "node_type": "type_change", "degree": 2, "link_types": "crosswalk+pseudo"}, "geometry": {"type": "Point", "coordinates": [396104.85, 139069.1]}}, {"type": "Feature", "properties": {"node_id": 39, "node_type": "endpoint", "degree": 1, "link_types": "pseudo"}, "geometry": {"type": "Point", "coordinates": [396106.05, 139067.26]}}, {"type": "Feature", "properties": {"node_id": 40, "node_type": "junction", "degree": 3, "link_types": "sidewalk"}, "geometry": {"type": "Point", "coordinates": [396107.49, 139023.34]}}, {"type": "Feature", "properties": {"node_id": 41, "node_type": "junction", "degree": 3, "link_types": "sidewalk"}, "geometry": {"type": "Point", "coordinates": [396159.25, 138872.46]}}, {"type": "Feature", "properties": {"node_id": 42, "node_type": "type_change", "degree": 3, "link_types": "pseudo+sidewalk"}, "geometry": {"type": "Point", "coordinates": [396153.65, 138888.78]}}, {"type": "Feature", "properties": {"node_id": 43, "node_type": "type_change", "degree": 2, "link_types": "pseudo+sidewalk"}, "geometry": {"type": "Point", "coordinates": [396159.33, 138872.54]}}, {"type": "Feature", "properties": {"node_id": 44, "node_type": "type_change", "degree": 2, "link_types": "crosswalk+pseudo"}, "geometry": {"type": "Point", "coordinates": [396160.77, 138873.26]}}, {"type": "Feature", "properties": {"node_id": 45, "node_type": "type_change", "degree": 2, "link_types": "crosswalk+pseudo"}, "geometry": {"type": "Point", "coordinates": [396170.21, 138875.18]}}, {"type": "Feature", "properties": {"node_id": 46, "node_type": "type_change", "degree": 3, "link_types": "pseudo+sidewalk"}, "geometry": {"type": "Point", "coordinates": [396172.37, 138875.18]}}, {"type": "Feature", "properties": {"node_id": 47, "node_type": "endpoint", "degree": 1, "link_types": "sidewalk"}, "geometry": {"type": "Point", "coordinates": [396159.97, 138867.98]}}, {"type": "Feature", "properties": {"node_id": 48, "node_type": "type_change", "degree": 3, "link_types": "pseudo+sidewalk"}, "geometry": {"type": "Point", "coordinates": [395984.45, 139036.62]}}, {"type": "Feature", "properties": {"node_id": 49, "node_type": "type_change", "degree": 3, "link_types": "pseudo+sidewalk"}, "geometry": {"type": "Point", "coordinates": [395984.45, 139036.54]}}, {"type": "Feature", "properties": {"node_id": 50, "node_type": "junction", "degree": 3, "link_types": "pseudo"}, "geometry": {"type": "Point", "coordinates": [396131.57, 138995.42]}}, {"type": "Feature", "properties": {"node_id": 51, "node_type": "type_change", "degree": 3, "link_types": "pseudo+sidewalk"}, "geometry": {"type": "Point", "coordinates": [396131.65, 138995.5]}}, {"type": "Feature", "properties": {"node_id": 52, "node_type": "type_change", "degree": 3, "link_types": "pseudo+sidewalk"}, "geometry": {"type": "Point", "coordinates": [396131.65, 138995.42]}}, {"type": "Feature", "properties": {"node_id": 53, "node_type": "type_change", "degree": 2, "link_types": "crosswalk+pseudo"}, "geometry": {"type": "Point", "coordinates": [396129.97, 138994.94]}}, {"type": "Feature", "properties": {"node_id": 54, "node_type": "type_change", "degree": 2, "link_types": "crosswalk+pseudo"}, "geometry": {"type": "Point", "coordinates": [396122.45, 138986.06]}}, {"type": "Feature", "properties": {"node_id": 55, "node_type": "type_change", "degree": 3, "link_types": "pseudo+sidewalk"}, "geometry": {"type": "Point", "coordinates": [396120.93, 138985.26]}}, {"type": "Feature", "properties": {"node_id": 56, "node_type": "endpoint", "degree": 1, "link_types": "sidewalk"}, "geometry": {"type": "Point", "coordinates": [396178.45, 138890.7]}}, {"type": "Feature", "properties": {"node_id": 57, "node_type": "junction", "degree": 3, "link_types": "sidewalk"}, "geometry": {"type": "Point", "coordinates": [396168.77, 138890.86]}}, {"type": "Feature", "properties": {"node_id": 58, "node_type": "endpoint", "degree": 1, "link_types": "sidewalk"}, "geometry": {"type": "Point", "coordinates": [396031.09, 138868.38]}}, {"type": "Feature", "properties": {"node_id": 59, "node_type": "junction", "degree": 3, "link_types": "sidewalk"}, "geometry": {"type": "Point", "coordinates": [396041.25, 138889.42]}}, {"type": "Feature", "properties": {"node_id": 60, "node_type": "junction", "degree": 3, "link_types": "sidewalk"}, "geometry": {"type": "Point", "coordinates": [395989.49, 139025.02]}}, {"type": "Feature", "properties": {"node_id": 61, "node_type": "type_change", "degree": 3, "link_types": "pseudo+sidewalk"}, "geometry": {"type": "Point", "coordinates": [395989.49, 139025.1]}}, {"type": "Feature", "properties": {"node_id": 62, "node_type": "type_change", "degree": 3, "link_types": "pseudo+sidewalk"}, "geometry": {"type": "Point", "coordinates": [395989.57, 139025.02]}}, {"type": "Feature", "properties": {"node_id": 63, "node_type": "endpoint", "degree": 1, "link_types": "sidewalk"}, "geometry": {"type": "Point", "coordinates": [395938.85, 139004.54]}}, {"type": "Feature", "properties": {"node_id": 64, "node_type": "endpoint", "degree": 1, "link_types": "sidewalk"}, "geometry": {"type": "Point", "coordinates": [396130.85, 139110.78]}}, {"type": "Feature", "properties": {"node_id": 65, "node_type": "junction", "degree": 3, "link_types": "sidewalk"}, "geometry": {"type": "Point", "coordinates": [396119.89, 139090.46]}}, {"type": "Feature", "properties": {"node_id": 66, "node_type": "junction", "degree": 3, "link_types": "sidewalk"}, "geometry": {"type": "Point", "coordinates": [396067.73, 138947.1]}}, {"type": "Feature", "properties": {"node_id": 67, "node_type": "type_change", "degree": 3, "link_types": "pseudo+sidewalk"}, "geometry": {"type": "Point", "coordinates": [396070.53, 138948.46]}}, {"type": "Feature", "properties": {"node_id": 68, "node_type": "junction", "degree": 3, "link_types": "sidewalk"}, "geometry": {"type": "Point", "coordinates": [396067.65, 138947.1]}}, {"type": "Feature", "properties": {"node_id": 69, "node_type": "type_change", "degree": 3, "link_types": "pseudo+sidewalk"}, "geometry": {"type": "Point", "coordinates": [396067.73, 138947.02]}}, {"type": "Feature", "properties": {"node_id": 70, "node_type": "junction", "degree": 3, "link_types": "sidewalk"}, "geometry": {"type": "Point", "coordinates": [396102.61, 139085.5]}}, {"type": "Feature", "properties": {"node_id": 71, "node_type": "junction", "degree": 3, "link_types": "sidewalk"}, "geometry": {"type": "Point", "coordinates": [396102.61, 139085.58]}}, {"type": "Feature", "properties": {"node_id": 72, "node_type": "junction", "degree": 3, "link_types": "sidewalk"}, "geometry": {"type": "Point", "coordinates": [396102.69, 139085.5]}}, {"type": "Feature", "properties": {"node_id": 73, "node_type": "junction", "degree": 3, "link_types": "sidewalk"}, "geometry": {"type": "Point", "coordinates": [396100.13, 139085.5]}}, {"type": "Feature", "properties": {"node_id": 74, "node_type": "junction", "degree": 3, "link_types": "sidewalk"}, "geometry": {"type": "Point", "coordinates": [396103.33, 139097.1]}}, {"type": "Feature", "properties": {"node_id": 75, "node_type": "endpoint", "degree": 1, "link_types": "sidewalk"}, "geometry": {"type": "Point", "coordinates": [396094.93, 139111.9]}}, {"type": "Feature", "properties": {"node_id": 76, "node_type": "endpoint", "degree": 1, "link_types": "sidewalk"}, "geometry": {"type": "Point", "coordinates": [396107.65, 139111.42]}}, {"type": "Feature", "properties": {"node_id": 77, "node_type": "junction", "degree": 3, "link_types": "sidewalk"}, "geometry": {"type": "Point", "coordinates": [396164.77, 139096.54]}}, {"type": "Feature", "properties": {"node_id": 78, "node_type": "junction", "degree": 3, "link_types": "sidewalk"}, "geometry": {"type": "Point", "coordinates": [396164.77, 139096.62]}}, {"type": "Feature", "properties": {"node_id": 79, "node_type": "type_change", "degree": 3, "link_types": "pseudo+sidewalk"}, "geometry": {"type": "Point", "coordinates": [396164.69, 139096.54]}}, {"type": "Feature", "properties": {"node_id": 80, "node_type": "junction", "degree": 3, "link_types": "sidewalk"}, "geometry": {"type": "Point", "coordinates": [396165.25, 139095.58]}}, {"type": "Feature", "properties": {"node_id": 81, "node_type": "endpoint", "degree": 1, "link_types": "sidewalk"}, "geometry": {"type": "Point", "coordinates": [395935.57, 138880.14]}}, {"type": "Feature", "properties": {"node_id": 82, "node_type": "junction", "degree": 3, "link_types": "sidewalk"}, "geometry": {"type": "Point", "coordinates": [396049.17, 138912.78]}}, {"type": "Feature", "properties": {"node_id": 83, "node_type": "junction", "degree": 3, "link_types": "sidewalk"}, "geometry": {"type": "Point", "coordinates": [396051.41, 138915.02]}}, {"type": "Feature", "properties": {"node_id": 84, "node_type": "junction", "degree": 3, "link_types": "sidewalk"}, "geometry": {"type": "Point", "coordinates": [396049.09, 138912.78]}}, {"type": "Feature", "properties": {"node_id": 85, "node_type": "type_change", "degree": 3, "link_types": "pseudo+sidewalk"}, "geometry": {"type": "Point", "coordinates": [396049.17, 138912.7]}}, {"type": "Feature", "properties": {"node_id": 86, "node_type": "endpoint", "degree": 1, "link_types": "sidewalk"}, "geometry": {"type": "Point", "coordinates": [396152.13, 139111.9]}}, {"type": "Feature", "properties": {"node_id": 87, "node_type": "type_change", "degree": 3, "link_types": "pseudo+sidewalk"}, "geometry": {"type": "Point", "coordinates": [396142.53, 139094.86]}}, {"type": "Feature", "properties": {"node_id": 88, "node_type": "type_change", "degree": 2, "link_types": "crosswalk+pseudo"}, "geometry": {"type": "Point", "coordinates": [395985.09, 139035.18]}}, {"type": "Feature", "properties": {"node_id": 89, "node_type": "type_change", "degree": 2, "link_types": "crosswalk+pseudo"}, "geometry": {"type": "Point", "coordinates": [395989.17, 139026.54]}}, {"type": "Feature", "properties": {"node_id": 90, "node_type": "junction", "degree": 3, "link_types": "sidewalk"}, "geometry": {"type": "Point", "coordinates": [396166.29, 138892.46]}}, {"type": "Feature", "properties": {"node_id": 91, "node_type": "type_change", "degree": 3, "link_types": "pseudo+sidewalk"}, "geometry": {"type": "Point", "coordinates": [396166.29, 138892.54]}}, {"type": "Feature", "properties": {"node_id": 92, "node_type": "type_change", "degree": 3, "link_types": "pseudo+sidewalk"}, "geometry": {"type": "Point", "coordinates": [396166.21, 138892.46]}}, {"type": "Feature", "properties": {"node_id": 93, "node_type": "junction", "degree": 3, "link_types": "sidewalk"}, "geometry": {"type": "Point", "coordinates": [396168.69, 138890.86]}}, {"type": "Feature", "properties": {"node_id": 94, "node_type": "junction", "degree": 3, "link_types": "sidewalk"}, "geometry": {"type": "Point", "coordinates": [396106.53, 138976.38]}}, {"type": "Feature", "properties": {"node_id": 95, "node_type": "junction", "degree": 3, "link_types": "sidewalk"}, "geometry": {"type": "Point", "coordinates": [396106.53, 138976.46]}}, {"type": "Feature", "properties": {"node_id": 96, "node_type": "junction", "degree": 3, "link_types": "sidewalk"}, "geometry": {"type": "Point", "coordinates": [396106.61, 138976.38]}}, {"type": "Feature", "properties": {"node_id": 97, "node_type": "type_change", "degree": 3, "link_types": "pseudo+sidewalk"}, "geometry": {"type": "Point", "coordinates": [396103.01, 138971.98]}}, {"type": "Feature", "properties": {"node_id": 98, "node_type": "junction", "degree": 3, "link_types": "sidewalk"}, "geometry": {"type": "Point", "coordinates": [396089.01, 139080.3]}}, {"type": "Feature", "properties": {"node_id": 99, "node_type": "endpoint", "degree": 1, "link_types": "sidewalk"}, "geometry": {"type": "Point", "coordinates": [396077.09, 139111.26]}}, {"type": "Feature", "properties": {"node_id": 100, "node_type": "type_change", "degree": 3, "link_types": "pseudo+sidewalk"}, "geometry": {"type": "Point", "coordinates": [396089.09, 139080.3]}}, {"type": "Feature", "properties": {"node_id": 101, "node_type": "junction", "degree": 3, "link_types": "sidewalk"}, "geometry": {"type": "Point", "coordinates": [396089.01, 139080.22]}}, {"type": "Feature", "properties": {"node_id": 102, "node_type": "endpoint", "degree": 1, "link_types": "sidewalk"}, "geometry": {"type": "Point", "coordinates": [395947.57, 138871.26]}}, {"type": "Feature", "properties": {"node_id": 103, "node_type": "junction", "degree": 3, "link_types": "sidewalk"}, "geometry": {"type": "Point", "coordinates": [395992.53, 139057.74]}}, {"type": "Feature", "properties": {"node_id": 104, "node_type": "type_change", "degree": 2, "link_types": "midblock+sidewalk"}, "geometry": {"type": "Point", "coordinates": [395982.324, 139081.266]}}, {"type": "Feature", "properties": {"node_id": 105, "node_type": "type_change", "degree": 2, "link_types": "midblock+sidewalk"}, "geometry": {"type": "Point", "coordinates": [395979.126, 139088.965]}}, {"type": "Feature", "properties": {"node_id": 106, "node_type": "endpoint", "degree": 1, "link_types": "sidewalk"}, "geometry": {"type": "Point", "coordinates": [395971.01, 139110.14]}}, {"type": "Feature", "properties": {"node_id": 107, "node_type": "endpoint", "degree": 1, "link_types": "sidewalk"}, "geometry": {"type": "Point", "coordinates": [395999.33, 139059.5]}}, {"type": "Feature", "properties": {"node_id": 108, "node_type": "type_change", "degree": 2, "link_types": "midblock+sidewalk"}, "geometry": {"type": "Point", "coordinates": [395993.117, 139052.547]}}, {"type": "Feature", "properties": {"node_id": 109, "node_type": "type_change", "degree": 2, "link_types": "midblock+sidewalk"}, "geometry": {"type": "Point", "coordinates": [395993.954, 139050.656]}}, {"type": "Feature", "properties": {"node_id": 110, "node_type": "type_change", "degree": 3, "link_types": "pseudo+sidewalk"}, "geometry": {"type": "Point", "coordinates": [396168.69, 138890.78]}}, {"type": "Feature", "properties": {"node_id": 111, "node_type": "endpoint", "degree": 1, "link_types": "sidewalk"}, "geometry": {"type": "Point", "coordinates": [396115.81, 139070.46]}}, {"type": "Feature", "properties": {"node_id": 112, "node_type": "junction", "degree": 3, "link_types": "sidewalk"}, "geometry": {"type": "Point", "coordinates": [396109.81, 139063.74]}}, {"type": "Feature", "properties": {"node_id": 113, "node_type": "endpoint", "degree": 1, "link_types": "sidewalk"}, "geometry": {"type": "Point", "coordinates": [396179.73, 139097.74]}}, {"type": "Feature", "properties": {"node_id": 114, "node_type": "type_change", "degree": 2, "link_types": "pseudo+sidewalk"}, "geometry": {"type": "Point", "coordinates": [396165.17, 139095.5]}}, {"type": "Feature", "properties": {"node_id": 115, "node_type": "type_change", "degree": 2, "link_types": "crosswalk+pseudo"}, "geometry": {"type": "Point", "coordinates": [396163.81, 139093.66]}}, {"type": "Feature", "properties": {"node_id": 116, "node_type": "type_change", "degree": 2, "link_types": "crosswalk+pseudo"}, "geometry": {"type": "Point", "coordinates": [396160.45, 139083.9]}}, {"type": "Feature", "properties": {"node_id": 117, "node_type": "type_change", "degree": 3, "link_types": "pseudo+sidewalk"}, "geometry": {"type": "Point", "coordinates": [396160.45, 139082.54]}}, {"type": "Feature", "properties": {"node_id": 118, "node_type": "junction", "degree": 3, "link_types": "sidewalk"}, "geometry": {"type": "Point", "coordinates": [396107.49, 139023.26]}}, {"type": "Feature", "properties": {"node_id": 119, "node_type": "type_change", "degree": 3, "link_types": "pseudo+sidewalk"}, "geometry": {"type": "Point", "coordinates": [396107.57, 139023.26]}}, {"type": "Feature", "properties": {"node_id": 120, "node_type": "junction", "degree": 3, "link_types": "sidewalk"}, "geometry": {"type": "Point", "coordinates": [396103.33, 139013.98]}}, {"type": "Feature", "properties": {"node_id": 121, "node_type": "junction", "degree": 3, "link_types": "pseudo"}, "geometry": {"type": "Point", "coordinates": [396116.21, 138998.06]}}, {"type": "Feature", "properties": {"node_id": 122, "node_type": "type_change", "degree": 2, "link_types": "pseudo+sidewalk"}, "geometry": {"type": "Point", "coordinates": [396116.29, 138998.14]}}, {"type": "Feature", "properties": {"node_id": 123, "node_type": "type_change", "degree": 2, "link_types": "pseudo+sidewalk"}, "geometry": {"type": "Point", "coordinates": [396116.45, 138999.26]}}, {"type": "Feature", "properties": {"node_id": 124, "node_type": "type_change", "degree": 2, "link_types": "crosswalk+pseudo"}, "geometry": {"type": "Point", "coordinates": [396117.33, 139000.54]}}, {"type": "Feature", "properties": {"node_id": 125, "node_type": "type_change", "degree": 2, "link_types": "crosswalk+pseudo"}, "geometry": {"type": "Point", "coordinates": [396124.13, 139012.7]}}, {"type": "Feature", "properties": {"node_id": 126, "node_type": "type_change", "degree": 3, "link_types": "pseudo+sidewalk"}, "geometry": {"type": "Point", "coordinates": [396125.25, 139014.94]}}, {"type": "Feature", "properties": {"node_id": 127, "node_type": "type_change", "degree": 2, "link_types": "crosswalk+pseudo"}, "geometry": {"type": "Point", "coordinates": [396113.81, 138998.14]}}, {"type": "Feature", "properties": {"node_id": 128, "node_type": "type_change", "degree": 2, "link_types": "crosswalk+pseudo"}, "geometry": {"type": "Point", "coordinates": [396108.37, 139022.86]}}, {"type": "Feature", "properties": {"node_id": 129, "node_type": "type_change", "degree": 2, "link_types": "pseudo+sidewalk"}, "geometry": {"type": "Point", "coordinates": [396116.29, 138997.98]}}, {"type": "Feature", "properties": {"node_id": 130, "node_type": "junction", "degree": 3, "link_types": "sidewalk"}, "geometry": {"type": "Point", "coordinates": [396116.45, 138995.82]}}, {"type": "Feature", "properties": {"node_id": 131, "node_type": "junction", "degree": 3, "link_types": "midblock"}, "geometry": {"type": "Point", "coordinates": [396053.33, 138871.5]}}, {"type": "Feature", "properties": {"node_id": 132, "node_type": "type_change", "degree": 2, "link_types": "midblock+sidewalk"}, "geometry": {"type": "Point", "coordinates": [396053.712, 138872.542]}}, {"type": "Feature", "properties": {"node_id": 133, "node_type": "type_change", "degree": 3, "link_types": "pseudo+sidewalk"}, "geometry": {"type": "Point", "coordinates": [396057.73, 138879.9]}}, {"type": "Feature", "properties": {"node_id": 134, "node_type": "endpoint", "degree": 1, "link_types": "midblock"}, "geometry": {"type": "Point", "coordinates": [396052.05, 138868.46]}}, {"type": "Feature", "properties": {"node_id": 135, "node_type": "type_change", "degree": 2, "link_types": "midblock+sidewalk"}, "geometry": {"type": "Point", "coordinates": [396054.236, 138871.211]}}, {"type": "Feature", "properties": {"node_id": 136, "node_type": "endpoint", "degree": 1, "link_types": "sidewalk"}, "geometry": {"type": "Point", "coordinates": [396065.49, 138870.46]}}, {"type": "Feature", "properties": {"node_id": 137, "node_type": "junction", "degree": 3, "link_types": "sidewalk"}, "geometry": {"type": "Point", "coordinates": [396087.81, 139077.58]}}, {"type": "Feature", "properties": {"node_id": 138, "node_type": "junction", "degree": 3, "link_types": "sidewalk"}, "geometry": {"type": "Point", "coordinates": [396092.37, 139065.74]}}, {"type": "Feature", "properties": {"node_id": 139, "node_type": "type_change", "degree": 3, "link_types": "pseudo+sidewalk"}, "geometry": {"type": "Point", "coordinates": [396092.37, 139065.82]}}, {"type": "Feature", "properties": {"node_id": 140, "node_type": "type_change", "degree": 2, "link_types": "midblock+sidewalk"}, "geometry": {"type": "Point", "coordinates": [396063.721, 139054.158]}}, {"type": "Feature", "properties": {"node_id": 141, "node_type": "type_change", "degree": 2, "link_types": "midblock+sidewalk"}, "geometry": {"type": "Point", "coordinates": [396056.796, 139051.698]}}, {"type": "Feature", "properties": {"node_id": 142, "node_type": "junction", "degree": 3, "link_types": "sidewalk"}, "geometry": {"type": "Point", "coordinates": [396002.77, 139029.02]}}, {"type": "Feature", "properties": {"node_id": 143, "node_type": "endpoint", "degree": 1, "link_types": "sidewalk"}, "geometry": {"type": "Point", "coordinates": [396083.01, 138973.74]}}, {"type": "Feature", "properties": {"node_id": 144, "node_type": "junction", "degree": 3, "link_types": "pseudo"}, "geometry": {"type": "Point", "coordinates": [396032.53, 138918.86]}}, {"type": "Feature", "properties": {"node_id": 145, "node_type": "type_change", "degree": 2, "link_types": "crosswalk+pseudo"}, "geometry": {"type": "Point", "coordinates": [396032.93, 138920.3]}}, {"type": "Feature", "properties": {"node_id": 146, "node_type": "endpoint", "degree": 1, "link_types": "crosswalk"}, "geometry": {"type": "Point", "coordinates": [396031.17, 138937.02]}}, {"type": "Feature", "properties": {"node_id": 147, "node_type": "type_change", "degree": 3, "link_types": "pseudo+sidewalk"}, "geometry": {"type": "Point", "coordinates": [396032.53, 138918.78]}}, {"type": "Feature", "properties": {"node_id": 148, "node_type": "junction", "degree": 3, "link_types": "pseudo"}, "geometry": {"type": "Point", "coordinates": [396153.73, 138888.86]}}, {"type": "Feature", "properties": {"node_id": 149, "node_type": "type_change", "degree": 2, "link_types": "crosswalk+pseudo"}, "geometry": {"type": "Point", "coordinates": [396155.41, 138889.74]}}, {"type": "Feature", "properties": {"node_id": 150, "node_type": "type_change", "degree": 2, "link_types": "crosswalk+pseudo"}, "geometry": {"type": "Point", "coordinates": [396164.69, 138891.66]}}, {"type": "Feature", "properties": {"node_id": 151, "node_type": "type_change", "degree": 3, "link_types": "pseudo+sidewalk"}, "geometry": {"type": "Point", "coordinates": [396153.65, 138888.86]}}, {"type": "Feature", "properties": {"node_id": 152, "node_type": "endpoint", "degree": 1, "link_types": "sidewalk"}, "geometry": {"type": "Point", "coordinates": [396043.41, 138923.74]}}, {"type": "Feature", "properties": {"node_id": 153, "node_type": "endpoint", "degree": 1, "link_types": "sidewalk"}, "geometry": {"type": "Point", "coordinates": [396046.13, 138927.34]}}, {"type": "Feature", "properties": {"node_id": 154, "node_type": "junction", "degree": 3, "link_types": "sidewalk"}, "geometry": {"type": "Point", "coordinates": [396120.05, 138983.26]}}, {"type": "Feature", "properties": {"node_id": 155, "node_type": "junction", "degree": 3, "link_types": "sidewalk"}, "geometry": {"type": "Point", "coordinates": [396120.85, 138985.18]}}, {"type": "Feature", "properties": {"node_id": 156, "node_type": "type_change", "degree": 2, "link_types": "pseudo+sidewalk"}, "geometry": {"type": "Point", "coordinates": [396120.13, 138983.18]}}, {"type": "Feature", "properties": {"node_id": 157, "node_type": "type_change", "degree": 2, "link_types": "crosswalk+pseudo"}, "geometry": {"type": "Point", "coordinates": [396121.01, 138982.3]}}, {"type": "Feature", "properties": {"node_id": 158, "node_type": "type_change", "degree": 2, "link_types": "crosswalk+pseudo"}, "geometry": {"type": "Point", "coordinates": [396123.73, 138971.42]}}, {"type": "Feature", "properties": {"node_id": 159, "node_type": "junction", "degree": 3, "link_types": "pseudo"}, "geometry": {"type": "Point", "coordinates": [396124.21, 138968.86]}}, {"type": "Feature", "properties": {"node_id": 160, "node_type": "junction", "degree": 3, "link_types": "sidewalk"}, "geometry": {"type": "Point", "coordinates": [396002.77, 139028.94]}}, {"type": "Feature", "properties": {"node_id": 161, "node_type": "type_change", "degree": 3, "link_types": "pseudo+sidewalk"}, "geometry": {"type": "Point", "coordinates": [396002.69, 139028.94]}}, {"type": "Feature", "properties": {"node_id": 162, "node_type": "type_change", "degree": 2, "link_types": "midblock+sidewalk"}, "geometry": {"type": "Point", "coordinates": [396017.837, 138989.89]}}, {"type": "Feature", "properties": {"node_id": 163, "node_type": "type_change", "degree": 2, "link_types": "midblock+sidewalk"}, "geometry": {"type": "Point", "coordinates": [396020.275, 138983.836]}}, {"type": "Feature", "properties": {"node_id": 164, "node_type": "type_change", "degree": 2, "link_types": "midblock+sidewalk"}, "geometry": {"type": "Point", "coordinates": [396022.023, 138979.56]}}, {"type": "Feature", "properties": {"node_id": 165, "node_type": "type_change", "degree": 2, "link_types": "midblock+sidewalk"}, "geometry": {"type": "Point", "coordinates": [396024.187, 138974.337]}}, {"type": "Feature", "properties": {"node_id": 166, "node_type": "endpoint", "degree": 1, "link_types": "sidewalk"}, "geometry": {"type": "Point", "coordinates": [396035.65, 138946.7]}}, {"type": "Feature", "properties": {"node_id": 167, "node_type": "junction", "degree": 3, "link_types": "sidewalk"}, "geometry": {"type": "Point", "coordinates": [396125.25, 139015.02]}}, {"type": "Feature", "properties": {"node_id": 168, "node_type": "type_change", "degree": 3, "link_types": "pseudo+sidewalk"}, "geometry": {"type": "Point", "coordinates": [396127.25, 139022.06]}}, {"type": "Feature", "properties": {"node_id": 169, "node_type": "type_change", "degree": 3, "link_types": "pseudo+sidewalk"}, "geometry": {"type": "Point", "coordinates": [396125.33, 139015.02]}}, {"type": "Feature", "properties": {"node_id": 170, "node_type": "endpoint", "degree": 1, "link_types": "sidewalk"}, "geometry": {"type": "Point", "coordinates": [395955.09, 139111.82]}}, {"type": "Feature", "properties": {"node_id": 171, "node_type": "type_change", "degree": 2, "link_types": "pseudo+sidewalk"}, "geometry": {"type": "Point", "coordinates": [396103.41, 139013.9]}}, {"type": "Feature", "properties": {"node_id": 172, "node_type": "type_change", "degree": 2, "link_types": "crosswalk+pseudo"}, "geometry": {"type": "Point", "coordinates": [396104.85, 139013.18]}}, {"type": "Feature", "properties": {"node_id": 173, "node_type": "type_change", "degree": 2, "link_types": "crosswalk+pseudo"}, "geometry": {"type": "Point", "coordinates": [396105.97, 139015.74]}}, {"type": "Feature", "properties": {"node_id": 174, "node_type": "endpoint", "degree": 1, "link_types": "pseudo"}, "geometry": {"type": "Point", "coordinates": [396107.09, 139016.22]}}, {"type": "Feature", "properties": {"node_id": 175, "node_type": "junction", "degree": 3, "link_types": "sidewalk"}, "geometry": {"type": "Point", "coordinates": [396133.01, 139079.26]}}, {"type": "Feature", "properties": {"node_id": 176, "node_type": "type_change", "degree": 3, "link_types": "pseudo+sidewalk"}, "geometry": {"type": "Point", "coordinates": [396133.01, 139079.34]}}, {"type": "Feature", "properties": {"node_id": 177, "node_type": "junction", "degree": 3, "link_types": "sidewalk"}, "geometry": {"type": "Point", "coordinates": [396132.93, 139079.26]}}, {"type": "Feature", "properties": {"node_id": 178, "node_type": "junction", "degree": 3, "link_types": "sidewalk"}, "geometry": {"type": "Point", "coordinates": [396133.89, 139078.94]}}, {"type": "Feature", "properties": {"node_id": 179, "node_type": "endpoint", "degree": 1, "link_types": "sidewalk"}, "geometry": {"type": "Point", "coordinates": [396131.01, 138999.26]}}, {"type": "Feature", "properties": {"node_id": 180, "node_type": "junction", "degree": 3, "link_types": "sidewalk"}, "geometry": {"type": "Point", "coordinates": [396120.85, 138985.26]}}, {"type": "Feature", "properties": {"node_id": 181, "node_type": "junction", "degree": 3, "link_types": "sidewalk"}, "geometry": {"type": "Point", "coordinates": [396088.37, 138943.5]}}, {"type": "Feature", "properties": {"node_id": 182, "node_type": "junction", "degree": 3, "link_types": "sidewalk"}, "geometry": {"type": "Point", "coordinates": [396090.37, 138947.74]}}, {"type": "Feature", "properties": {"node_id": 183, "node_type": "type_change", "degree": 3, "link_types": "pseudo+sidewalk"}, "geometry": {"type": "Point", "coordinates": [396088.29, 138943.5]}}, {"type": "Feature", "properties": {"node_id": 184, "node_type": "type_change", "degree": 3, "link_types": "pseudo+sidewalk"}, "geometry": {"type": "Point", "coordinates": [396088.37, 138943.42]}}, {"type": "Feature", "properties": {"node_id": 185, "node_type": "junction", "degree": 3, "link_types": "sidewalk"}, "geometry": {"type": "Point", "coordinates": [396159.57, 138992.94]}}, {"type": "Feature", "properties": {"node_id": 186, "node_type": "junction", "degree": 3, "link_types": "sidewalk"}, "geometry": {"type": "Point", "coordinates": [396159.49, 138993.02]}}, {"type": "Feature", "properties": {"node_id": 187, "node_type": "junction", "degree": 3, "link_types": "sidewalk"}, "geometry": {"type": "Point", "coordinates": [396159.49, 138992.94]}}, {"type": "Feature", "properties": {"node_id": 188, "node_type": "endpoint", "degree": 1, "link_types": "sidewalk"}, "geometry": {"type": "Point", "coordinates": [396178.77, 138992.94]}}, {"type": "Feature", "properties": {"node_id": 189, "node_type": "junction", "degree": 3, "link_types": "sidewalk"}, "geometry": {"type": "Point", "coordinates": [396042.77, 138893.9]}}, {"type": "Feature", "properties": {"node_id": 190, "node_type": "type_change", "degree": 3, "link_types": "pseudo+sidewalk"}, "geometry": {"type": "Point", "coordinates": [396042.85, 138893.9]}}, {"type": "Feature", "properties": {"node_id": 191, "node_type": "junction", "degree": 3, "link_types": "sidewalk"}, "geometry": {"type": "Point", "coordinates": [396042.77, 138893.82]}}, {"type": "Feature", "properties": {"node_id": 192, "node_type": "type_change", "degree": 3, "link_types": "pseudo+sidewalk"}, "geometry": {"type": "Point", "coordinates": [396124.21, 138968.78]}}, {"type": "Feature", "properties": {"node_id": 193, "node_type": "type_change", "degree": 3, "link_types": "pseudo+sidewalk"}, "geometry": {"type": "Point", "coordinates": [396124.29, 138968.78]}}, {"type": "Feature", "properties": {"node_id": 194, "node_type": "type_change", "degree": 2, "link_types": "crosswalk+pseudo"}, "geometry": {"type": "Point", "coordinates": [395992.53, 139025.18]}}, {"type": "Feature", "properties": {"node_id": 195, "node_type": "type_change", "degree": 2, "link_types": "crosswalk+pseudo"}, "geometry": {"type": "Point", "coordinates": [396001.25, 139028.7]}}, {"type": "Feature", "properties": {"node_id": 196, "node_type": "junction", "degree": 3, "link_types": "sidewalk"}, "geometry": {"type": "Point", "coordinates": [396103.01, 138971.9]}}, {"type": "Feature", "properties": {"node_id": 197, "node_type": "type_change", "degree": 3, "link_types": "pseudo+sidewalk"}, "geometry": {"type": "Point", "coordinates": [396102.93, 138971.9]}}, {"type": "Feature", "properties": {"node_id": 198, "node_type": "type_change", "degree": 2, "link_types": "pseudo+sidewalk"}, "geometry": {"type": "Point", "coordinates": [396103.01, 138971.74]}}, {"type": "Feature", "properties": {"node_id": 199, "node_type": "type_change", "degree": 2, "link_types": "crosswalk+pseudo"}, "geometry": {"type": "Point", "coordinates": [396101.65, 138969.5]}}, {"type": "Feature", "properties": {"node_id": 200, "node_type": "type_change", "degree": 3, "link_types": "crosswalk+sidewalk"}, "geometry": {"type": "Point", "coordinates": [396092.21, 138949.26]}}, {"type": "Feature", "properties": {"node_id": 201, "node_type": "junction", "degree": 3, "link_types": "sidewalk"}, "geometry": {"type": "Point", "coordinates": [396116.93, 139046.06]}}, {"type": "Feature", "properties": {"node_id": 202, "node_type": "type_change", "degree": 2, "link_types": "pseudo+sidewalk"}, "geometry": {"type": "Point", "coordinates": [396113.49, 139045.34]}}, {"type": "Feature", "properties": {"node_id": 203, "node_type": "type_change", "degree": 2, "link_types": "crosswalk+pseudo"}, "geometry": {"type": "Point", "coordinates": [396112.69, 139042.06]}}, {"type": "Feature", "properties": {"node_id": 204, "node_type": "type_change", "degree": 2, "link_types": "crosswalk+pseudo"}, "geometry": {"type": "Point", "coordinates": [396126.77, 139022.3]}}, {"type": "Feature", "properties": {"node_id": 205, "node_type": "junction", "degree": 3, "link_types": "sidewalk"}, "geometry": {"type": "Point", "coordinates": [396051.49, 138915.02]}}, {"type": "Feature", "properties": {"node_id": 206, "node_type": "junction", "degree": 3, "link_types": "sidewalk"}, "geometry": {"type": "Point", "coordinates": [396051.49, 138915.1]}}, {"type": "Feature", "properties": {"node_id": 207, "node_type": "endpoint", "degree": 1, "link_types": "sidewalk"}, "geometry": {"type": "Point", "coordinates": [396051.89, 138907.82]}}, {"type": "Feature", "properties": {"node_id": 208, "node_type": "type_change", "degree": 2, "link_types": "midblock+sidewalk"}, "geometry": {"type": "Point", "coordinates": [396131.775, 138953.19]}}, {"type": "Feature", "properties": {"node_id": 209, "node_type": "type_change", "degree": 2, "link_types": "midblock+sidewalk"}, "geometry": {"type": "Point", "coordinates": [396133.069, 138948.88]}}, {"type": "Feature", "properties": {"node_id": 210, "node_type": "endpoint", "degree": 1, "link_types": "sidewalk"}, "geometry": {"type": "Point", "coordinates": [396037.09, 138942.46]}}, {"type": "Feature", "properties": {"node_id": 211, "node_type": "junction", "degree": 3, "link_types": "sidewalk"}, "geometry": {"type": "Point", "coordinates": [396080.29, 138968.22]}}, {"type": "Feature", "properties": {"node_id": 212, "node_type": "endpoint", "degree": 1, "link_types": "sidewalk"}, "geometry": {"type": "Point", "coordinates": [396081.17, 138970.06]}}, {"type": "Feature", "properties": {"node_id": 213, "node_type": "type_change", "degree": 2, "link_types": "midblock+sidewalk"}, "geometry": {"type": "Point", "coordinates": [396075.94, 138959.414]}}, {"type": "Feature", "properties": {"node_id": 214, "node_type": "type_change", "degree": 2, "link_types": "midblock+sidewalk"}, "geometry": {"type": "Point", "coordinates": [396073.571, 138954.617]}}, {"type": "Feature", "properties": {"node_id": 215, "node_type": "type_change", "degree": 2, "link_types": "pseudo+sidewalk"}, "geometry": {"type": "Point", "coordinates": [396080.37, 138968.14]}}, {"type": "Feature", "properties": {"node_id": 216, "node_type": "type_change", "degree": 2, "link_types": "crosswalk+pseudo"}, "geometry": {"type": "Point", "coordinates": [396081.41, 138967.58]}}, {"type": "Feature", "properties": {"node_id": 217, "node_type": "type_change", "degree": 2, "link_types": "crosswalk+pseudo"}, "geometry": {"type": "Point", "coordinates": [396100.61, 138971.26]}}, {"type": "Feature", "properties": {"node_id": 218, "node_type": "type_change", "degree": 3, "link_types": "pseudo+sidewalk"}, "geometry": {"type": "Point", "coordinates": [396139.41, 139092.94]}}, {"type": "Feature", "properties": {"node_id": 219, "node_type": "endpoint", "degree": 1, "link_types": "sidewalk"}, "geometry": {"type": "Point", "coordinates": [396179.17, 138877.58]}}, {"type": "Feature", "properties": {"node_id": 220, "node_type": "junction", "degree": 3, "link_types": "sidewalk"}, "geometry": {"type": "Point", "coordinates": [396172.77, 138877.98]}}, {"type": "Feature", "properties": {"node_id": 221, "node_type": "junction", "degree": 3, "link_types": "crosswalk"}, "geometry": {"type": "Point", "coordinates": [396091.97, 138949.02]}}, {"type": "Feature", "properties": {"node_id": 222, "node_type": "type_change", "degree": 2, "link_types": "crosswalk+sidewalk"}, "geometry": {"type": "Point", "coordinates": [396092.13, 138949.18]}}, {"type": "Feature", "properties": {"node_id": 223, "node_type": "type_change", "degree": 3, "link_types": "crosswalk+sidewalk"}, "geometry": {"type": "Point", "coordinates": [396091.89, 138949.02]}}, {"type": "Feature", "properties": {"node_id": 224, "node_type": "junction", "degree": 3, "link_types": "crosswalk"}, "geometry": {"type": "Point", "coordinates": [396091.97, 138948.94]}}, {"type": "Feature", "properties": {"node_id": 225, "node_type": "type_change", "degree": 2, "link_types": "pseudo+sidewalk"}, "geometry": {"type": "Point", "coordinates": [396087.89, 139077.5]}}, {"type": "Feature", "properties": {"node_id": 226, "node_type": "type_change", "degree": 2, "link_types": "crosswalk+pseudo"}, "geometry": {"type": "Point", "coordinates": [396088.45, 139076.62]}}, {"type": "Feature", "properties": {"node_id": 227, "node_type": "type_change", "degree": 2, "link_types": "crosswalk+pseudo"}, "geometry": {"type": "Point", "coordinates": [396092.29, 139067.18]}}, {"type": "Feature", "properties": {"node_id": 228, "node_type": "endpoint", "degree": 1, "link_types": "sidewalk"}, "geometry": {"type": "Point", "coordinates": [396158.85, 139001.18]}}, {"type": "Feature", "properties": {"node_id": 229, "node_type": "type_change", "degree": 2, "link_types": "pseudo+sidewalk"}, "geometry": {"type": "Point", "coordinates": [396090.45, 138947.66]}}, {"type": "Feature", "properties": {"node_id": 230, "node_type": "type_change", "degree": 2, "link_types": "crosswalk+pseudo"}, "geometry": {"type": "Point", "coordinates": [396091.17, 138947.34]}}, {"type": "Feature", "properties": {"node_id": 231, "node_type": "endpoint", "degree": 1, "link_types": "sidewalk"}, "geometry": {"type": "Point", "coordinates": [396178.85, 139081.82]}}, {"type": "Feature", "properties": {"node_id": 232, "node_type": "junction", "degree": 3, "link_types": "pseudo"}, "geometry": {"type": "Point", "coordinates": [396059.73, 138927.42]}}, {"type": "Feature", "properties": {"node_id": 233, "node_type": "type_change", "degree": 2, "link_types": "pseudo+sidewalk"}, "geometry": {"type": "Point", "coordinates": [396059.65, 138927.5]}}, {"type": "Feature", "properties": {"node_id": 234, "node_type": "endpoint", "degree": 1, "link_types": "sidewalk"}, "geometry": {"type": "Point", "coordinates": [396058.29, 138930.54]}}, {"type": "Feature", "properties": {"node_id": 235, "node_type": "type_change", "degree": 2, "link_types": "crosswalk+pseudo"}, "geometry": {"type": "Point", "coordinates": [396061.09, 138927.5]}}, {"type": "Feature", "properties": {"node_id": 236, "node_type": "type_change", "degree": 2, "link_types": "crosswalk+pseudo"}, "geometry": {"type": "Point", "coordinates": [396067.97, 138945.42]}}, {"type": "Feature", "properties": {"node_id": 237, "node_type": "type_change", "degree": 2, "link_types": "pseudo+sidewalk"}, "geometry": {"type": "Point", "coordinates": [396059.65, 138927.34]}}, {"type": "Feature", "properties": {"node_id": 238, "node_type": "endpoint", "degree": 1, "link_types": "sidewalk"}, "geometry": {"type": "Point", "coordinates": [396098.53, 139086.94]}}, {"type": "Feature", "properties": {"node_id": 239, "node_type": "type_change", "degree": 3, "link_types": "pseudo+sidewalk"}, "geometry": {"type": "Point", "coordinates": [396100.05, 139085.5]}}, {"type": "Feature", "properties": {"node_id": 240, "node_type": "junction", "degree": 3, "link_types": "sidewalk"}, "geometry": {"type": "Point", "coordinates": [396134.05, 138993.02]}}, {"type": "Feature", "properties": {"node_id": 241, "node_type": "junction", "degree": 3, "link_types": "sidewalk"}, "geometry": {"type": "Point", "coordinates": [396134.13, 138993.02]}}, {"type": "Feature", "properties": {"node_id": 242, "node_type": "type_change", "degree": 3, "link_types": "pseudo+sidewalk"}, "geometry": {"type": "Point", "coordinates": [396134.05, 138992.94]}}, {"type": "Feature", "properties": {"node_id": 243, "node_type": "type_change", "degree": 2, "link_types": "crosswalk+pseudo"}, "geometry": {"type": "Point", "coordinates": [396090.37, 139080.54]}}, {"type": "Feature", "properties": {"node_id": 244, "node_type": "type_change", "degree": 2, "link_types": "crosswalk+pseudo"}, "geometry": {"type": "Point", "coordinates": [396099.49, 139084.3]}}, {"type": "Feature", "properties": {"node_id": 245, "node_type": "type_change", "degree": 3, "link_types": "pseudo+sidewalk"}, "geometry": {"type": "Point", "coordinates": [396100.05, 139085.42]}}, {"type": "Feature", "properties": {"node_id": 246, "node_type": "endpoint", "degree": 1, "link_types": "sidewalk"}, "geometry": {"type": "Point", "coordinates": [396048.29, 138912.86]}}, {"type": "Feature", "properties": {"node_id": 247, "node_type": "type_change", "degree": 2, "link_types": "crosswalk+pseudo"}, "geometry": {"type": "Point", "coordinates": [396086.93, 138944.14]}}, {"type": "Feature", "properties": {"node_id": 248, "node_type": "type_change", "degree": 2, "link_types": "crosswalk+pseudo"}, "geometry": {"type": "Point", "coordinates": [396071.17, 138947.74]}}, {"type": "Feature", "properties": {"node_id": 249, "node_type": "endpoint", "degree": 1, "link_types": "sidewalk"}, "geometry": {"type": "Point", "coordinates": [396166.69, 139105.18]}}, {"type": "Feature", "properties": {"node_id": 250, "node_type": "type_change", "degree": 2, "link_types": "crosswalk+pseudo"}, "geometry": {"type": "Point", "coordinates": [396162.45, 139096.3]}}, {"type": "Feature", "properties": {"node_id": 251, "node_type": "type_change", "degree": 2, "link_types": "crosswalk+pseudo"}, "geometry": {"type": "Point", "coordinates": [396143.01, 139094.38]}}, {"type": "Feature", "properties": {"node_id": 252, "node_type": "endpoint", "degree": 1, "link_types": "sidewalk"}, "geometry": {"type": "Point", "coordinates": [396177.17, 138866.62]}}, {"type": "Feature", "properties": {"node_id": 253, "node_type": "endpoint", "degree": 1, "link_types": "sidewalk"}, "geometry": {"type": "Point", "coordinates": [396128.61, 139016.3]}}, {"type": "Feature", "properties": {"node_id": 254, "node_type": "type_change", "degree": 2, "link_types": "crosswalk+pseudo"}, "geometry": {"type": "Point", "coordinates": [396049.73, 138911.1]}}, {"type": "Feature", "properties": {"node_id": 255, "node_type": "type_change", "degree": 2, "link_types": "crosswalk+pseudo"}, "geometry": {"type": "Point", "coordinates": [396044.29, 138894.14]}}, {"type": "Feature", "properties": {"node_id": 256, "node_type": "type_change", "degree": 2, "link_types": "pseudo+sidewalk"}, "geometry": {"type": "Point", "coordinates": [396133.97, 139078.94]}}, {"type": "Feature", "properties": {"node_id": 257, "node_type": "type_change", "degree": 2, "link_types": "crosswalk+pseudo"}, "geometry": {"type": "Point", "coordinates": [396136.77, 139079.02]}}, {"type": "Feature", "properties": {"node_id": 258, "node_type": "type_change", "degree": 2, "link_types": "crosswalk+pseudo"}, "geometry": {"type": "Point", "coordinates": [396157.41, 139081.26]}}, {"type": "Feature", "properties": {"node_id": 259, "node_type": "type_change", "degree": 2, "link_types": "pseudo+sidewalk"}, "geometry": {"type": "Point", "coordinates": [396157.33, 139081.74]}}, {"type": "Feature", "properties": {"node_id": 260, "node_type": "type_change", "degree": 2, "link_types": "pseudo+sidewalk"}, "geometry": {"type": "Point", "coordinates": [396041.33, 138889.34]}}, {"type": "Feature", "properties": {"node_id": 261, "node_type": "type_change", "degree": 2, "link_types": "crosswalk+pseudo"}, "geometry": {"type": "Point", "coordinates": [396042.61, 138888.7]}}, {"type": "Feature", "properties": {"node_id": 262, "node_type": "type_change", "degree": 2, "link_types": "crosswalk+pseudo"}, "geometry": {"type": "Point", "coordinates": [396055.97, 138881.58]}}, {"type": "Feature", "properties": {"node_id": 263, "node_type": "type_change", "degree": 2, "link_types": "pseudo+sidewalk"}, "geometry": {"type": "Point", "coordinates": [396172.45, 138875.26]}}, {"type": "Feature", "properties": {"node_id": 264, "node_type": "type_change", "degree": 2, "link_types": "pseudo+sidewalk"}, "geometry": {"type": "Point", "coordinates": [396172.69, 138878.06]}}, {"type": "Feature", "properties": {"node_id": 265, "node_type": "type_change", "degree": 2, "link_types": "crosswalk+pseudo"}, "geometry": {"type": "Point", "coordinates": [396171.65, 138879.34]}}, {"type": "Feature", "properties": {"node_id": 266, "node_type": "type_change", "degree": 2, "link_types": "crosswalk+pseudo"}, "geometry": {"type": "Point", "coordinates": [396168.13, 138889.26]}}, {"type": "Feature", "properties": {"node_id": 267, "node_type": "junction", "degree": 3, "link_types": "sidewalk"}, "geometry": {"type": "Point", "coordinates": [396139.01, 138979.5]}}, {"type": "Feature", "properties": {"node_id": 268, "node_type": "type_change", "degree": 2, "link_types": "pseudo+sidewalk"}, "geometry": {"type": "Point", "coordinates": [396138.93, 138979.58]}}, {"type": "Feature", "properties": {"node_id": 269, "node_type": "type_change", "degree": 2, "link_types": "crosswalk+pseudo"}, "geometry": {"type": "Point", "coordinates": [396137.57, 138980.86]}}, {"type": "Feature", "properties": {"node_id": 270, "node_type": "type_change", "degree": 2, "link_types": "crosswalk+pseudo"}, "geometry": {"type": "Point", "coordinates": [396133.89, 138992.22]}}, {"type": "Feature", "properties": {"node_id": 271, "node_type": "endpoint", "degree": 1, "link_types": "sidewalk"}, "geometry": {"type": "Point", "coordinates": [396179.97, 138982.22]}}, {"type": "Feature", "properties": {"node_id": 272, "node_type": "type_change", "degree": 3, "link_types": "pseudo+sidewalk"}, "geometry": {"type": "Point", "coordinates": [396138.05, 138977.66]}}, {"type": "Feature", "properties": {"node_id": 273, "node_type": "endpoint", "degree": 1, "link_types": "sidewalk"}, "geometry": {"type": "Point", "coordinates": [396155.81, 139076.54]}}, {"type": "Feature", "properties": {"node_id": 274, "node_type": "type_change", "degree": 2, "link_types": "midblock+sidewalk"}, "geometry": {"type": "Point", "coordinates": [396136.799, 139041.388]}}, {"type": "Feature", "properties": {"node_id": 275, "node_type": "type_change", "degree": 2, "link_types": "midblock+sidewalk"}, "geometry": {"type": "Point", "coordinates": [396132.821, 139032.393]}}, {"type": "Feature", "properties": {"node_id": 276, "node_type": "type_change", "degree": 2, "link_types": "midblock+sidewalk"}, "geometry": {"type": "Point", "coordinates": [396154.012, 138930.607]}}, {"type": "Feature", "properties": {"node_id": 277, "node_type": "type_change", "degree": 2, "link_types": "midblock+sidewalk"}, "geometry": {"type": "Point", "coordinates": [396150.638, 138937.99]}}, {"type": "Feature", "properties": {"node_id": 278, "node_type": "type_change", "degree": 2, "link_types": "crosswalk+pseudo"}, "geometry": {"type": "Point", "coordinates": [396135.97, 138977.66]}}, {"type": "Feature", "properties": {"node_id": 279, "node_type": "type_change", "degree": 2, "link_types": "crosswalk+pseudo"}, "geometry": {"type": "Point", "coordinates": [396127.57, 138970.38]}}, {"type": "Feature", "properties": {"node_id": 280, "node_type": "endpoint", "degree": 1, "link_types": "pseudo"}, "geometry": {"type": "Point", "coordinates": [396129.41, 138969.34]}}, {"type": "Feature", "properties": {"node_id": 281, "node_type": "type_change", "degree": 2, "link_types": "midblock+sidewalk"}, "geometry": {"type": "Point", "coordinates": [396072.504, 138912.023]}}, {"type": "Feature", "properties": {"node_id": 282, "node_type": "type_change", "degree": 2, "link_types": "midblock+sidewalk"}, "geometry": {"type": "Point", "coordinates": [396073.465, 138913.957]}}, {"type": "Feature", "properties": {"node_id": 283, "node_type": "type_change", "degree": 2, "link_types": "crosswalk+pseudo"}, "geometry": {"type": "Point", "coordinates": [396139.41, 139091.66]}}, {"type": "Feature", "properties": {"node_id": 284, "node_type": "type_change", "degree": 2, "link_types": "crosswalk+pseudo"}, "geometry": {"type": "Point", "coordinates": [396133.01, 139080.7]}}], "crs": {"type": "name", "properties": {"name": "EPSG:26985"}}}